{"type": "FeatureCollection", "features": [{"type": "Feature", "properties": {"name": "Subansiri", "major": false}, "geometry": {"type": "LineString", "coordinates": [[94.3277364, 27.7054581], [94.3185311, 27.7032949], [94.3117959, 27.6919088], [94.2457617, 27.6499551], [94.2273724, 27.6343624], [94.2095136, 27.6094096], [94.2123909, 27.6015181], [94.2263758, 27.5967886], [94.2217142, 27.587671], [94.2256685, 27.5748623], [94.2366956, 27.5691057], [94.247337, 27.5686497], [94.2582355, 27.5560668], [94.2581712, 27.5338187], [94.2952884, 27.5067623], [94.2934927, 27.4996684], [94.2856915, 27.4945659], [94.2755181, 27.4689322], [94.2582629, 27.4556777], [94.2424734, 27.4350369], [94.2378322, 27.4139671], [94.2417838, 27.3934197], [94.2402032, 27.3885746], [94.2128812, 27.3720664], [94.2170539, 27.3604813], [94.2333935, 27.3504046], [94.232742, 27.3421594], [94.2236223, 27.3350709], [94.2098342, 27.334878], [94.2009858, 27.3311648], [94.2052501, 27.3124852], [94.2098016, 27.3079123], [94.2003086, 27.2851381], [94.1995898, 27.2689538], [94.2029041, 27.2634521], [94.2217522, 27.2563526], [94.2225907, 27.2520217], [94.2150036, 27.2419748], [94.1921571, 27.2334412], [94.187315, 27.2261962], [94.190801, 27.2086538], [94.1736037, 27.1856946], [94.1740843, 27.1785189], [94.1811554, 27.1674032], [94.1746463, 27.1550666], [94.1887826, 27.141654], [94.1884094, 27.1151368], [94.185587, 27.1105866], [94.15897, 27.098731], [94.1553779, 27.0931118], [94.1550212, 27.0782904], [94.1461372, 27.0648201], [94.1066254, 27.0305444], [94.1025034, 27.0166604], [94.0822416, 27.0255519], [94.0717571, 27.0264196], [94.0503208, 27.0203389], [94.0347307, 27.0051104], [94.0178637, 27.0055111], [94.0123374, 26.9953326], [94.0087206, 26.9759858], [94.0007596, 26.9620475], [93.9910287, 26.9559922], [93.9914858, 26.9459452], [93.9772594, 26.9382225], [93.9741111, 26.932023], [93.9665472, 26.9300956], [93.9623523, 26.920855], [93.9547723, 26.9173394], [93.9463502, 26.9058256], [93.9409374, 26.9046057], [93.9338975, 26.8966482]]}}, {"type": "Feature", "properties": {"name": "Subansiri", "major": false}, "geometry": {"type": "LineString", "coordinates": [[94.240094, 27.4183221], [94.2587238, 27.4066641], [94.2587011, 27.3908408], [94.2626112, 27.3881765], [94.2643161, 27.3810914], [94.2742049, 27.3856534], [94.2791834, 27.3844423], [94.2749096, 27.3756007], [94.2940922, 27.3571684], [94.2783839, 27.3425294], [94.280403, 27.323753], [94.2718417, 27.3085428], [94.2594334, 27.3040979], [94.249051, 27.3068656], [94.2337969, 27.3001237], [94.2333577, 27.293275], [94.2428016, 27.2699756], [94.2427218, 27.2618827], [94.2385688, 27.2570373], [94.2469746, 27.2482511], [94.264133, 27.237737], [94.2728118, 27.2367429], [94.2761707, 27.2318703], [94.2731988, 27.2241333], [94.2509901, 27.2219295], [94.2462802, 27.2178556], [94.246881, 27.204946], [94.252755, 27.1982569], [94.2443676, 27.1885176], [94.2336971, 27.1833719], [94.2210513, 27.1692151], [94.2044932, 27.1697115], [94.1984509, 27.1656083], [94.1938963, 27.1464732], [94.1997189, 27.1278418], [94.1937912, 27.1192921], [94.1945293, 27.1105628], [94.1889975, 27.1057089], [94.1674624, 27.1013863]]}}, {"type": "Feature", "properties": {"name": "Tirap River", "major": false}, "geometry": {"type": "LineString", "coordinates": [[95.5963357, 26.9218948], [95.6175, 26.935], [95.624167, 26.9525], [95.654167, 26.965], [95.6577587, 26.9751269], [95.6632611, 26.9741472], [95.6692515, 26.9822798], [95.6780635, 26.9833128], [95.6897738, 26.9940147], [95.684167, 27.014167], [95.694167, 27.0275], [95.6937182, 27.0409661], [95.690285, 27.0453713], [95.6949949, 27.0521699], [95.6987393, 27.0526477], [95.7032776, 27.0749325], [95.707097, 27.0783094], [95.7056057, 27.0825651], [95.713824, 27.0904026], [95.7136631, 27.0944239], [95.7023752, 27.1026164], [95.705979, 27.1063], [95.702632, 27.112174], [95.706938, 27.114846], [95.707456, 27.122975], [95.712148, 27.122815], [95.711051, 27.129283], [95.716395, 27.127514], [95.719158, 27.122054], [95.7214048, 27.1243035], [95.7182783, 27.1257709], [95.719358, 27.129613], [95.72596, 27.131391], [95.72953, 27.128227], [95.7361104, 27.1338908], [95.739062, 27.128043], [95.754111, 27.130557], [95.751543, 27.140915], [95.7617048, 27.137511], [95.764303, 27.144187], [95.758051, 27.151213], [95.771186, 27.146781], [95.764642, 27.158672], [95.768866, 27.15904], [95.771168, 27.163152], [95.772704, 27.157099], [95.77689, 27.158819], [95.778215, 27.165344], [95.773257, 27.169424], [95.778738, 27.168197], [95.789913, 27.174136], [95.794906, 27.168838], [95.802082, 27.17712], [95.804647, 27.172037], [95.806307, 27.177487], [95.809025, 27.177684], [95.804354, 27.182314], [95.813376, 27.184278], [95.815744, 27.180814], [95.816711, 27.18936], [95.821376, 27.190278], [95.824647, 27.197658], [95.833595, 27.196914], [95.833453, 27.191228], [95.839248, 27.195012], [95.848336, 27.194676], [95.847416, 27.200473], [95.85339, 27.197901], [95.854569, 27.204422], [95.849294, 27.209039], [95.862507, 27.218131], [95.873175, 27.215528], [95.875731, 27.221539], [95.873073, 27.224592], [95.884842, 27.231349], [95.898505, 27.246266], [95.889745, 27.24553], [95.893807, 27.246432], [95.89666, 27.252719], [95.893238, 27.256026], [95.894117, 27.267953], [95.900745, 27.269182], [95.900883, 27.275139], [95.905582, 27.274972], [95.897649, 27.282509], [95.906745, 27.282169], [95.908809, 27.289657], [95.913686, 27.288547], [95.931079, 27.300432], [95.938341, 27.300726], [95.942605, 27.30542], [95.947497, 27.303768], [95.96049, 27.310546], [95.956355, 27.317763], [95.96244, 27.316813], [95.963183, 27.322918], [95.976732, 27.326054], [95.97424, 27.328571], [95.966554, 27.327051], [95.968926, 27.334545], [95.962987, 27.335633], [95.958902, 27.340957], [95.9709986, 27.3529434], [95.9639509, 27.3567237], [95.958755, 27.351914], [95.955995, 27.353072], [95.964041, 27.363666], [95.962892, 27.366888], [95.959231, 27.367756], [95.956294, 27.364309], [95.948395, 27.370496], [95.943829, 27.36566], [95.94098, 27.370063], [95.938229, 27.365402], [95.93413, 27.37113], [95.928019, 27.37289], [95.9214391, 27.3670847], [95.9228139, 27.3617977], [95.913573, 27.358228], [95.9030616, 27.3616657], [95.900724, 27.367956], [95.894961, 27.362686], [95.889546, 27.366625], [95.88584, 27.358289], [95.880395, 27.357896], [95.881895, 27.353059], [95.873395, 27.353545], [95.872321, 27.34865], [95.875755, 27.345074], [95.862486, 27.342747], [95.861276, 27.337307], [95.8530387, 27.3316189], [95.84928, 27.338255], [95.841326, 27.340916], [95.8416667, 27.3313812], [95.8377458, 27.3324645], [95.836822, 27.339461], [95.825944, 27.338402], [95.829402, 27.334016], [95.827025, 27.332338], [95.821544, 27.333296], [95.819297, 27.33771], [95.817755, 27.333345], [95.824172, 27.331462], [95.825976, 27.326632], [95.817467, 27.32752], [95.813818, 27.322702], [95.800511, 27.327133], [95.7971087, 27.3212759], [95.800056, 27.3196304], [95.80015, 27.3134644], [95.787871, 27.308442], [95.780104, 27.309887], [95.776044, 27.314123], [95.774187, 27.320709], [95.779139, 27.322312], [95.776623, 27.325501], [95.770355, 27.322244], [95.762413, 27.324496], [95.759089, 27.319007], [95.751783, 27.32019], [95.740894, 27.309248], [95.735323, 27.313312], [95.734097, 27.324107], [95.7310164, 27.3256834]]}}, {"type": "Feature", "properties": {"name": "Barak River", "major": false}, "geometry": {"type": "LineString", "coordinates": [[93.1715738, 24.5200129], [93.1670499, 24.513907], [93.1683699, 24.504423], [93.1599189, 24.495084], [93.1617669, 24.4920173], [93.1705064, 24.4921286], [93.1652259, 24.477602], [93.1694076, 24.4703873], [93.1626959, 24.467173], [93.1618019, 24.462432], [93.1650539, 24.459719], [93.1585339, 24.452953], [93.1582249, 24.442521], [93.1523321, 24.4310022], [93.1480216, 24.4294916], [93.13109, 24.4044644], [93.129902, 24.3909906], [93.1220569, 24.381184], [93.1239988, 24.3745896], [93.1093086, 24.372003], [93.1035108, 24.3658157], [93.0825279, 24.326342], [93.0600429, 24.30156], [93.0586128, 24.2943391], [93.0510189, 24.284493], [93.0525702, 24.2787268], [93.0229309, 24.25483], [93.0254399, 24.241552], [93.0207109, 24.234914], [93.0155399, 24.236134], [93.0031299, 24.258489], [93.0118489, 24.271089], [93.0063819, 24.282469], [93.0306289, 24.315794], [93.0403949, 24.342345], [93.0361079, 24.346411], [93.0298969, 24.344651], [93.0174759, 24.349259], [93.0170339, 24.363485], [93.0213249, 24.373916], [93.0185169, 24.384619], [93.0254699, 24.390308], [93.0084599, 24.409277], [93.0083119, 24.412935], [93.0142309, 24.417269], [93.0163009, 24.408734], [93.0242899, 24.407243], [93.0421939, 24.415096], [93.0424919, 24.421193], [93.0384969, 24.421871], [93.0325809, 24.430272], [93.0362849, 24.446122], [93.0354009, 24.460754], [93.0450844, 24.4632169], [93.0453229, 24.476873], [93.0314129, 24.495166], [93.0420537, 24.5044353], [93.0371919, 24.511828], [93.0496319, 24.519004], [93.0462299, 24.52876], [93.0545339, 24.553142], [93.0595699, 24.554631], [93.0608999, 24.548534], [93.0646019, 24.547042], [93.0707118, 24.5589147], [93.0575059, 24.57414], [93.0607659, 24.577119], [93.0767649, 24.575621], [93.0831319, 24.570876], [93.088448, 24.5725814], [93.0923498, 24.5810103], [93.1026939, 24.58116], [93.1045443, 24.5839261], [93.0927759, 24.592005], [93.0794409, 24.590386], [93.0707049, 24.600145], [93.0840499, 24.613956], [93.075997, 24.6248402], [93.0802885, 24.6282733], [93.08664, 24.627337], [93.0881849, 24.6363874], [93.0837217, 24.6493376], [93.0950514, 24.652146], [93.0969397, 24.6638466], [93.1042048, 24.6738156], [93.1032113, 24.6796061], [93.0897884, 24.6774811], [93.0915119, 24.6871222], [93.0817294, 24.7012036], [93.0735937, 24.7068954], [93.0820155, 24.7185067], [93.0801788, 24.7226206], [93.0727098, 24.7271859], [93.0578052, 24.7257487], [93.0439678, 24.730469], [93.0419137, 24.7463677], [93.0329766, 24.7615473], [93.0311515, 24.7828198], [93.0176065, 24.7892272], [92.990999, 24.790474], [92.9779528, 24.7859545], [92.9573534, 24.790474], [92.9470418, 24.8026717], [92.9348028, 24.8095287], [92.9162693, 24.8006821], [92.9096389, 24.7931436], [92.9031801, 24.7751819], [92.9121923, 24.76053], [92.9091292, 24.7511379], [92.9015279, 24.7514302], [92.8718948, 24.7728439], [92.8537428, 24.7622762], [92.8425097, 24.7497031], [92.8311265, 24.7699919], [92.8331757, 24.7869414], [92.8152284, 24.7848863], [92.8132445, 24.7956132], [92.8153766, 24.8025287], [92.8219971, 24.8073614], [92.8305838, 24.7948601], [92.8358079, 24.7960712], [92.8439122, 24.8070498], [92.8480391, 24.824953], [92.8538416, 24.8277147], [92.8621406, 24.8260846], [92.8624247, 24.8294284], [92.8489842, 24.8344186], [92.8359238, 24.8351369], [92.8258977, 24.8316799], [92.8204231, 24.8231124], [92.8068064, 24.824443], [92.8059278, 24.8324581], [92.8165582, 24.8428482], [92.8163299, 24.8456231], [92.8098554, 24.8466624], [92.801249, 24.8437529], [92.7938962, 24.8330806], [92.7843463, 24.8340257], [92.7820103, 24.8496017], [92.7672817, 24.8535818], [92.7691454, 24.8682342], [92.7575526, 24.8590176], [92.741727, 24.8742672], [92.7303901, 24.8968923], [92.731298, 24.9127595], [92.7281224, 24.9155549], [92.7158687, 24.9113515], [92.7039723, 24.8926615], [92.7013278, 24.8815507], [92.7055442, 24.8734623], [92.7204251, 24.8756718], [92.7276563, 24.8733163], [92.7297592, 24.8681573], [92.7145457, 24.8603309], [92.7046323, 24.8684299], [92.697401, 24.8682352], [92.6828956, 24.85743], [92.6818442, 24.8480257], [92.6850414, 24.8434888], [92.6971972, 24.8381826], [92.6974967, 24.8346856], [92.6945077, 24.8338149], [92.6779015, 24.8436442], [92.6662552, 24.8460104], [92.6523111, 24.8308306], [92.6449297, 24.8260009], [92.6387499, 24.8270915], [92.6407316, 24.8446849], [92.6347201, 24.8562042], [92.6192074, 24.8585919], [92.6000257, 24.8695264], [92.5987528, 24.881141], [92.5766085, 24.874756], [92.554319, 24.8779028], [92.5415895, 24.8683706], [92.5275133, 24.8629195], [92.5225747, 24.8649061], [92.5217198, 24.8744153], [92.5171727, 24.8814776], [92.489126, 24.8759119]]}}, {"type": "Feature", "properties": {"name": "Brahmaputra", "major": true}, "geometry": {"type": "LineString", "coordinates": [[89.9403476, 25.8969089], [89.9339103, 25.8851721], [89.9177742, 25.8678737], [89.9089658, 25.8436208], [89.9074638, 25.8218739], [89.904331, 25.8168905], [89.8872292, 25.8084105], [89.8737109, 25.8068264], [89.8608363, 25.7993503], [89.8608684, 25.7876811], [89.8670268, 25.7736148], [89.8587012, 25.7316957], [89.832716, 25.7339573], [89.8069238, 25.7261092], [89.7719907, 25.7270371], [89.7621631, 25.7230936], [89.7456836, 25.7088263], [89.7436, 25.6744206], [89.7598672, 25.6308671], [89.7319722, 25.6069721], [89.724462, 25.5929425], [89.7249126, 25.5861496], [89.7404051, 25.5672011], [89.7423148, 25.5552768], [89.7544169, 25.5444259], [89.751091, 25.5199037], [89.7443104, 25.5076262], [89.7394502, 25.4885491], [89.7379589, 25.462669], [89.74298, 25.4441272], [89.7119227, 25.4137243], [89.7103643, 25.4054651], [89.7159755, 25.3879226], [89.7104395, 25.3781519], [89.6802806, 25.3465858], [89.6634257, 25.3449957], [89.6657646, 25.3119273], [89.6585977, 25.2985616], [89.6600997, 25.2924699], [89.6699692, 25.2824296], [89.671644, 25.2708168], [89.6565681, 25.2431449], [89.66113, 25.2349944], [89.6591318, 25.2225162], [89.6808619, 25.1995363]]}}, {"type": "Feature", "properties": {"name": "Brahmaputra", "major": true}, "geometry": {"type": "LineString", "coordinates": [[89.9403476, 25.8969089], [89.9221086, 25.8841683], [89.8836779, 25.8826046], [89.8722195, 25.8769094], [89.8628854, 25.8793419], [89.8510837, 25.8647845], [89.8299624, 25.8491571], [89.7966242, 25.8447988], [89.7874725, 25.8272917], [89.7910881, 25.8235398], [89.7904229, 25.8156639], [89.748795, 25.781421]]}}, {"type": "Feature", "properties": {"name": "Brahmaputra", "major": true}, "geometry": {"type": "LineString", "coordinates": [[95.3400888, 28.0790301], [95.3464472, 28.0741387], [95.378344, 28.0695568], [95.3830433, 28.0615665], [95.3885043, 28.0392775], [95.3811443, 28.0160651], [95.3817343, 28.0048786], [95.3878787, 27.9890593], [95.3833008, 27.9694738], [95.3833759, 27.9511463], [95.4009835, 27.930985], [95.4031598, 27.9106612], [95.412118, 27.8861532], [95.4035567, 27.8710999], [95.3824639, 27.8464379], [95.3746748, 27.8416376], [95.347681, 27.834655], [95.3266525, 27.8122433], [95.3245067, 27.7819867], [95.3048944, 27.7672539], [95.294981, 27.7549118], [95.2900672, 27.7414479], [95.2867412, 27.7149518], [95.2784156, 27.6983862], [95.2621507, 27.6778656], [95.2530956, 27.6584815], [95.2486753, 27.6555926], [95.2372169, 27.6557826], [95.224514, 27.6660455], [95.2143001, 27.6662925], [95.1990223, 27.660458], [95.1653766, 27.6362805], [95.1590037, 27.6348358], [95.1532531, 27.6257107], [95.1442194, 27.6261289], [95.13731, 27.6320793], [95.1334047, 27.6307486], [95.1270318, 27.6146835], [95.1185131, 27.6094738], [95.1134276, 27.5941092], [95.097506, 27.5885561], [95.0844168, 27.579294], [95.0751686, 27.5647812], [95.1028605, 27.5507548], [95.105145, 27.5474889], [95.10257, 27.5434175], [95.078001, 27.5429799], [95.0719285, 27.549106], [95.0665855, 27.5495055], [95.0599018, 27.5438998], [95.0492477, 27.541629], [95.0431537, 27.5573244], [95.0374889, 27.5627459], [95.0243783, 27.5675204], [95.0150871, 27.5660937], [95.0030923, 27.5573814], [94.9921918, 27.5607865], [94.9796176, 27.5592647], [94.9652195, 27.5706969], [94.9514115, 27.5673587], [94.9460792, 27.5618993], [94.9340629, 27.5573243], [94.9132597, 27.5565444], [94.8892808, 27.5482689], [94.8699045, 27.5316399], [94.8631668, 27.5301938], [94.8552154, 27.5128856], [94.8445415, 27.5167022], [94.8263025, 27.500982], [94.8048019, 27.4948532], [94.8020768, 27.4903611], [94.8026347, 27.4804245], [94.7911119, 27.4795678], [94.7857475, 27.4706202], [94.7864771, 27.4658414], [94.7929358, 27.4607579], [94.7928071, 27.4555028], [94.7860265, 27.4510281], [94.7785806, 27.4380218], [94.772079, 27.440288], [94.7675299, 27.4361365], [94.7676372, 27.4210715], [94.7618436, 27.4085761], [94.7320174, 27.4006515], [94.7262668, 27.3936407], [94.7176837, 27.3714625], [94.6994876, 27.3597238], [94.6981143, 27.3347939], [94.6826648, 27.3235088], [94.6745967, 27.290028], [94.632368, 27.287816], [94.6261882, 27.2695075], [94.6019411, 27.2540192], [94.595375, 27.2308973], [94.5831871, 27.2281879], [94.5836162, 27.2010147], [94.5884228, 27.1877119], [94.5884311, 27.1771719], [94.594388, 27.1642898], [94.5934867, 27.1578369], [94.5825004, 27.1475268], [94.5606136, 27.1478704], [94.5304011, 27.1301883], [94.524908, 27.1134583], [94.5143508, 27.1070406], [94.5080101, 27.0743641], [94.5111322, 27.0632055], [94.5064866, 27.0545014], [94.4958436, 27.0452137], [94.4832372, 27.0437039], [94.4732164, 27.0286049], [94.4642901, 27.0252789], [94.462595, 27.0210163], [94.4668972, 27.0186268], [94.456898, 27.0042604], [94.4258594, 26.9731412], [94.4079208, 26.9699571], [94.3993056, 26.9736002], [94.3693828, 26.9768512], [94.3607997, 26.9742504], [94.326725, 26.9519122], [94.3008648, 26.9122576], [94.2875218, 26.8997405], [94.2771792, 26.8955114], [94.2652058, 26.8742103], [94.2544341, 26.8665539], [94.2214107, 26.8611368], [94.2057895, 26.8726982], [94.1639041, 26.8753778], [94.1527891, 26.8727748], [94.1466951, 26.8659605], [94.1324472, 26.8643909], [94.1219329, 26.8571167], [94.107213, 26.8665731], [94.0904331, 26.8641229], [94.0804767, 26.8756841], [94.0651988, 26.8738467], [94.0357589, 26.8780575], [94.0261458, 26.874842], [94.0149879, 26.8624767], [94.0055036, 26.8587247], [94.0021991, 26.8593373], [93.9962339, 26.871454], [93.980999, 26.8580356], [93.9765894, 26.8583706], [93.9685213, 26.8663625], [93.9487374, 26.8632136], [93.9389419, 26.8660466], [93.9236855, 26.8565711], [93.9084613, 26.8596531], [93.9048672, 26.8547142], [93.8914883, 26.8545036], [93.872112, 26.8458025], [93.8568985, 26.8465205], [93.8409877, 26.8419544], [93.8127493, 26.8215432], [93.7833309, 26.8208154], [93.7780309, 26.8127342], [93.7478936, 26.7883144], [93.7257385, 26.7785642], [93.7171876, 26.7700968], [93.704474, 26.7687653], [93.7025105, 26.7605175], [93.6971783, 26.7568579], [93.6581254, 26.7472008], [93.6366033, 26.7363356], [93.6211678, 26.7368181], [93.6145905, 26.7310266], [93.5999826, 26.730005], [93.5824548, 26.7335707], [93.5618751, 26.7287234], [93.5379921, 26.714402], [93.5269304, 26.7125575], [93.5210555, 26.7129368], [93.5079579, 26.7267638], [93.4942376, 26.7337414], [93.4766236, 26.760129], [93.4603072, 26.7654222], [93.4232711, 26.7602109], [93.4003543, 26.7646175], [93.3887243, 26.7603833], [93.3762359, 26.7502858], [93.3636188, 26.7492895], [93.3472681, 26.7527001], [93.3233642, 26.7496727], [93.3129787, 26.7453805], [93.3015847, 26.7352625], [93.2994174, 26.7131071], [93.2948684, 26.7004559], [93.2810926, 26.6790222], [93.2430267, 26.6809395], [93.1932391, 26.6423561], [93.1858788, 26.6428738], [93.1676794, 26.6558061], [93.1348371, 26.6573544], [93.1154823, 26.6697803], [93.1002044, 26.673155], [93.0779742, 26.6453875], [93.0702495, 26.6407077], [93.048706, 26.6407845], [93.0155753, 26.6468451], [93.008623, 26.6433161], [93.0017137, 26.6312326], [92.993946, 26.6281635], [92.9789257, 26.6294679], [92.9191124, 26.6169848], [92.8849625, 26.6187449], [92.8435599, 26.6029847], [92.7692842, 26.6138434], [92.7448869, 26.5957418], [92.7261758, 26.5959528], [92.7124643, 26.5801799], [92.6918853, 26.5876004], [92.683196, 26.5877596], [92.6612019, 26.5807748], [92.6417613, 26.5804486], [92.6342726, 26.5743461], [92.6268911, 26.577263], [92.6168328, 26.5757134], [92.6012331, 26.5861381], [92.5695562, 26.5974686], [92.5380992, 26.5806213], [92.5124358, 26.5893523], [92.4893153, 26.5874909], [92.4430418, 26.5506238], [92.399311, 26.5350943], [92.367661, 26.5325601], [92.3482847, 26.5061602], [92.3462677, 26.4933709], [92.3268293, 26.4866538], [92.3220634, 26.472782], [92.314213, 26.4657774], [92.2757793, 26.4610647], [92.2291302, 26.4473481], [92.220926, 26.4313181], [92.1914077, 26.4289031], [92.1855926, 26.422735], [92.1833609, 26.4096865], [92.1544789, 26.4000385], [92.1443938, 26.3916391], [92.1445655, 26.3526518], [92.1378706, 26.3404992], [92.1310042, 26.3371148], [92.1075725, 26.3321916], [92.0734977, 26.3148053], [92.0537996, 26.3121894], [92.0341014, 26.3183443], [92.0157766, 26.309612], [91.9858646, 26.305111], [91.9498586, 26.2870665], [91.9305896, 26.2661329], [91.8924379, 26.2567039], [91.8721604, 26.2375548], [91.8401027, 26.2384017], [91.818881, 26.2312224], [91.7974877, 26.2356109], [91.787467, 26.2312224], [91.7695283, 26.213744], [91.7401313, 26.1978803], [91.7163562, 26.1799732], [91.6610373, 26.1756308], [91.6040897, 26.1772773], [91.5549087, 26.1459615], [91.5091609, 26.1241549], [91.4971446, 26.1213806], [91.4591215, 26.125388], [91.3719176, 26.1582115], [91.3577342, 26.1668204], [91.3408041, 26.1687655], [91.3242816, 26.1784713], [91.2684488, 26.1855959], [91.2511539, 26.2025781], [91.2418842, 26.2071986], [91.1963081, 26.2062745], [91.1272037, 26.2107023], [91.1230516, 26.2136093], [91.1152839, 26.2320694], [91.0937619, 26.2420008], [91.0777759, 26.2447722], [91.0445594, 26.2442333], [91.0267066, 26.2406151], [91.0088538, 26.2282968], [90.9873533, 26.2048113], [90.9698867, 26.1985734], [90.9310484, 26.197861], [90.8994197, 26.2074296], [90.8752584, 26.2087002], [90.8693361, 26.2055814], [90.8560324, 26.1857692], [90.8270216, 26.1854034], [90.8145761, 26.1698824], [90.8069372, 26.1662619], [90.7949638, 26.1673019], [90.7632922, 26.1834008], [90.719819, 26.1970909], [90.7009792, 26.1870208], [90.6890916, 26.1848257], [90.6688785, 26.1909488], [90.6268214, 26.1931054], [90.5156707, 26.2259099], [90.5001998, 26.2264296], [90.474236, 26.2178251], [90.4475856, 26.2179599], [90.4366636, 26.2057354], [90.4301834, 26.2034251], [90.4065532, 26.2124121], [90.3704881, 26.184094], [90.3436661, 26.1854419], [90.3371644, 26.1829964], [90.3336749, 26.1784681], [90.329555, 26.1526229], [90.3231096, 26.1367154], [90.2796363, 26.1199934], [90.2785635, 26.112094], [90.2712678, 26.1049648], [90.2365494, 26.1052538], [90.2185035, 26.0864267], [90.1719188, 26.0779854], [90.1207208, 26.051501], [90.0845432, 26.0438283], [90.077548, 26.0438283], [90.063394, 26.0509003], [90.0470567, 26.0346319], [90.0347614, 26.0275558], [89.9998927, 26.0211927], [89.9693584, 25.9929404], [89.9642515, 25.9848588], [89.9622774, 25.9727064], [89.9687791, 25.9649128], [89.9682426, 25.9567135], [89.9549818, 25.9419919], [89.9542522, 25.9354698], [89.9590587, 25.9279053], [89.9465704, 25.9142417], [89.9403476, 25.8969089]]}}, {"type": "Feature", "properties": {"name": "Brahmaputra", "major": true}, "geometry": {"type": "LineString", "coordinates": [[90.996907, 26.1195796], [90.9377787, 26.09471], [90.9219456, 26.0900351], [90.8972198, 26.0894507], [90.8551426, 26.0972422], [90.8322143, 26.109936], [90.8073663, 26.1182594], [90.7892561, 26.1206485], [90.7636785, 26.1335561], [90.7548379, 26.1335561], [90.739882, 26.1237503], [90.7277934, 26.1212194]]}}, {"type": "Feature", "properties": {"name": "Brahmaputra", "major": true}, "geometry": {"type": "LineString", "coordinates": [[95.1210344, 27.7217806], [95.1177084, 27.7198051], [95.1217371, 27.7176872], [95.1176011, 27.7154504], [95.107795, 27.7156642], [95.104351, 27.704912], [95.0988901, 27.7032972], [95.0949545, 27.6965441], [95.0805652, 27.6865255], [95.0675297, 27.6884873], [95.0596332, 27.6836421], [95.0494194, 27.6827585], [95.0443776, 27.6770489]]}}, {"type": "Feature", "properties": {"name": "Burhi Dihing", "major": false}, "geometry": {"type": "LineString", "coordinates": [[95.9334367, 27.4217146], [95.9257734, 27.4174166], [95.9187298, 27.4236486], [95.9186711, 27.4295921], [95.9107601, 27.4327796], [95.906626, 27.431033], [95.8988061, 27.4172608], [95.8980595, 27.4033332], [95.8831358, 27.3947361], [95.8770955, 27.3966127], [95.8763655, 27.4097155], [95.873394, 27.4139763], [95.8590817, 27.4077379], [95.8418622, 27.4099256], [95.835036, 27.406905], [95.8312742, 27.402949], [95.8313162, 27.39316], [95.8201255, 27.3948854], [95.8123015, 27.4000214], [95.800678, 27.3988035], [95.7822841, 27.3792426], [95.7836029, 27.3701875], [95.790843, 27.3600188], [95.7902719, 27.3546449], [95.7822315, 27.3520383], [95.7703997, 27.3584967], [95.7583647, 27.3562365], [95.7615455, 27.3439822], [95.7597339, 27.3389543], [95.7310164, 27.3256834], [95.7245852, 27.3258161], [95.7198497, 27.3322247], [95.713024, 27.334123], [95.7098258, 27.3242294], [95.711249, 27.3129333], [95.7005707, 27.2993031], [95.6823458, 27.3005376], [95.6638813, 27.285108], [95.6581735, 27.284574], [95.6490755, 27.2888457], [95.6410932, 27.2973885], [95.6313085, 27.299753], [95.605452, 27.283201], [95.5792736, 27.2843261], [95.5760121, 27.2721776], [95.5710339, 27.2677337], [95.5656051, 27.270957], [95.562129, 27.2802641], [95.5621719, 27.2950622], [95.5544042, 27.2970453], [95.5488681, 27.2930028], [95.5461645, 27.2821711], [95.5387401, 27.2721014], [95.5197195, 27.257231], [95.5158095, 27.2563248], [95.5090753, 27.2606652], [95.5026333, 27.2467829], [95.4851152, 27.2422627], [95.4822874, 27.2442051], [95.4817489, 27.2532537], [95.4713839, 27.252612], [95.4718719, 27.2618887], [95.465862, 27.2626234], [95.4535849, 27.2495834], [95.4562475, 27.2397326], [95.4507177, 27.2315533], [95.4468049, 27.2374176], [95.4468991, 27.2471205], [95.4384157, 27.2557605], [95.4326702, 27.2511549], [95.4204412, 27.2490311], [95.4099528, 27.2548507], [95.3979787, 27.2684833], [95.3835069, 27.2955456], [95.3706609, 27.2952213], [95.3639697, 27.284066], [95.3553562, 27.2898126], [95.3468903, 27.3018921], [95.3318916, 27.2960703], [95.3299113, 27.3009962], [95.3325637, 27.317398], [95.3196891, 27.3245661], [95.3152259, 27.3245661], [95.3016646, 27.3154153], [95.2958281, 27.3061112], [95.2845093, 27.3023359], [95.2636845, 27.3261293], [95.2376349, 27.3346312], [95.2233227, 27.3485072], [95.1935828, 27.3602859], [95.1871236, 27.3516875], [95.1879752, 27.3439437], [95.182871, 27.335143], [95.1721284, 27.336236], [95.159087, 27.3477503], [95.1543712, 27.3444448], [95.1542075, 27.3346312], [95.1512893, 27.3312762], [95.1279541, 27.3297949], [95.1147049, 27.3250084], [95.0994624, 27.3268211], [95.0878343, 27.3177806], [95.0751156, 27.318904], [95.068047, 27.3072304], [95.0625664, 27.3055564], [95.054228, 27.3262778], [95.0366368, 27.3267755], [95.0351189, 27.3312385], [95.0405049, 27.3418988], [95.0349502, 27.3453974], [95.0243591, 27.3430529], [95.0220932, 27.345524], [95.0239651, 27.3547447], [95.0113534, 27.3571929], [95.0024434, 27.3495981], [94.9944057, 27.3507522], [94.9914305, 27.3572332], [94.9938943, 27.3646004], [95.0062856, 27.3743305], [94.9999177, 27.3810111], [94.9950173, 27.3785438], [94.9889193, 27.3637783], [94.9754665, 27.3490219], [94.9597811, 27.3469261], [94.9532997, 27.3351107], [94.9420209, 27.3352318], [94.9386081, 27.331799], [94.937659, 27.3230375], [94.9229832, 27.3186586], [94.9154103, 27.3082433], [94.9088723, 27.3096458], [94.9094292, 27.3160301], [94.905586, 27.3204239], [94.8840973, 27.3153877], [94.8799412, 27.3040253], [94.8707491, 27.2942727], [94.8645499, 27.2932956], [94.8566059, 27.2992806], [94.8444097, 27.2952247], [94.8409494, 27.2886659], [94.8426094, 27.2773727], [94.8352956, 27.2768311], [94.8308521, 27.2713021], [94.8097733, 27.285303], [94.806959, 27.290437], [94.8033462, 27.290123], [94.7998525, 27.2844198], [94.8025842, 27.2675692], [94.7984948, 27.2615896], [94.7977145, 27.2519006], [94.7914284, 27.2483345], [94.7806853, 27.2488335], [94.7755862, 27.2343602], [94.7696867, 27.236788], [94.7680299, 27.2454775], [94.7387992, 27.2504469], [94.7421384, 27.2626866], [94.7518175, 27.2719354], [94.7497621, 27.2764271], [94.728969, 27.2732474], [94.7199433, 27.2688382], [94.7155635, 27.2586642], [94.7211048, 27.2440576], [94.7109901, 27.2485108], [94.705646, 27.2619734], [94.6989512, 27.2637473], [94.6741462, 27.2493456], [94.6694255, 27.2399978], [94.6575594, 27.2313933], [94.6607566, 27.2257265], [94.6553492, 27.2191054], [94.6590614, 27.211339], [94.6520877, 27.2030663], [94.6529782, 27.1948406], [94.6454036, 27.1836845], [94.6258235, 27.1748657], [94.6187532, 27.1769941], [94.6080673, 27.1725272]]}}, {"type": "Feature", "properties": {"name": "Kopili", "major": false}, "geometry": {"type": "LineString", "coordinates": [[92.6334064, 25.5286363], [92.6428449, 25.5340484], [92.6457739, 25.5564044], [92.6572262, 25.5613871], [92.6578235, 25.5707962], [92.6829434, 25.5748373], [92.6853434, 25.5781567], [92.6794234, 25.5797442], [92.6797434, 25.5839293], [92.6964384, 25.5993201], [92.7128224, 25.599394], [92.7153619, 25.5905283], [92.7225708, 25.5873512], [92.7450168, 25.5955522], [92.7514885, 25.6019797], [92.7497682, 25.6089978], [92.7555845, 25.6155722], [92.7638993, 25.6140044], [92.7682435, 25.6171595], [92.7687101, 25.6196208], [92.7615646, 25.6222202], [92.7577963, 25.6286462], [92.7675354, 25.6329274], [92.7709579, 25.6391567], [92.782706, 25.6459852], [92.7900132, 25.6599097], [92.7743268, 25.6733052], [92.7776956, 25.6794549], [92.799046, 25.6896265], [92.8013849, 25.6984243], [92.814048, 25.7027583], [92.8151054, 25.7092305], [92.8224771, 25.7186281], [92.8211045, 25.7412249], [92.8453767, 25.7514859], [92.8842474, 25.7568901], [92.9241833, 25.7730087], [92.9289347, 25.7777353], [92.9284762, 25.7931659], [92.9329312, 25.8004418], [92.9302045, 25.8055058], [92.9220983, 25.8087187], [92.9083152, 25.8022847], [92.9036673, 25.8035542], [92.9078646, 25.8230944], [92.8923262, 25.8299483], [92.8894576, 25.8341198], [92.8845053, 25.8756624], [92.8770314, 25.8768806], [92.8658181, 25.8648677], [92.8570338, 25.8673736], [92.864278, 25.8836832], [92.8505039, 25.8948312], [92.8445248, 25.9216812], [92.8327345, 25.91432], [92.8103807, 25.9281116], [92.7997225, 25.9177367], [92.7964699, 25.918306], [92.7976414, 25.9340516], [92.7884968, 25.9516975], [92.8027257, 25.9629752], [92.7888108, 25.9650381], [92.7749223, 25.9493577], [92.7607824, 25.9650088], [92.7602456, 25.9697157], [92.774799, 25.9832337], [92.7720231, 25.9866194], [92.7587669, 25.9892889], [92.7611977, 26.0005425], [92.7584621, 26.0041972], [92.7690799, 26.00796], [92.7831092, 26.0063166], [92.7841168, 26.0099405], [92.7741093, 26.0171208], [92.7536374, 26.0191849], [92.754972, 26.0251889], [92.7652656, 26.0270631], [92.7679101, 26.0307952], [92.7653746, 26.0345476], [92.7528169, 26.0359218], [92.7439291, 26.046287], [92.7471114, 26.050768], [92.7600261, 26.0518538], [92.7543472, 26.0711122], [92.7470781, 26.0757118], [92.7330989, 26.0735394], [92.7421088, 26.0861369], [92.7421486, 26.0921526], [92.7356006, 26.104931], [92.7235788, 26.0991421], [92.7158504, 26.1008602], [92.7193366, 26.1062977], [92.7287435, 26.1044685], [92.7318189, 26.1144841], [92.7246233, 26.1204297], [92.7007017, 26.1279622], [92.7000151, 26.1332379], [92.7063384, 26.1398464], [92.7054602, 26.1460102], [92.6740352, 26.1417242], [92.674131, 26.1476586], [92.6843824, 26.1531053], [92.6796928, 26.1599115], [92.6730931, 26.1604007], [92.6501252, 26.1528066], [92.6457719, 26.1551263], [92.64368, 26.1630808], [92.6269663, 26.1620891], [92.6183822, 26.175075], [92.6031236, 26.1729296], [92.6022335, 26.1827205], [92.5979103, 26.1838159], [92.5912597, 26.1796963], [92.5904844, 26.1833595], [92.6041497, 26.2001276], [92.5867206, 26.1884485], [92.5756581, 26.1934004], [92.5657401, 26.192191], [92.5594357, 26.1984298], [92.5542961, 26.1895895], [92.548803, 26.1871706], [92.5404887, 26.1958185], [92.5394444, 26.2037144], [92.5293738, 26.1976448], [92.5213246, 26.1983353], [92.517518, 26.1956013], [92.5150637, 26.2005489], [92.5118401, 26.2002304], [92.5103387, 26.1893709], [92.4971016, 26.1828466], [92.4812245, 26.1848618], [92.4786821, 26.1736259], [92.4646496, 26.1763493], [92.4522624, 26.1726818], [92.4463292, 26.1827188], [92.4322057, 26.1785386], [92.416445, 26.184999], [92.4096805, 26.1800165], [92.3938908, 26.1821663], [92.3834796, 26.1718701], [92.3605434, 26.1685972], [92.3492932, 26.1638834], [92.3428666, 26.1562469], [92.335705, 26.1582294], [92.3230988, 26.1526596], [92.3194486, 26.1465953], [92.3111625, 26.1445349], [92.3087275, 26.1521685], [92.3012602, 26.1507094], [92.2968829, 26.1552935], [92.298144, 26.1571832], [92.3024619, 26.1546387], [92.2996294, 26.1592611], [92.2907567, 26.1577877], [92.2894845, 26.1630381], [92.282474, 26.168101], [92.2765195, 26.1606382], [92.2598255, 26.1729925], [92.2395801, 26.168804], [92.2263293, 26.179956], [92.2087884, 26.1757656], [92.2063959, 26.1785771], [92.2098935, 26.1870978], [92.2058487, 26.1897935], [92.1848953, 26.1792703], [92.1825027, 26.165867], [92.1715486, 26.1692662], [92.1635985, 26.1624775], [92.1539855, 26.1709127], [92.1494526, 26.1612738], [92.1317875, 26.1724822], [92.1298349, 26.180599], [92.1060491, 26.1721645], [92.0813084, 26.1777587], [92.093389, 26.1853841], [92.0934534, 26.1894566], [92.0817053, 26.185076], [92.0766406, 26.1959281], [92.0609021, 26.1959645], [92.0463792, 26.215648], [92.0451951, 26.2012111], [92.0418584, 26.1984482], [92.0382545, 26.1990601], [92.0358276, 26.2075461], [92.029564, 26.2098755], [92.0211303, 26.20098], [92.0132786, 26.2075824], [91.9993085, 26.2047023], [91.9684939, 26.227346], [91.9596464, 26.2302945], [91.9563488, 26.2505189], [91.9001627, 26.2448876], [91.9014501, 26.2602062]]}}, {"type": "Feature", "properties": {"name": "Kopili", "major": false}, "geometry": {"type": "LineString", "coordinates": [[92.7742195, 25.17333], [92.7803993, 25.1843599], [92.7941322, 25.1869619], [92.8024149, 25.1986895], [92.7944863, 25.2097171], [92.8024658, 25.2169704], [92.8019804, 25.219676], [92.7823332, 25.2305586], [92.7726907, 25.2308449], [92.7708452, 25.2375729], [92.7629059, 25.2462049], [92.7652636, 25.25071], [92.7734819, 25.2512801], [92.7770948, 25.2578541], [92.7680773, 25.2685974], [92.7871853, 25.2744477], [92.79226, 25.2838993], [92.783507, 25.3007377]]}}, {"type": "Feature", "properties": {"name": "Disang River", "major": false}, "geometry": {"type": "LineString", "coordinates": [[95.3733015, 26.9611119], [95.3806722, 26.9622116], [95.3733122, 26.965482], [95.3793311, 26.9756464], [95.3746748, 26.9770519], [95.3778398, 26.9842227], [95.3718424, 26.9877028], [95.3782904, 26.9937353], [95.3811228, 27.0026258], [95.375222, 27.0084854], [95.3799534, 27.0059715], [95.3857791, 27.0092023], [95.3826141, 27.0139625], [95.3752112, 27.015444], [95.3830111, 27.020892], [95.3769386, 27.0224308], [95.3727972, 27.0192959], [95.3705764, 27.0236064], [95.3648043, 27.0232049], [95.3688168, 27.0311756], [95.3633773, 27.0331252], [95.3624546, 27.0366611], [95.3802109, 27.0459208], [95.3844058, 27.0585286], [95.3808707, 27.0608838], [95.3829038, 27.0639411], [95.3796422, 27.0666258], [95.3804576, 27.0733753], [95.376606, 27.0761505], [95.3849101, 27.0836302], [95.3693318, 27.0944477], [95.370174, 27.1024659], [95.3633398, 27.1033254], [95.3719282, 27.1135728], [95.3653246, 27.1158218], [95.3611082, 27.1275958], [95.3675401, 27.1369339], [95.3663599, 27.1438941], [95.3575601, 27.1573169], [95.3581115, 27.1667366], [95.3462595, 27.1724747], [95.3433334, 27.1820909], [95.3394861, 27.1864884], [95.3330803, 27.1859505], [95.3325373, 27.1903983], [95.3276323, 27.1860415], [95.3240883, 27.1916246], [95.3204709, 27.186555], [95.3167773, 27.1882811], [95.3126514, 27.1844003], [95.3081198, 27.1902517], [95.3011269, 27.1917411], [95.302823, 27.1965503], [95.2915003, 27.1955705], [95.2848019, 27.1987811], [95.2812433, 27.1973625], [95.2864091, 27.1935607], [95.2794369, 27.195404], [95.2799916, 27.1902612], [95.2774373, 27.1888965], [95.2746254, 27.1914105], [95.2721363, 27.1887115], [95.2666603, 27.1948915], [95.2630293, 27.1875055], [95.2570913, 27.1932865], [95.2561713, 27.1851795], [95.2528813, 27.1947085], [95.2444463, 27.1892935], [95.2368883, 27.1898205], [95.2412933, 27.1829815], [95.2320003, 27.1800165], [95.2380103, 27.1701745], [95.2279373, 27.1735835], [95.2250765, 27.1670287], [95.2192903, 27.1649225], [95.2158613, 27.1675485], [95.2191257, 27.1706527], [95.2109993, 27.1742585], [95.2094559, 27.1695189], [95.2141821, 27.1704035], [95.2127987, 27.1655074], [95.2078873, 27.1622595], [95.1980723, 27.1633615], [95.1991039, 27.1584742], [95.1936344, 27.1549361], [95.1890123, 27.1575982], [95.1944311, 27.1600176], [95.1831275, 27.1630035], [95.1820322, 27.1553025], [95.1864266, 27.151565], [95.1783345, 27.1494332], [95.1764168, 27.1445677], [95.1797371, 27.1413634], [95.1730692, 27.1377216], [95.1732673, 27.1470297], [95.1686233, 27.1431084], [95.1695207, 27.1363361], [95.1645543, 27.1361314], [95.1635098, 27.1318926], [95.1593631, 27.1344945], [95.1641972, 27.1287534], [95.1622469, 27.1275446], [95.1573153, 27.1294744], [95.1553273, 27.1362734], [95.1495646, 27.1280775], [95.1482139, 27.1351106], [95.1444543, 27.1373884], [95.1346403, 27.1384854], [95.1313733, 27.1337964], [95.1293483, 27.1387014], [95.1226753, 27.1298674], [95.1159783, 27.1357894], [95.115077, 27.126677], [95.1118173, 27.1317914], [95.1134437, 27.1361081], [95.1061283, 27.1349904], [95.1062783, 27.1268654], [95.1125157, 27.1244304], [95.1063083, 27.1203674], [95.1075697, 27.1157358], [95.0992823, 27.1168174], [95.1006088, 27.124177], [95.0982086, 27.1249146], [95.0954253, 27.1209364], [95.0961721, 27.1118248], [95.0899513, 27.1112714], [95.0898242, 27.1169629], [95.0851767, 27.1108419], [95.0870771, 27.1079082], [95.0920282, 27.1081409], [95.0930477, 27.1047198], [95.0815073, 27.1046274], [95.0740613, 27.0945844], [95.0694193, 27.0970904], [95.0690193, 27.0918164], [95.0595973, 27.0976404], [95.059842, 27.086796], [95.0474613, 27.0873934], [95.0515393, 27.0788054], [95.0447113, 27.0775514], [95.0384153, 27.0806214], [95.0374583, 27.0779274], [95.0419083, 27.0731244], [95.0302383, 27.0716694], [95.032146, 27.0651545], [95.0163463, 27.0644234], [95.0120083, 27.0670574], [95.0116093, 27.0616483], [95.0077873, 27.0677954], [95.0125443, 27.0716534], [95.0087793, 27.0725194], [95.0038733, 27.0687984], [95.0042303, 27.0633784], [94.9951833, 27.0648604], [94.9887653, 27.0610253], [94.9781713, 27.0691624], [94.9751353, 27.0598643], [94.9694973, 27.0660354], [94.9641863, 27.0650264], [94.9638253, 27.0616473], [94.9681743, 27.0595553], [94.9652613, 27.0572943], [94.9574293, 27.0650248], [94.9550243, 27.0598743], [94.9638443, 27.0540653], [94.9519513, 27.0570743], [94.9564943, 27.0487523], [94.9541418, 27.0454121], [94.9479103, 27.0507673], [94.9441103, 27.0408013], [94.9372943, 27.0488833], [94.9383773, 27.0415573], [94.9353129, 27.0353614], [94.9267713, 27.0436123], [94.9344403, 27.0500053], [94.9253173, 27.0470163], [94.9254711, 27.0404469], [94.9227388, 27.0386409], [94.9206583, 27.0487053], [94.9048893, 27.0460763], [94.9040973, 27.0349853], [94.8892173, 27.0401953], [94.8895763, 27.0435753], [94.8955123, 27.0459323], [94.8856843, 27.0459293], [94.8804253, 27.0388243], [94.8804793, 27.0330013], [94.8684703, 27.0381713], [94.8650733, 27.0338833], [94.8655683, 27.0272433], [94.8588253, 27.0308523], [94.8489313, 27.0267853], [94.8393753, 27.0155383], [94.8314313, 27.0197033], [94.8308833, 27.0138893], [94.8218393, 27.0154953], [94.8170443, 26.9993113], [94.8123883, 27.0011313], [94.8131213, 27.0091093], [94.8098523, 27.0031943], [94.8108013, 26.9964133], [94.8005693, 26.9992523], [94.8017979, 26.9936684], [94.8086536, 26.9915174], [94.7966963, 26.9933443], [94.7877213, 26.9896673], [94.7929963, 26.9982653], [94.7877443, 27.0006333], [94.7831513, 26.9969013], [94.7820843, 26.9867603], [94.7708263, 26.9820283], [94.7642403, 26.9860373], [94.7625643, 26.9948583], [94.7572663, 26.9943833], [94.7502133, 26.9878363], [94.7440713, 27.0011813], [94.7344393, 27.0038723], [94.7343613, 27.0086123], [94.7402323, 27.0070503], [94.7445373, 27.0117363], [94.7351173, 27.0184863], [94.7269163, 27.0160153], [94.7362496, 27.0228209], [94.7311753, 27.0276063], [94.72826, 27.0382884], [94.7240089, 27.0350627], [94.7249257, 27.0400631], [94.7217083, 27.0412623], [94.7211321, 27.0296391], [94.7134013, 27.0318863], [94.7071383, 27.0376483], [94.7149235, 27.0428138], [94.7090793, 27.0460193], [94.7001493, 27.0354313], [94.6956083, 27.0350803], [94.6943373, 27.0410523], [94.6863633, 27.0437213], [94.6858603, 27.0504963], [94.6775893, 27.0535743], [94.6706772, 27.047873], [94.6726179, 27.0429363], [94.6663315, 27.0390215], [94.6453021, 27.061688], [94.6283043, 27.0649854], [94.6271173, 27.0770494], [94.6221657, 27.0703977], [94.6053263, 27.0656554], [94.5871243, 27.0793577], [94.5823423, 27.0767474], [94.5806594, 27.069152], [94.5722546, 27.0767077], [94.5715173, 27.0706414], [94.5631923, 27.0701924], [94.5649953, 27.0777073], [94.5588183, 27.078635], [94.5525349, 27.0733515], [94.5487583, 27.0645431], [94.4949961, 27.02547], [94.4669938, 27.0200414]]}}, {"type": "Feature", "properties": {"name": "Jiri River", "major": false}, "geometry": {"type": "LineString", "coordinates": [[93.4596627, 25.2966877], [93.426904, 25.2826194], [93.4266006, 25.2796273], [93.4203465, 25.2769939], [93.4159643, 25.2639721], [93.4009934, 25.2608786], [93.3940694, 25.2557768], [93.3869266, 25.242887], [93.3829575, 25.2425498], [93.3816647, 25.234803], [93.3849799, 25.2308433], [93.382051, 25.2230246], [93.376421, 25.2213843], [93.3743101, 25.2123064], [93.3685514, 25.2113502], [93.3707106, 25.2085183], [93.3664083, 25.2069845], [93.3661723, 25.1984759], [93.3592227, 25.1950368], [93.360596, 25.1919496], [93.3562294, 25.1918258], [93.3572352, 25.1872628], [93.353759, 25.1871172], [93.3558512, 25.1861414], [93.3519512, 25.1836754], [93.3458412, 25.1698246], [93.3441675, 25.1615659], [93.3480258, 25.1389412], [93.3429202, 25.1377065], [93.3460209, 25.1303586], [93.3421719, 25.1265607], [93.346096, 25.1242828], [93.3414531, 25.1232823], [93.3417347, 25.1139639], [93.3368343, 25.1120744], [93.3389425, 25.1105711], [93.3322477, 25.1004891], [93.3320653, 25.093411], [93.3218917, 25.0907864], [93.3055302, 25.0712937], [93.3020621, 25.0613967], [93.3053666, 25.0571495], [93.3010322, 25.0561922], [93.2998896, 25.0458749], [93.2974005, 25.0460936], [93.2982212, 25.0515949], [93.2943159, 25.0503946], [93.2936025, 25.0460304], [93.291049, 25.0477459], [93.2877552, 25.0451021], [93.2822406, 25.0454229], [93.282702, 25.0486596], [93.2790756, 25.04691], [93.2797354, 25.050691], [93.2642966, 25.0491019], [93.2621348, 25.0458117], [93.2663727, 25.0438045], [93.2594365, 25.0407426], [93.2602036, 25.0349588], [93.251186, 25.026934], [93.2544583, 25.0250188], [93.2528168, 25.0202867], [93.2433486, 25.0171149], [93.2476187, 25.0145579], [93.241471, 25.0034932], [93.2444805, 25.002589], [93.2441103, 24.9977758], [93.2490778, 24.9990788], [93.2502687, 25.0046406], [93.2515615, 25.0005762], [93.2551128, 25.0045288], [93.2599461, 25.0013784], [93.2584816, 24.998646], [93.2528329, 24.9995892], [93.2569367, 24.997168], [93.2565826, 24.993045], [93.2519585, 24.9858344], [93.2536375, 24.9825425], [93.2489866, 24.9777382], [93.2521409, 24.9768046], [93.2497162, 24.9730311], [93.2528114, 24.9689705], [93.2575321, 24.9714798], [93.2618558, 24.962804], [93.255676, 24.953544], [93.2580793, 24.9496238], [93.2481658, 24.9538358], [93.2453978, 24.9504117], [93.2482195, 24.9498086], [93.2508802, 24.9406643], [93.2444858, 24.941248], [93.2368362, 24.9367827], [93.2371259, 24.9322393], [93.239336, 24.9356931], [93.2455051, 24.9347299], [93.2384777, 24.9250883], [93.2460844, 24.9249618], [93.2486379, 24.9152222], [93.2446253, 24.9106391], [93.2353771, 24.9118554], [93.241471, 24.9037009], [93.2388747, 24.8986892], [93.2301736, 24.8986795], [93.2323837, 24.8918769], [93.2264185, 24.8924511], [93.2330704, 24.8850447], [93.2278991, 24.8851129], [93.2254422, 24.8804021], [93.2216334, 24.8816772], [93.2269013, 24.8732189], [93.2206142, 24.8738808], [93.2219338, 24.8699386], [93.2150781, 24.8659185], [93.2048428, 24.8513552], [93.1997681, 24.8555439], [93.1951761, 24.8539448], [93.2015383, 24.8485904], [93.2016885, 24.8417461], [93.1955409, 24.8446912], [93.1919199, 24.8399376], [93.1968632, 24.8367124], [93.1997895, 24.839923], [93.2012111, 24.8379489], [93.1983259, 24.8342112], [93.1918609, 24.8347919], [93.1961203, 24.8308509], [93.1902811, 24.8187424], [93.1970711, 24.811581], [93.1910846, 24.8037446], [93.1797301, 24.8032593], [93.175181, 24.7934126], [93.1730567, 24.8015451], [93.169738, 24.8014515], [93.1493889, 24.7866529], [93.151642, 24.7945813], [93.1421015, 24.7974327], [93.1357929, 24.8088178], [93.1402132, 24.8098403], [93.1349883, 24.8102542], [93.131994, 24.8041784], [93.1264035, 24.8091885], [93.1187868, 24.8080643], [93.1216429, 24.8195786], [93.1104416, 24.8128846], [93.1116522, 24.7995661], [93.1046187, 24.7876862], [93.10585, 24.780789], [93.1006114, 24.7794815], [93.1039717, 24.7679598], [93.102302, 24.758029], [93.0981487, 24.7536509], [93.101175, 24.7496707], [93.0982113, 24.7472256], [93.0995679, 24.7434916], [93.1014672, 24.7423543], [93.1030992, 24.7467141], [93.1071232, 24.7400797], [93.0966668, 24.7312083], [93.0959155, 24.7237581], [93.0902595, 24.7252179], [93.0932023, 24.7181606], [93.0902386, 24.7179], [93.0862731, 24.7087426], [93.0768603, 24.7126862]]}}, {"type": "Feature", "properties": {"name": "Tlawng", "major": false}, "geometry": {"type": "LineString", "coordinates": [[92.5347504, 24.1804612], [92.53119, 24.185238], [92.537635, 24.20016], [92.529541, 24.191871], [92.520834, 24.190083], [92.517649, 24.212427], [92.525481, 24.211503], [92.529149, 24.218153], [92.514351, 24.225015], [92.513533, 24.246012], [92.507627, 24.244909], [92.496803, 24.254357], [92.50814, 24.265232], [92.498811, 24.270079], [92.502138, 24.288379], [92.5055265, 24.2883177], [92.5058055, 24.2793988], [92.5151825, 24.278812], [92.517932, 24.293984], [92.5267911, 24.2991917], [92.5273791, 24.3055718], [92.534709, 24.3078942], [92.5403523, 24.3141126], [92.541292, 24.333616], [92.530178, 24.340084], [92.5474977, 24.3559327], [92.5441212, 24.3621095], [92.5547965, 24.3713382], [92.551474, 24.381198], [92.5616062, 24.3839906], [92.564579, 24.398577], [92.569525, 24.4054519], [92.561133, 24.411031], [92.566294, 24.416058], [92.56035, 24.423492], [92.560327, 24.43013], [92.548482, 24.432263], [92.549904, 24.448524], [92.556834, 24.455724], [92.5692529, 24.4583044], [92.5669805, 24.4638649], [92.5592861, 24.4674314], [92.56285, 24.47078], [92.570256, 24.469446], [92.5747904, 24.4598822], [92.5824144, 24.4644872], [92.5772956, 24.4786504], [92.5816025, 24.4824285], [92.5866727, 24.4762424], [92.5926211, 24.4785735], [92.596225, 24.494987], [92.6016662, 24.4973299], [92.603454, 24.502999], [92.6088261, 24.5037657], [92.60728, 24.510731], [92.6174819, 24.5238866], [92.61522, 24.528769], [92.6185356, 24.5315342], [92.619457, 24.547882], [92.6326525, 24.5526614], [92.6341326, 24.5558466], [92.635076, 24.575557], [92.64171, 24.586952], [92.6352566, 24.593847], [92.6395953, 24.5970729], [92.6375608, 24.6065655], [92.6328875, 24.6080092], [92.6278507, 24.6036156], [92.6251464, 24.6089647], [92.6268285, 24.6127654], [92.6225053, 24.6147556], [92.6230674, 24.6091974], [92.617658, 24.603827], [92.6097132, 24.6117451], [92.579269, 24.607382], [92.581608, 24.616872], [92.586794, 24.617292], [92.589769, 24.613778], [92.595813, 24.623684], [92.592391, 24.627604], [92.596827, 24.631002], [92.591463, 24.639793], [92.600073, 24.635481], [92.603025, 24.639418], [92.61237, 24.636733], [92.607746, 24.646204], [92.608922, 24.649594], [92.615448, 24.648256], [92.623732, 24.653696], [92.621645, 24.657755], [92.6246, 24.660878], [92.616262, 24.672778], [92.622331, 24.676045], [92.621723, 24.680785], [92.62527, 24.684587], [92.626434, 24.692041], [92.621089, 24.69433], [92.62686, 24.698409], [92.6264196, 24.7063564], [92.6364539, 24.7118616], [92.6364045, 24.7200125], [92.6309369, 24.729497], [92.6401073, 24.7304498], [92.6410329, 24.733499], [92.6344174, 24.749876], [92.6431928, 24.761454], [92.6417858, 24.7725042], [92.6516597, 24.7821303], [92.6507094, 24.7908816], [92.6573989, 24.7934139], [92.6541405, 24.8009433], [92.6637552, 24.8042708], [92.6609412, 24.8093684], [92.6624993, 24.8152128], [92.6555505, 24.8174582], [92.6460377, 24.8148045], [92.6447809, 24.8211891], [92.6382354, 24.8214188], [92.6379004, 24.8282377]]}}, {"type": "Feature", "properties": {"name": "Lohit", "major": false}, "geometry": {"type": "LineString", "coordinates": [[96.4207909, 27.926167], [96.412882, 27.9245888], [96.4127056, 27.9168653], [96.4024939, 27.9100061], [96.3995614, 27.8983949], [96.3839679, 27.8940208], [96.3843206, 27.8906276], [96.3780779, 27.883245], [96.3736359, 27.8833342], [96.3718784, 27.8749365], [96.3690916, 27.8742049], [96.3638659, 27.8748503], [96.3464617, 27.8911348], [96.3337948, 27.8901581], [96.3020646, 27.895409], [96.2976872, 27.8930763], [96.2927734, 27.8823986], [96.2588892, 27.8728585], [96.2325015, 27.8569907], [96.2035688, 27.8563985], [96.1628487, 27.8425418], [96.1530302, 27.8412013], [96.133916, 27.8444369], [96.1194496, 27.8508324], [96.0903829, 27.8539116], [96.0524757, 27.8437262], [96.0321156, 27.8505955], [96.0191171, 27.8486458], [95.9860723, 27.8357438], [95.9769742, 27.827015], [95.9532204, 27.8226419], [95.9220105, 27.8006055], [95.8818262, 27.8020273], [95.8494687, 27.7971729], [95.8392548, 27.7882133], [95.8205437, 27.7830498], [95.7897305, 27.7797085], [95.7541966, 27.7895041], [95.7208943, 27.7847203], [95.6632804, 27.8024877], [95.6144857, 27.7930729], [95.5768489, 27.7913265], [95.5222177, 27.7669122], [95.5129909, 27.7461766], [95.4883575, 27.7351236], [95.4762983, 27.7203465], [95.4631448, 27.6719557], [95.4502487, 27.6596978], [95.4423094, 27.6456518], [95.3729152, 27.6063934], [95.3592038, 27.5888984], [95.3083706, 27.5753569], [95.2897882, 27.5775442], [95.27053, 27.5854847], [95.2577519, 27.5855893], [95.2462292, 27.581196], [95.2290201, 27.5685665], [95.2220464, 27.5700312], [95.2157163, 27.5823942], [95.2117896, 27.583288], [95.1904607, 27.5726085], [95.1855254, 27.5756042], [95.1785731, 27.570792], [95.1514721, 27.5724278], [95.1443267, 27.5588082], [95.1001771, 27.5525075]]}}, {"type": "Feature", "properties": {"name": "Lohit", "major": false}, "geometry": {"type": "LineString", "coordinates": [[96.0358123, 27.8658222], [96.028773, 27.8573729], [96.0166924, 27.8509415], [95.9957621, 27.8509996], [95.9791511, 27.841439], [95.9714877, 27.8330659], [95.9352687, 27.824917], [95.9110161, 27.8302732], [95.8966594, 27.8207929], [95.8806619, 27.8206593], [95.8664994, 27.8250092], [95.85074, 27.817339], [95.8408266, 27.8161624], [95.8131718, 27.8267854], [95.7345853, 27.7999769], [95.6843801, 27.806182], [95.6704902, 27.8016526]]}}, {"type": "Feature", "properties": {"name": "Dhansiri River", "major": false}, "geometry": {"type": "LineString", "coordinates": [[93.4122312, 25.4485086], [93.4024519, 25.4503686], [93.3979243, 25.4601286], [93.3938581, 25.4582517], [93.3917123, 25.4618698], [93.3900118, 25.4596273], [93.3883649, 25.4636909], [93.3909613, 25.4647903], [93.3842987, 25.468907], [93.3892876, 25.471963], [93.3894163, 25.4763506], [93.3862352, 25.476956], [93.3916613, 25.4822393], [93.3845803, 25.4846267], [93.3854467, 25.4909145], [93.3768073, 25.4924349], [93.3773732, 25.4972624], [93.3741224, 25.4989208], [93.3672532, 25.4991024], [93.3692247, 25.5036657], [93.3643082, 25.5037287], [93.3608173, 25.5131575], [93.356798, 25.5136901], [93.3551618, 25.524459], [93.3501032, 25.5284309], [93.3502319, 25.5324026], [93.3480419, 25.5299484], [93.3449882, 25.5346123], [93.3352706, 25.5346244], [93.3364481, 25.5390921], [93.3271006, 25.5471944], [93.3326018, 25.5482882], [93.342998, 25.5603293], [93.3518198, 25.5608156], [93.3543438, 25.5590057], [93.3524179, 25.5565012], [93.3587748, 25.5544202], [93.3586299, 25.5576216], [93.3644772, 25.5609681], [93.3619022, 25.5656719], [93.3658397, 25.5652412], [93.368876, 25.5705448], [93.3760053, 25.5728627], [93.3751148, 25.5769878], [93.3804444, 25.575945], [93.3818579, 25.5815385], [93.3781457, 25.5820659], [93.3834806, 25.5848602], [93.3833706, 25.5881962], [93.3859616, 25.586706], [93.3857256, 25.5926328], [93.3892983, 25.591104], [93.3929515, 25.5962371], [93.3986914, 25.5953663], [93.4029347, 25.6017426], [93.4013602, 25.6109364], [93.4113568, 25.6131422], [93.4140578, 25.6210799], [93.4184486, 25.6176505], [93.4218764, 25.618734], [93.4196743, 25.6240909], [93.4244755, 25.6254065], [93.4263235, 25.6323325], [93.4336191, 25.6295007], [93.4382433, 25.6353722], [93.4420922, 25.634642], [93.4444097, 25.6397588], [93.4466815, 25.6349128], [93.4495997, 25.6356866], [93.4495354, 25.6396064], [93.4610715, 25.6324051], [93.4605512, 25.6372705], [93.4559378, 25.6386609], [93.4575766, 25.6413233], [93.4605646, 25.6405398], [93.4640676, 25.6449987], [93.4719935, 25.6425686], [93.4692281, 25.6447327], [93.4744799, 25.6445247], [93.4770119, 25.6484273], [93.4821832, 25.6448971], [93.4814188, 25.6515899], [93.4856862, 25.6485555], [93.488819, 25.6554294], [93.4920806, 25.653795], [93.4986091, 25.6568801], [93.5095739, 25.6691568], [93.5066986, 25.6733825], [93.5108882, 25.672592], [93.5113147, 25.675957], [93.5174623, 25.6786596], [93.5164967, 25.6837044], [93.5121784, 25.6853143], [93.5226417, 25.6960799], [93.5232693, 25.6925245], [93.5288295, 25.6918937], [93.5340249, 25.7002757], [93.5427958, 25.700469], [93.5408109, 25.7040653], [93.5467494, 25.7080432], [93.5447376, 25.7103198], [93.547731, 25.7129877], [93.5420769, 25.7151482], [93.5413581, 25.7301348], [93.5472751, 25.7330439], [93.5505152, 25.7296902], [93.5537285, 25.7371079], [93.5581863, 25.7400121], [93.5619199, 25.738345], [93.5707229, 25.7540341], [93.5849655, 25.7577108], [93.5806417, 25.7624842], [93.5825139, 25.7649432], [93.5905713, 25.7662525], [93.592186, 25.7625663], [93.5988647, 25.7703926], [93.6032796, 25.7699095], [93.6035478, 25.7763006], [93.6085314, 25.7767837], [93.6127961, 25.7715182], [93.6140674, 25.781421], [93.6198932, 25.7789333], [93.6170715, 25.7892799], [93.625617, 25.787599], [93.6274677, 25.7896904], [93.6207408, 25.7997898], [93.6244583, 25.8027552], [93.6330843, 25.8007847], [93.634361, 25.812892], [93.6409807, 25.8185275], [93.6478633, 25.8168422], [93.6480886, 25.8241627], [93.6559313, 25.8199858], [93.6574119, 25.8269585], [93.6657214, 25.8218787], [93.6705118, 25.8283105], [93.6743778, 25.8263192], [93.6804253, 25.8307779], [93.6843252, 25.828663], [93.6776626, 25.8363401], [93.6878121, 25.8385272], [93.6865568, 25.845774], [93.7008959, 25.8496121], [93.7019473, 25.8430945], [93.7040014, 25.8479687]]}}, {"type": "Feature", "properties": {"name": "Dhansiri River", "major": false}, "geometry": {"type": "LineString", "coordinates": [[93.810546, 26.104217], [93.811629, 26.108951], [93.822012, 26.113632], [93.816954, 26.119756], [93.818487, 26.124487], [93.827802, 26.12633], [93.826031, 26.130403], [93.818553, 26.133832], [93.818731, 26.137894], [93.8311241, 26.1378068], [93.8242972, 26.1476986], [93.8337842, 26.1586488], [93.8247488, 26.1631561], [93.825939, 26.1731859], [93.8332778, 26.1771473], [93.8274614, 26.1835356], [93.8333799, 26.1947678], [93.8302948, 26.199111], [93.841259, 26.203451], [93.835276, 26.206601], [93.837232, 26.2122654], [93.8463192, 26.2115118], [93.8488827, 26.2185145], [93.8523584, 26.2149755], [93.8555968, 26.2160757], [93.8579607, 26.2261505], [93.8531381, 26.2338738], [93.8608628, 26.2312898], [93.864015, 26.235414], [93.8554465, 26.2419851], [93.8631105, 26.2454794], [93.8649541, 26.2574579], [93.870412, 26.2625056], [93.8743705, 26.2616494], [93.8741792, 26.2660518], [93.867901, 26.2708182], [93.8736395, 26.2711635], [93.8782006, 26.2777209], [93.8713047, 26.2809237], [93.8760012, 26.2897117], [93.869111, 26.294703], [93.883831, 26.3043336], [93.8843322, 26.3096023], [93.876448, 26.3068583], [93.8737857, 26.3107228], [93.87872, 26.313605], [93.8867383, 26.3119515], [93.8858428, 26.3212126], [93.8925189, 26.3238148], [93.886226, 26.3254228], [93.8964917, 26.3281517], [93.891784, 26.331943], [93.8866221, 26.3284633], [93.888519, 26.337545], [93.8853001, 26.343986], [93.8794386, 26.3412558], [93.8853219, 26.3491976], [93.8867311, 26.344752], [93.8904463, 26.3463454], [93.8871073, 26.3516927], [93.882072, 26.3528918], [93.8887157, 26.3579618], [93.8855171, 26.3615886], [93.8905527, 26.3646781], [93.8905303, 26.3700469], [93.8940418, 26.3728871], [93.8867976, 26.3692609], [93.8814354, 26.3723392], [93.8879395, 26.3814359], [93.8832936, 26.3802848], [93.8849627, 26.3851769], [93.880185, 26.388083], [93.891072, 26.396006], [93.891902, 26.406158], [93.899483, 26.414101], [93.898333, 26.42088], [93.902845, 26.420852], [93.905307, 26.408647], [93.917297, 26.403425], [93.917809, 26.411141], [93.912133, 26.416053], [93.920255, 26.416136], [93.915495, 26.422803], [93.9188162, 26.4284141], [93.9215007, 26.4285314], [93.919266, 26.424133], [93.923769, 26.42302], [93.9321207, 26.4276883], [93.9318039, 26.4347733], [93.9340084, 26.4298576], [93.9407749, 26.4296279], [93.9401192, 26.4351421], [93.9322918, 26.4424456], [93.933277, 26.445575], [93.9471717, 26.4403368], [93.9477918, 26.4483749], [93.9536813, 26.4477326], [93.952133, 26.4593967], [93.9477392, 26.4655231], [93.9338474, 26.4585454], [93.944421, 26.4772191], [93.9611026, 26.4794446], [93.9490362, 26.494649], [93.9523342, 26.5029366], [93.9439081, 26.5115845], [93.9475508, 26.5177102], [93.9270625, 26.5164395], [93.918465, 26.5292197], [93.9131583, 26.5318038], [93.9023507, 26.5241185], [93.8978076, 26.5245352], [93.8975535, 26.5310408], [93.9063692, 26.5410932], [93.8887581, 26.5507531], [93.8875476, 26.5630197], [93.8713918, 26.5587349], [93.8640729, 26.5614558], [93.8634334, 26.5700182], [93.8730119, 26.5762627], [93.8669942, 26.5782119], [93.8503497, 26.575481], [93.8485866, 26.5780123], [93.8529674, 26.5852755], [93.8505196, 26.5878666], [93.8308811, 26.5842673], [93.8380232, 26.5757617], [93.8365008, 26.572239], [93.8243513, 26.5765256], [93.8178563, 26.5884888], [93.8085222, 26.5889013], [93.8105972, 26.6022785], [93.8166298, 26.6079652], [93.8153335, 26.6129114], [93.801637, 26.6112808], [93.7927564, 26.6162089], [93.7885482, 26.6148235], [93.7870437, 26.609565], [93.7911456, 26.6015985], [93.7864897, 26.5981571], [93.7807557, 26.6054529], [93.7792218, 26.6191445], [93.7676696, 26.6242055], [93.7547519, 26.6212492], [93.7542966, 26.6255642], [93.7619204, 26.6306608], [93.7498029, 26.632288], [93.7423103, 26.6292626], [93.738617, 26.6152927], [93.7342039, 26.6143194], [93.7283807, 26.6522173], [93.7195614, 26.6555827], [93.7114327, 26.6431693], [93.7066986, 26.6468029], [93.7213611, 26.6633758], [93.71577, 26.6742391], [93.7179623, 26.6819269], [93.6988707, 26.6847056], [93.6967972, 26.6729076], [93.683777, 26.6744209], [93.6826393, 26.6843873], [93.692024, 26.6980406], [93.6866053, 26.7035117], [93.6775232, 26.7031423], [93.6576695, 26.6874124], [93.6313958, 26.6972854], [93.6196411, 26.6973311], [93.6140761, 26.6946546], [93.6067203, 26.680233], [93.5929883, 26.7021779], [93.5862467, 26.7044686], [93.5488864, 26.7036013], [93.5398789, 26.7077883], [93.5371033, 26.7142294]]}}, {"type": "Feature", "properties": {"name": "Dhansiri River", "major": false}, "geometry": {"type": "LineString", "coordinates": [[93.715791, 25.864986], [93.716448, 25.874735], [93.730071, 25.874532], [93.732646, 25.879395], [93.727561, 25.880233], [93.728483, 25.884021], [93.74215, 25.890724], [93.7435445, 25.9003532], [93.749395, 25.899896], [93.7433227, 25.9037681], [93.747039, 25.906274], [93.742759, 25.916319], [93.750136, 25.922376], [93.746717, 25.926457], [93.7488057, 25.9307076], [93.7449513, 25.9345767], [93.7520994, 25.9361735], [93.7504713, 25.9399531], [93.7533198, 25.9466317], [93.7588827, 25.945544], [93.7580244, 25.9530495], [93.7653978, 25.9506136], [93.770209, 25.9540756], [93.7639997, 25.9557059], [93.7638321, 25.9636298], [93.766922, 25.9631282], [93.767386, 25.9571282], [93.7706851, 25.9625687], [93.7654333, 25.968824], [93.7693976, 25.9718527], [93.7738179, 25.9681778], [93.776999, 25.973666], [93.7837153, 25.9750838], [93.7787156, 25.9787441], [93.7824868, 25.9829298], [93.7868427, 25.981488], [93.7904208, 25.9751272], [93.7964182, 25.981406], [93.8057094, 25.9832481], [93.8037353, 25.9864789], [93.7966221, 25.9857556], [93.795232, 25.99121], [93.79858, 25.998641], [93.793345, 26.000295], [93.790838, 26.006404], [93.785908, 26.008868], [93.785499, 26.014965], [93.793306, 26.016819], [93.785838, 26.020788], [93.78631, 26.024171], [93.799103, 26.031685], [93.787856, 26.031205], [93.781766, 26.039771], [93.791054, 26.038637], [93.795727, 26.042404], [93.79411, 26.047153], [93.782885, 26.050194], [93.785303, 26.053025], [93.795047, 26.052701], [93.800633, 26.058358], [93.793471, 26.063545], [93.805483, 26.065916], [93.802835, 26.07338], [93.806794, 26.082161], [93.8039216, 26.0886022]]}}, {"type": "Feature", "properties": {"name": "Kolong", "major": false}, "geometry": {"type": "LineString", "coordinates": [[92.9908384, 26.6140866], [92.9863059, 26.6086873], [92.9844176, 26.5868488], [92.9786701, 26.5873861], [92.9732288, 26.5939517], [92.9694781, 26.592715], [92.9669933, 26.5870971], [92.9716113, 26.5794244], [92.9698532, 26.5746654], [92.9499736, 26.5694625], [92.9218943, 26.5406682], [92.9211318, 26.5355966], [92.9305966, 26.5231094], [92.945349, 26.5293235], [92.9529795, 26.5216623], [92.9541539, 26.5094335], [92.9450937, 26.4918639], [92.9229648, 26.4842268], [92.9243713, 26.4777748], [92.9153345, 26.4734732], [92.8942839, 26.4849402], [92.8955966, 26.4894511], [92.9005311, 26.4880244], [92.8967687, 26.4962172], [92.8927133, 26.4965948], [92.8846377, 26.4880874], [92.8783553, 26.4893882], [92.8797379, 26.4798042], [92.8772516, 26.4733797], [92.8824851, 26.4635451], [92.871573, 26.454605], [92.8785117, 26.4539124], [92.8781132, 26.4478469], [92.8684904, 26.4430405], [92.8919603, 26.4456825], [92.8918852, 26.4433426], [92.8860429, 26.4391066], [92.8698665, 26.438132], [92.8537855, 26.4404618], [92.8459559, 26.4497389], [92.8363917, 26.4444918], [92.8399824, 26.4308597], [92.8484317, 26.4241161], [92.8467172, 26.421028], [92.8379768, 26.4195969], [92.8310284, 26.4111665], [92.8214793, 26.4107725], [92.8150227, 26.41484], [92.8123831, 26.4104828], [92.814738, 26.4048447], [92.8068904, 26.4026195], [92.801663, 26.4024225], [92.7934272, 26.4080491], [92.7914151, 26.3971897], [92.7982729, 26.3921827], [92.793259, 26.3823535], [92.7927996, 26.3709468], [92.7803586, 26.3654228], [92.7650451, 26.3688138], [92.7553904, 26.3472197], [92.7235822, 26.3437309], [92.7159042, 26.3484802], [92.7138561, 26.3560093], [92.7056134, 26.3648837], [92.6952256, 26.3605553], [92.6879531, 26.3626151], [92.6774151, 26.3441025], [92.677934, 26.3396367], [92.6672149, 26.335572], [92.6752782, 26.3323081], [92.6748086, 26.3280594], [92.6638301, 26.3246445], [92.6717872, 26.3143195], [92.6618187, 26.3146239], [92.6695082, 26.3107669], [92.6565985, 26.3058787], [92.6604805, 26.2984327], [92.6474793, 26.293261], [92.646665, 26.2845739], [92.6544694, 26.2784622], [92.654172, 26.2700489], [92.6392723, 26.2624021], [92.6278477, 26.2655012], [92.6093144, 26.2640821], [92.608111, 26.2621269], [92.613429, 26.2578683], [92.6120445, 26.2542826], [92.5997264, 26.2612508], [92.5826208, 26.2617614], [92.5828731, 26.2585181], [92.5916912, 26.2527914], [92.589815, 26.2485673], [92.5829443, 26.2454107], [92.5852151, 26.2346115], [92.5813204, 26.2328299], [92.5683676, 26.2367848], [92.5368003, 26.2314882], [92.5363203, 26.2271259], [92.5422601, 26.2197504], [92.5360993, 26.2147055], [92.5214597, 26.2198745], [92.5196648, 26.2252932], [92.5084636, 26.2280413], [92.5027555, 26.2265348], [92.5032876, 26.2210706], [92.4943334, 26.2127384], [92.4783497, 26.2264894], [92.4663342, 26.2224689], [92.4507997, 26.2243544], [92.4418678, 26.2138481], [92.4208216, 26.2208783], [92.4060917, 26.2172283], [92.3951923, 26.2218805], [92.3911706, 26.2090395], [92.3832497, 26.2039024], [92.3769862, 26.2070764], [92.3720281, 26.2031528], [92.3615366, 26.2097565], [92.3571547, 26.2091131]]}}, {"type": "Feature", "properties": {"name": "DIKHOW NODI", "major": false}, "geometry": {"type": "LineString", "coordinates": [[94.7795307, 26.6582104], [94.7863117, 26.6678744], [94.7810912, 26.6740371], [94.7875327, 26.6785553], [94.7899517, 26.6886793], [94.7817327, 26.6932503], [94.7795567, 26.6986943], [94.7863447, 26.6990143], [94.8050437, 26.6898423], [94.8041017, 26.6970303], [94.8140327, 26.6959553], [94.8245357, 26.7117973], [94.8335497, 26.7192633], [94.8257877, 26.7241023], [94.8249897, 26.7310227], [94.8150967, 26.7440063], [94.8070325, 26.7452848], [94.8037237, 26.7495673], [94.7978717, 26.7610153], [94.8054667, 26.7644383], [94.8053697, 26.7678243], [94.8016167, 26.7689553], [94.7977937, 26.7656193], [94.7934777, 26.7693293], [94.8136167, 26.7742183], [94.8170117, 26.7790493], [94.8146847, 26.7844943], [94.8089687, 26.7855153], [94.8126937, 26.7921023], [94.7881937, 26.7983894], [94.7903395, 26.8011649], [94.8025113, 26.8011283], [94.8050916, 26.8044418], [94.7941321, 26.8145343], [94.7973969, 26.8176349], [94.8062071, 26.8144071], [94.8073433, 26.8186098], [94.7957232, 26.8357492], [94.7962081, 26.8454005], [94.788816, 26.85298], [94.7908652, 26.8577141], [94.7968089, 26.8540346], [94.7985027, 26.8583543], [94.792347, 26.8610398], [94.7891217, 26.8674679], [94.7798447, 26.8622463], [94.7797119, 26.8677066], [94.7760537, 26.8708233], [94.7802123, 26.8716765], [94.7797277, 26.8740273], [94.7696639, 26.8707683], [94.7672564, 26.8843063], [94.7580976, 26.8837456], [94.7633949, 26.8878463], [94.7563267, 26.8935453], [94.7581548, 26.9016579], [94.7507187, 26.9020093], [94.7580627, 26.9081463], [94.7422667, 26.9121333], [94.7407752, 26.9058847], [94.7376717, 26.9079923], [94.7377105, 26.9146389], [94.7505395, 26.9176487], [94.7527832, 26.9228687], [94.7341067, 26.9217113], [94.7314794, 26.9325627], [94.7259996, 26.9352422], [94.7246984, 26.9397002], [94.7147614, 26.9403454], [94.7117378, 26.9461084], [94.7055467, 26.945455], [94.7067297, 26.9592783], [94.7001567, 26.9542133], [94.6979187, 26.9561353], [94.7004147, 26.9613853], [94.6875397, 26.9592383], [94.6830831, 26.9502512], [94.6803502, 26.9670769], [94.6746473, 26.9723478], [94.6712278, 26.9704376], [94.6695327, 26.9778672], [94.6379967, 26.9707902], [94.6224587, 26.9831552], [94.6091348, 26.972405], [94.6069183, 26.9782274], [94.5994, 26.9817571], [94.5900149, 26.9753189], [94.5907161, 26.9828442], [94.5864347, 26.9856185], [94.5735426, 26.9791535], [94.5666507, 26.9801312], [94.5673943, 26.9727015], [94.5637567, 26.9785382], [94.5601307, 26.9785792], [94.5611707, 26.9663812], [94.5690597, 26.9685952], [94.5671337, 26.9604933], [94.5590317, 26.9646452], [94.5552757, 26.9552083], [94.5494507, 26.9601473], [94.5419017, 26.9606363], [94.5425577, 26.9533173], [94.5327187, 26.9519353], [94.5253727, 26.9562123], [94.5266461, 26.9701292], [94.5179944, 26.9629214], [94.5097977, 26.9666702], [94.5108747, 26.9721641], [94.5052741, 26.9713329], [94.5029537, 26.9747322], [94.5039988, 26.9771465], [94.5105093, 26.974101], [94.5143137, 26.9766412], [94.5007305, 26.9806047], [94.5013674, 26.9746236], [94.4978147, 26.9746512], [94.5008917, 26.9901902], [94.4910907, 26.9919182], [94.4904507, 26.9892172], [94.4945007, 26.9868722], [94.4926637, 26.9851322], [94.4813027, 26.9947302], [94.4741257, 26.9891182], [94.4816117, 27.0067772], [94.4770727, 27.0064192], [94.4718297, 26.9984852], [94.4531611, 27.00118]]}}, {"type": "Feature", "properties": {"name": "Puthimari", "major": false}, "geometry": {"type": "LineString", "coordinates": [[91.687154, 26.7261158], [91.6945119, 26.714598], [91.685543, 26.7029095], [91.6846847, 26.6970053], [91.6846847, 26.6916375], [91.6894912, 26.6869597], [91.6883754, 26.6555518], [91.6702985, 26.6379904], [91.6670036, 26.6214114], [91.6621112, 26.6181886], [91.665287, 26.6127787], [91.6617265, 26.6061552], [91.6676045, 26.5948184], [91.6686344, 26.5796618], [91.6739559, 26.5702967], [91.6721749, 26.5665927], [91.6661882, 26.5687998], [91.663522, 26.562961], [91.6665656, 26.5567788], [91.676109, 26.555225], [91.667918, 26.54743], [91.67246, 26.54517], [91.680531, 26.550391], [91.683258, 26.548926], [91.668171, 26.538494], [91.680455, 26.530755], [91.667246, 26.527382], [91.673331, 26.521886], [91.674647, 26.512149], [91.664218, 26.502843], [91.6641799, 26.4961196], [91.657567, 26.492354], [91.660686, 26.482904], [91.668942, 26.484741], [91.685471, 26.466952], [91.685525, 26.462213], [91.676987, 26.458884], [91.681504, 26.445384], [91.677219, 26.438573], [91.682179, 26.425755], [91.677554, 26.422462], [91.665487, 26.425464], [91.663167, 26.417995], [91.652216, 26.41559], [91.651867, 26.406784], [91.660143, 26.40632], [91.659327, 26.398865], [91.663797, 26.389427], [91.657146, 26.37948], [91.6571256, 26.3717438], [91.653209, 26.36888], [91.65229, 26.357361], [91.645098, 26.355397], [91.647233, 26.339844], [91.654368, 26.333682], [91.649186, 26.326998], [91.64429, 26.30867], [91.638296, 26.307259], [91.640297, 26.303215], [91.637817, 26.296827], [91.628863, 26.291731], [91.614496, 26.287125], [91.587734, 26.288895], [91.581947, 26.283015], [91.576051, 26.286071], [91.571755, 26.281153], [91.557662, 26.278981], [91.555848, 26.267723], [91.540673, 26.256195], [91.533897, 26.257616], [91.532313, 26.264099], [91.526491, 26.261331], [91.512914, 26.266066], [91.492731, 26.258814], [91.473248, 26.255765], [91.4657882, 26.2584065]]}}, {"type": "Feature", "properties": {"name": "Puthimari", "major": false}, "geometry": {"type": "LineString", "coordinates": [[91.813207, 26.9049796], [91.8305969, 26.8610219], [91.8161699, 26.8378956], [91.8075477, 26.8317756], [91.8108754, 26.8106173], [91.7933001, 26.7572511], [91.785407, 26.7454954], [91.7856967, 26.7330586], [91.7781973, 26.7137204], [91.7525124, 26.7006475], [91.7450237, 26.6861927], [91.724194, 26.679501], [91.72608, 26.672612], [91.71629, 26.6716913], [91.71787, 26.665361], [91.71322, 26.663423], [91.7170973, 26.6599977], [91.7164854, 26.6559463], [91.704178, 26.623258], [91.698049, 26.619004], [91.686289, 26.593438], [91.680868, 26.593253], [91.681662, 26.589739], [91.6773536, 26.5931921], [91.677403, 26.586788], [91.6705819, 26.5772285]]}}, {"type": "Feature", "properties": {"name": "Diyung River", "major": false}, "geometry": {"type": "LineString", "coordinates": [[93.1187144, 25.1767344], [93.1022322, 25.1839472], [93.1011432, 25.1876754], [93.0903339, 25.1892628], [93.079589, 25.1813986], [93.0732778, 25.181066], [93.0682808, 25.1725677], [93.0321814, 25.1586763], [93.0285069, 25.1718698], [93.0308038, 25.1830331], [93.0248022, 25.190287], [93.0266368, 25.1931462], [93.0236274, 25.2006019], [93.0099551, 25.2068129], [93.004932, 25.2154112], [93.0091727, 25.2225925], [93.0118245, 25.2394937], [93.0020397, 25.2488777], [93.004669, 25.2584186], [92.998597, 25.2621962], [93.0050665, 25.2689152], [92.9950886, 25.271589], [92.9949671, 25.2816905], [92.9847997, 25.2842583], [92.9794894, 25.2920742], [92.9790721, 25.2986069], [92.9861032, 25.3106222], [92.9833697, 25.3191191], [92.970473, 25.3232888], [92.9565246, 25.3233134], [92.936027, 25.3353051], [92.9311811, 25.3531744], [92.9335826, 25.3607932], [92.9256792, 25.3663548], [92.936547, 25.373482], [92.939035, 25.382193], [92.9509832, 25.3964153], [92.9496092, 25.4029193], [92.9520505, 25.4065565], [92.9653887, 25.4009647], [92.9750982, 25.4106588], [92.9742268, 25.4135679], [92.9664079, 25.41597], [92.9713247, 25.4248487], [92.9815186, 25.4227531], [92.9889043, 25.4150255], [92.9974915, 25.4155391], [92.9921128, 25.4229096], [92.9977118, 25.4289944], [92.9966249, 25.4327261], [93.0001732, 25.4380985], [93.0048702, 25.4366955], [93.008716, 25.4405139], [93.0072654, 25.4542293], [93.0025513, 25.4565202], [93.0058956, 25.4628634], [92.9987915, 25.4652619], [93.0033016, 25.470288], [92.9987392, 25.4761597], [93.0062739, 25.4818775], [92.9978359, 25.49541], [93.0067263, 25.4950283], [93.0100374, 25.4989702], [93.0241736, 25.5014144], [93.0210384, 25.5078935], [93.0272159, 25.5085178], [93.0239516, 25.5176918], [93.0384292, 25.523144], [93.0326018, 25.5270953], [93.0232062, 25.5198422], [93.0133289, 25.5215109], [93.0108408, 25.5386452], [93.0045031, 25.5288241], [92.9935063, 25.5304626], [92.989715, 25.5366213], [92.9841935, 25.5348858], [92.9834675, 25.5384658], [92.9944452, 25.5448418], [93.0008477, 25.5603794], [92.9887098, 25.5555348], [92.9791603, 25.5626064], [92.9777638, 25.5487918], [92.9750538, 25.5482562], [92.9714342, 25.5616134], [92.9785691, 25.5664053], [92.9712553, 25.5717607], [92.9705626, 25.5826272], [92.9674946, 25.582788], [92.9666895, 25.5759354], [92.9555744, 25.5812966], [92.9445998, 25.5822168], [92.9474297, 25.5905465], [92.9560591, 25.5942206], [92.9540124, 25.5995404], [92.9480063, 25.6004286], [92.9425814, 25.6060098], [92.9548007, 25.603877], [92.9580329, 25.606543], [92.9531452, 25.6110217], [92.9491641, 25.6089601], [92.9467596, 25.6135453], [92.9472721, 25.6183436], [92.9542094, 25.6196586], [92.9561409, 25.6232127], [92.947075, 25.6221465], [92.9430939, 25.627442], [92.9521203, 25.6361133], [92.9512926, 25.6407685], [92.9548007, 25.6389207], [92.954446, 25.6317777], [92.95823, 25.6314224], [92.9630513, 25.6429507], [92.9745664, 25.6493045], [92.9702979, 25.65181], [92.9648381, 25.6663951], [92.9539186, 25.6694951], [92.9532182, 25.679547], [92.9558047, 25.680889], [92.9591933, 25.6754341], [92.9636201, 25.6757265], [92.9598532, 25.6805431], [92.9617286, 25.6889282], [92.9653345, 25.6810679], [92.9760554, 25.6807995], [92.9708935, 25.6825887], [92.9711456, 25.6888533], [92.9838288, 25.6949053], [92.9758752, 25.7152627], [92.9773593, 25.7202615], [92.9842687, 25.7112236], [92.9870415, 25.7134167], [92.9823589, 25.7161245], [92.9834962, 25.7180963], [92.9967651, 25.7138867], [93.0006891, 25.7210686], [93.015098, 25.7127702], [93.0172154, 25.7180992], [93.0275135, 25.7234828], [93.0215672, 25.7354552], [93.028022, 25.7380648], [93.0356458, 25.7357299], [93.030919, 25.7321587], [93.0318339, 25.7283126], [93.0430663, 25.722635], [93.0442353, 25.7303272], [93.0495719, 25.7373781], [93.0647179, 25.7336238], [93.065836, 25.7439707], [93.0733786, 25.7548437], [93.0707537, 25.7577948], [93.0650152, 25.7573057], [93.0555476, 25.7710328], [93.0519271, 25.7808299], [93.0533934, 25.784905], [93.0368658, 25.7950921], [93.0251896, 25.7945869], [93.0186727, 25.8018396], [93.0116489, 25.789746], [93.0030502, 25.7872848], [92.9983656, 25.8086665], [93.0062507, 25.8229089], [93.0046378, 25.8288081], [92.9959847, 25.8216414], [92.9891877, 25.8219525], [92.981149, 25.8086617], [92.9871652, 25.8028767], [92.9840419, 25.7807252], [92.9799714, 25.7810249], [92.9805346, 25.7910062], [92.9722607, 25.7833586], [92.9677499, 25.7837018], [92.9707359, 25.7911957], [92.9580296, 25.7997758], [92.9569495, 25.8059531], [92.9671781, 25.8144178], [92.9664158, 25.8177349], [92.9606344, 25.8153901], [92.9558695, 25.8082409], [92.9480551, 25.8085269], [92.9429726, 25.8029217], [92.9282829, 25.8069511]]}}]}