{"type":"FeatureCollection", "features": [
{"type":"Feature","geometry":{"type":"Polygon","coordinates":[[[90.95916,26.78337],[90.93146,26.78165],[90.90145,26.77819],[90.87527,26.77919],[90.85298,26.77681],[90.80677,26.77364],[90.76705,26.77317],[90.74562,26.77467],[90.73859,26.76897],[90.72772,26.76718],[90.70458,26.76766],[90.68704,26.77706],[90.68414,26.77989],[90.67458,26.78039],[90.65387,26.77394],[90.64187,26.7863],[90.63513,26.79134],[90.60635,26.79721],[90.59385,26.79819],[90.58561,26.79725],[90.56483,26.80072],[90.55374,26.81164],[90.54379,26.81599],[90.53379,26.82323],[90.4882,26.85281],[90.45911,26.87218],[90.42727,26.8979],[90.42509,26.89857],[90.4149,26.90167],[90.36927,26.89782],[90.36028,26.89587],[90.35462,26.88746],[90.351,26.87621],[90.34615,26.87189],[90.31692,26.85063],[90.30672,26.84801],[90.29563,26.84827],[90.26759,26.85517],[90.24961,26.85773],[90.23149,26.85804],[90.22012,26.8535],[90.19995,26.83283],[90.18784,26.80392],[90.19394,26.77039],[90.15135,26.75472],[90.13308,26.74887],[90.07284,26.73194],[90.05049,26.72889],[90.02501,26.73038],[90.00741,26.73419],[89.99,26.72662],[89.96315,26.72303],[89.92625,26.72247],[89.89484,26.72426],[89.86787,26.73688],[89.86389,26.73111],[89.86517,26.7085],[89.86232,26.70367],[89.86679,26.70024],[89.87678,26.68342],[89.87481,26.6737],[89.87585,26.66611],[89.87336,26.65651],[89.88166,26.64939],[89.87895,26.6434],[89.86258,26.63198],[89.86231,26.6233],[89.86709,26.61504],[89.88249,26.61294],[89.88045,26.60106],[89.87734,26.59461],[89.88275,26.58413],[89.87506,26.57941],[89.86722,26.57778],[89.87018,26.57018],[89.86979,26.5482],[89.86657,26.54309],[89.86698,26.53037],[89.85958,26.52099],[89.86073,26.50506],[89.86006,26.49422],[89.8578,26.4877],[89.86609,26.47469],[89.86743,26.46599],[89.87525,26.4639],[89.87453,26.44834],[89.86023,26.43398],[89.85802,26.42449],[89.85266,26.41975],[89.85481,26.41414],[89.84986,26.41015],[89.83831,26.41223],[89.83229,26.3964],[89.83559,26.39014],[89.84537,26.39076],[89.84947,26.39429],[89.8518,26.40268],[89.85815,26.39592],[89.86224,26.3844],[89.8601,26.38205],[89.85047,26.38397],[89.84591,26.37772],[89.83907,26.38119],[89.83286,26.38107],[89.8294,26.37684],[89.83203,26.36661],[89.82602,26.35901],[89.82505,26.35034],[89.81867,26.35311],[89.81771,26.36234],[89.81483,26.36644],[89.80898,26.36229],[89.79531,26.35802],[89.787,26.35324],[89.78404,26.34737],[89.78584,26.33084],[89.7735,26.32376],[89.76694,26.31707],[89.75552,26.32143],[89.75585,26.30622],[89.76408,26.29257],[89.76204,26.28851],[89.75384,26.28938],[89.7473,26.29519],[89.73676,26.29288],[89.72044,26.29701],[89.72606,26.28816],[89.73416,26.28291],[89.74239,26.27109],[89.73721,26.26033],[89.73015,26.2584],[89.72228,26.25915],[89.71637,26.26327],[89.71649,26.26957],[89.70977,26.2699],[89.70563,26.26083],[89.70858,26.25697],[89.72032,26.25648],[89.72063,26.24639],[89.72849,26.24354],[89.73368,26.2382],[89.72821,26.23293],[89.71662,26.22775],[89.71512,26.21914],[89.72039,26.21478],[89.72925,26.21729],[89.73615,26.21491],[89.73618,26.21077],[89.73052,26.20609],[89.7191,26.20599],[89.72296,26.19681],[89.72098,26.19134],[89.71307,26.18684],[89.70506,26.18485],[89.70739,26.17714],[89.71646,26.17352],[89.72462,26.17796],[89.73507,26.17701],[89.72991,26.16964],[89.72269,26.16555],[89.72403,26.15748],[89.73257,26.15595],[89.73912,26.15816],[89.74817,26.15655],[89.75306,26.15286],[89.75718,26.14447],[89.76991,26.13194],[89.77052,26.12779],[89.76501,26.11253],[89.77126,26.10661],[89.78748,26.10605],[89.78609,26.086],[89.79604,26.08016],[89.80132,26.07315],[89.80119,26.05862],[89.79699,26.05871],[89.78814,26.05321],[89.79282,26.04546],[89.78626,26.04452],[89.78749,26.03877],[89.80466,26.03597],[89.80045,26.02848],[89.79342,26.02185],[89.79901,26.01817],[89.8131,26.03831],[89.8174,26.03433],[89.82147,26.0236],[89.82125,26.01232],[89.81864,25.98899],[89.82815,25.98449],[89.8352,25.98626],[89.83365,26.0003],[89.83517,26.00718],[89.84343,26.00492],[89.85008,25.99468],[89.85482,25.99243],[89.87152,25.97608],[89.86816,25.97033],[89.8593,25.96917],[89.85114,25.97233],[89.84473,25.97221],[89.84135,25.9678],[89.84739,25.96189],[89.84833,25.95614],[89.84107,25.95482],[89.83118,25.94704],[89.83394,25.94421],[89.84463,25.94054],[89.85751,25.94071],[89.86883,25.94355],[89.87949,25.94441],[89.88704,25.94202],[89.88754,25.93798],[89.87396,25.91308],[89.85097,25.89008],[89.8405,25.87777],[89.83616,25.86767],[89.83473,25.85222],[89.8352,25.83771],[89.82982,25.8293],[89.81885,25.81709],[89.82145,25.81272],[89.82725,25.81185],[89.83103,25.80471],[89.83345,25.7915],[89.83828,25.77364],[89.84338,25.76103],[89.84092,25.75521],[89.82848,25.74206],[89.8273,25.73797],[89.8298,25.72928],[89.83607,25.71768],[89.84023,25.7147],[89.85647,25.71483],[89.8565,25.70555],[89.84927,25.69585],[89.848,25.6905],[89.86618,25.66425],[89.87191,25.65408],[89.88112,25.63144],[89.88321,25.61524],[89.87904,25.59785],[89.8742,25.58801],[89.87917,25.5762],[89.87474,25.55717],[89.87009,25.54779],[89.8584,25.54142],[89.85621,25.53751],[89.86322,25.52303],[89.86249,25.5167],[89.85703,25.49919],[89.85437,25.482],[89.85609,25.47662],[89.86346,25.47574],[89.87117,25.48177],[89.87939,25.49151],[89.87948,25.49846],[89.87503,25.50834],[89.8698,25.52435],[89.87253,25.53198],[89.87066,25.53979],[89.87775,25.54947],[89.88153,25.54912],[89.89031,25.55805],[89.90833,25.55967],[89.92995,25.56369],[89.93972,25.56286],[89.94554,25.56777],[89.97031,25.57184],[89.97669,25.57475],[89.97893,25.58364],[89.98305,25.59086],[89.99338,25.58894],[90.00599,25.58431],[90.01491,25.59846],[90.02116,25.6023],[90.0223,25.6085],[90.00843,25.62392],[90.00323,25.62195],[89.98723,25.62681],[89.98437,25.63767],[89.95092,25.65894],[89.94586,25.67375],[89.94576,25.67823],[89.94105,25.68674],[89.92519,25.69453],[89.92257,25.70279],[89.90898,25.71487],[89.89837,25.72735],[89.89676,25.7351],[89.89956,25.74422],[89.92598,25.73927],[89.93761,25.74464],[89.93783,25.75261],[89.94764,25.76061],[89.95936,25.77453],[89.95495,25.79204],[89.95616,25.81097],[89.9498,25.81616],[89.94876,25.82453],[89.96304,25.82662],[89.97213,25.82619],[89.97769,25.82818],[89.98005,25.83408],[89.99496,25.83554],[90.00574,25.84227],[90.00442,25.84862],[90.01247,25.84686],[90.02492,25.86163],[90.02555,25.8685],[90.00894,25.8787],[90.02545,25.8932],[90.0321,25.89431],[90.04626,25.89075],[90.05635,25.89868],[90.05923,25.90808],[90.06747,25.91554],[90.07658,25.91932],[90.08213,25.91766],[90.08488,25.92451],[90.09609,25.92872],[90.09213,25.93617],[90.10468,25.94203],[90.10951,25.94189],[90.11205,25.95054],[90.12282,25.96121],[90.12416,25.95767],[90.14417,25.95808],[90.15154,25.96442],[90.15753,25.96464],[90.16251,25.95819],[90.18021,25.957],[90.18462,25.94693],[90.18975,25.9455],[90.19353,25.95316],[90.19806,25.95692],[90.21251,25.96149],[90.21681,25.95381],[90.23142,25.95505],[90.28182,25.96305],[90.29058,25.96379],[90.3283,25.97425],[90.33303,25.98256],[90.33392,25.98835],[90.34089,25.99002],[90.34331,25.9967],[90.35063,26.00279],[90.36897,26.01015],[90.39131,26.01108],[90.40043,26.01396],[90.40413,26.00909],[90.41496,26.00568],[90.42133,25.99214],[90.43249,25.98885],[90.45097,25.99632],[90.46138,25.99937],[90.46295,26.00302],[90.47476,26.01238],[90.48115,26.01504],[90.49343,26.00941],[90.50953,25.99578],[90.51733,25.98213],[90.53358,25.96161],[90.53819,25.95778],[90.53851,25.9454],[90.53591,25.93231],[90.52988,25.92804],[90.52221,25.90917],[90.51478,25.89992],[90.52169,25.89626],[90.52914,25.90078],[90.54285,25.91522],[90.55049,25.91963],[90.55702,25.92887],[90.57502,25.93877],[90.57646,25.94788],[90.58248,25.95776],[90.58613,25.95952],[90.59093,25.95364],[90.60558,25.9515],[90.60902,25.94666],[90.63261,25.93714],[90.61116,25.9193],[90.61009,25.912],[90.61777,25.89923],[90.62836,25.89861],[90.63251,25.90626],[90.63091,25.9167],[90.64139,25.92303],[90.65755,25.92935],[90.6792,25.93616],[90.6896,25.95047],[90.71663,25.95184],[90.7289,25.9484],[90.73579,25.95221],[90.75094,25.95695],[90.74377,25.94054],[90.7476,25.93242],[90.7561,25.93359],[90.74964,25.92157],[90.74398,25.91485],[90.74889,25.91193],[90.75351,25.91888],[90.7624,25.92127],[90.76115,25.9107],[90.77245,25.90814],[90.78147,25.9079],[90.78511,25.92086],[90.79512,25.93535],[90.80052,25.94107],[90.81211,25.94679],[90.81332,25.95175],[90.82386,25.94801],[90.83959,25.94683],[90.84663,25.94438],[90.86017,25.94389],[90.87294,25.94195],[90.8786,25.94867],[90.88633,25.9513],[90.89571,25.9386],[90.8987,25.93105],[90.90449,25.92913],[90.92239,25.91283],[90.91958,25.92766],[90.91918,25.94268],[90.93536,25.93918],[90.94605,25.94707],[90.94884,25.93862],[90.96116,25.93344],[90.96388,25.92719],[90.9701,25.90483],[90.97063,25.88667],[90.98796,25.88942],[91.00003,25.88815],[91.01685,25.88378],[91.02373,25.88673],[91.03234,25.88749],[91.0322,25.8793],[91.0296,25.86607],[91.02491,25.86078],[91.0162,25.85665],[91.01581,25.8483],[91.01176,25.83772],[91.00465,25.82528],[91.00916,25.82024],[91.02385,25.82208],[91.02798,25.82701],[91.04502,25.83884],[91.05214,25.84825],[91.06892,25.84585],[91.08155,25.85204],[91.07602,25.8419],[91.07589,25.83775],[91.06482,25.8355],[91.0529,25.82834],[91.06623,25.8198],[91.06952,25.82519],[91.08433,25.82875],[91.12372,25.83072],[91.13464,25.84132],[91.14084,25.8415],[91.15579,25.84943],[91.16456,25.84865],[91.17108,25.84498],[91.18191,25.84209],[91.18837,25.84929],[91.19592,25.85456],[91.201,25.85414],[91.20154,25.84696],[91.2055,25.83985],[91.19736,25.82993],[91.19716,25.82572],[91.19101,25.8149],[91.19379,25.81003],[91.18758,25.79436],[91.18678,25.78192],[91.18274,25.77566],[91.19196,25.7628],[91.19145,25.73827],[91.20074,25.7303],[91.21857,25.72322],[91.22657,25.72273],[91.23519,25.72846],[91.25806,25.7471],[91.26496,25.74856],[91.2783,25.7462],[91.28226,25.75591],[91.28997,25.76336],[91.29958,25.77749],[91.30902,25.7956],[91.32769,25.82301],[91.33515,25.8313],[91.33629,25.83805],[91.3452,25.8353],[91.35127,25.83954],[91.36638,25.83967],[91.37319,25.84347],[91.39119,25.84645],[91.40385,25.85024],[91.40773,25.84901],[91.41537,25.85305],[91.42693,25.85268],[91.43346,25.84687],[91.44381,25.84074],[91.45755,25.85041],[91.47227,25.85783],[91.48098,25.85676],[91.48562,25.86198],[91.49859,25.86139],[91.51531,25.8656],[91.52167,25.87216],[91.52795,25.87192],[91.53461,25.88718],[91.52836,25.88914],[91.52232,25.87706],[91.51034,25.86649],[91.49626,25.86459],[91.47998,25.8678],[91.47735,25.87031],[91.48128,25.88376],[91.48599,25.89013],[91.49553,25.89464],[91.50586,25.89121],[91.50376,25.89753],[91.51115,25.90881],[91.52739,25.91982],[91.53393,25.92275],[91.53851,25.93303],[91.52431,25.92388],[91.51339,25.91447],[91.50596,25.91338],[91.50426,25.91981],[91.51894,25.93737],[91.52242,25.93994],[91.52115,25.95719],[91.52851,25.96036],[91.53981,25.96113],[91.53995,25.96741],[91.5539,25.97391],[91.5575,25.98562],[91.56805,26.00084],[91.57127,26.01095],[91.57274,26.02648],[91.57854,26.03211],[91.59082,26.02914],[91.59947,26.01977],[91.61919,26.02367],[91.62292,26.02598],[91.63479,26.02135],[91.63563,26.00385],[91.62731,25.98483],[91.6306,25.97592],[91.6405,25.96378],[91.63663,25.95943],[91.63264,25.94357],[91.62717,25.94491],[91.61348,25.94355],[91.61368,25.93888],[91.62527,25.92993],[91.63531,25.9247],[91.65038,25.91266],[91.65394,25.90658],[91.66439,25.90878],[91.67174,25.90428],[91.67843,25.91072],[91.68105,25.9162],[91.68883,25.92011],[91.69475,25.92798],[91.70441,25.93679],[91.70336,25.94076],[91.71637,25.94609],[91.72261,25.95292],[91.72407,25.96392],[91.72225,25.97715],[91.72571,26.02918],[91.72896,26.04576],[91.73552,26.04987],[91.73382,26.05806],[91.762,26.07012],[91.78106,26.09006],[91.78713,26.08538],[91.7929,26.08582],[91.80433,26.10373],[91.8106,26.10261],[91.8181,26.11021],[91.82186,26.11752],[91.82908,26.11691],[91.85632,26.10353],[91.86717,26.09906],[91.87825,26.09644],[91.87767,26.08327],[91.87176,26.05557],[91.87256,26.0509],[91.88559,26.02869],[91.8943,26.02823],[91.90326,26.02494],[91.90978,26.02577],[91.91928,26.02012],[91.91794,26.00898],[91.92185,25.99878],[91.92811,25.99838],[91.93624,26.0133],[91.94859,26.01313],[91.98042,26.02444],[91.98648,26.02913],[91.98965,26.03731],[91.99331,26.03961],[92.00563,26.03659],[92.0104,26.03801],[92.02608,26.03698],[92.0383,26.03793],[92.04181,26.03475],[92.05503,26.03134],[92.06536,26.03321],[92.07578,26.03877],[92.09549,26.04698],[92.11102,26.04816],[92.12548,26.04332],[92.13521,26.04431],[92.14026,26.05124],[92.14833,26.05697],[92.15263,26.0633],[92.1712,26.07598],[92.18042,26.07789],[92.18442,26.06871],[92.19142,26.06524],[92.20388,26.06838],[92.21405,26.06931],[92.23036,26.06596],[92.24318,26.06084],[92.25346,26.06265],[92.2757,26.06415],[92.29003,26.06824],[92.29589,26.07603],[92.30353,26.07472],[92.25767,26.0272],[92.20966,25.99006],[92.20285,25.98394],[92.19357,25.98354],[92.18293,25.97358],[92.17506,25.97055],[92.16752,25.9628],[92.16928,25.95712],[92.15825,25.94317],[92.16334,25.93091],[92.16181,25.91355],[92.16558,25.91015],[92.18276,25.90692],[92.18859,25.91414],[92.19903,25.91636],[92.20244,25.90655],[92.20937,25.90883],[92.22441,25.9096],[92.22684,25.8999],[92.22004,25.89849],[92.21741,25.89212],[92.20514,25.88839],[92.19677,25.87958],[92.18286,25.86995],[92.18274,25.84967],[92.17703,25.84487],[92.17321,25.83606],[92.16731,25.83138],[92.16486,25.82017],[92.15486,25.8111],[92.15542,25.79383],[92.15272,25.78199],[92.15691,25.77698],[92.15581,25.77126],[92.15993,25.75553],[92.16651,25.74307],[92.16588,25.72705],[92.15793,25.72314],[92.15122,25.71285],[92.15748,25.70747],[92.1592,25.69937],[92.16306,25.6943],[92.16206,25.68921],[92.16705,25.67673],[92.16228,25.67017],[92.17133,25.66471],[92.18635,25.67943],[92.19354,25.68459],[92.20163,25.68556],[92.21219,25.69417],[92.22648,25.71221],[92.23418,25.71335],[92.23838,25.70661],[92.24958,25.70917],[92.27202,25.70911],[92.28611,25.71402],[92.29507,25.71546],[92.30758,25.72126],[92.30975,25.72428],[92.31914,25.72193],[92.34046,25.72495],[92.35325,25.73294],[92.36442,25.73458],[92.3729,25.74453],[92.38654,25.7516],[92.38496,25.74548],[92.38837,25.74114],[92.39616,25.7395],[92.40618,25.7417],[92.41778,25.7385],[92.41413,25.73096],[92.41834,25.72767],[92.43451,25.72942],[92.44334,25.71881],[92.43778,25.71356],[92.42854,25.70839],[92.43284,25.70222],[92.43561,25.68549],[92.45256,25.68454],[92.46669,25.68038],[92.47588,25.67121],[92.48256,25.66178],[92.48946,25.64787],[92.49441,25.63399],[92.49905,25.62482],[92.51165,25.61504],[92.51838,25.6179],[92.53433,25.61375],[92.54151,25.61557],[92.54558,25.61204],[92.55868,25.60975],[92.55722,25.60364],[92.55735,25.59056],[92.56193,25.58048],[92.56195,25.57202],[92.57345,25.55815],[92.58235,25.55749],[92.58842,25.5507],[92.60352,25.55507],[92.60963,25.56342],[92.63148,25.56832],[92.63506,25.57653],[92.64155,25.58501],[92.64926,25.58998],[92.65438,25.5898],[92.66139,25.58267],[92.66161,25.57945],[92.66152,25.56794],[92.65824,25.56099],[92.65076,25.55762],[92.64583,25.54422],[92.64554,25.53505],[92.6385,25.52617],[92.62846,25.51985],[92.62247,25.51339],[92.61045,25.51027],[92.60646,25.50579],[92.59445,25.50077],[92.58192,25.49287],[92.56869,25.47849],[92.56824,25.46519],[92.57232,25.46178],[92.58314,25.47059],[92.58628,25.46527],[92.59898,25.46932],[92.6022,25.46181],[92.60057,25.45471],[92.60633,25.44602],[92.60852,25.42801],[92.60776,25.4162],[92.61256,25.41377],[92.62138,25.42135],[92.62937,25.42265],[92.63004,25.43226],[92.63866,25.42643],[92.63866,25.42026],[92.64235,25.41713],[92.65125,25.42925],[92.66077,25.40793],[92.67445,25.4147],[92.6807,25.40611],[92.69414,25.3975],[92.70098,25.38529],[92.71349,25.38202],[92.71868,25.37246],[92.726,25.37789],[92.73537,25.37993],[92.73664,25.37125],[92.7506,25.3518],[92.75166,25.34588],[92.76103,25.33267],[92.7729,25.33699],[92.7848,25.3299],[92.78845,25.31496],[92.78424,25.30535],[92.78922,25.28888],[92.7926,25.28412],[92.78951,25.27586],[92.77014,25.26629],[92.77706,25.25789],[92.76501,25.24672],[92.77063,25.23756],[92.77257,25.23061],[92.78661,25.22873],[92.80337,25.2188],[92.80385,25.21454],[92.79872,25.21076],[92.78805,25.20686],[92.77986,25.20044],[92.76796,25.20212],[92.75921,25.2014],[92.74748,25.20515],[92.74236,25.20049],[92.73368,25.20063],[92.71658,25.1916],[92.70498,25.18797],[92.6943,25.17883],[92.67743,25.1797],[92.66729,25.17458],[92.66336,25.17051],[92.6612,25.15978],[92.65611,25.15166],[92.64445,25.14872],[92.63281,25.13513],[92.63035,25.1226],[92.62201,25.11528],[92.61043,25.1217],[92.59885,25.12233],[92.59486,25.12592],[92.58212,25.12952],[92.56849,25.12776],[92.55365,25.12841],[92.54044,25.135],[92.53613,25.13213],[92.52519,25.13777],[92.52572,25.12332],[92.53072,25.11958],[92.53352,25.10988],[92.5434,25.09731],[92.5385,25.09703],[92.52699,25.10358],[92.51027,25.10323],[92.49962,25.10593],[92.48484,25.10587],[92.48084,25.09822],[92.48068,25.08365],[92.47512,25.06861],[92.46647,25.05499],[92.46034,25.05249],[92.46513,25.04506],[92.46373,25.03496],[92.45469,25.03446],[92.45151,25.0388],[92.44227,25.03771],[92.43839,25.03162],[92.42534,25.02952],[92.427,25.01753],[92.42023,24.99178],[92.41987,24.98022],[92.42295,24.97444],[92.43098,24.96958],[92.43762,24.96815],[92.44892,24.96944],[92.45952,24.96693],[92.46587,24.96252],[92.46114,24.95519],[92.45163,24.95255],[92.45503,24.94226],[92.46008,24.9411],[92.47839,24.94321],[92.4887,24.94233],[92.48979,24.93736],[92.48437,24.93103],[92.49003,24.92137],[92.49551,24.90612],[92.49456,24.88489],[92.49894,24.87397],[92.49777,24.86792],[92.48717,24.86681],[92.46439,24.87527],[92.45114,24.87415],[92.44332,24.86853],[92.43801,24.85959],[92.42405,24.85802],[92.41662,24.86396],[92.41077,24.8635],[92.40269,24.85535],[92.39605,24.85506],[92.38545,24.8619],[92.38195,24.86966],[92.37422,24.87461],[92.3656,24.87748],[92.35746,24.88576],[92.35092,24.88774],[92.34885,24.88294],[92.34311,24.88293],[92.33199,24.89329],[92.31514,24.90073],[92.31263,24.91021],[92.30766,24.91625],[92.29864,24.91577],[92.28551,24.90769],[92.27016,24.90971],[92.25046,24.90767],[92.24364,24.90394],[92.24346,24.90005],[92.252,24.89168],[92.25343,24.88148],[92.24634,24.87252],[92.23628,24.86571],[92.23699,24.86102],[92.24692,24.85301],[92.24901,24.84932],[92.24749,24.83305],[92.25325,24.82928],[92.26412,24.83139],[92.27176,24.82871],[92.27463,24.80144],[92.28308,24.79126],[92.28309,24.78719],[92.27026,24.78075],[92.26583,24.77414],[92.26448,24.76411],[92.26806,24.75878],[92.27059,24.74769],[92.26787,24.73268],[92.26607,24.71244],[92.25742,24.70131],[92.24446,24.70334],[92.23371,24.69681],[92.22617,24.67998],[92.22541,24.67266],[92.22891,24.66265],[92.23964,24.64824],[92.23989,24.63703],[92.23176,24.61831],[92.22252,24.60888],[92.22404,24.59859],[92.2291,24.59437],[92.23339,24.58101],[92.2341,24.5523],[92.23229,24.53703],[92.23371,24.52736],[92.23342,24.50171],[92.23677,24.49107],[92.23958,24.48816],[92.23045,24.47829],[92.22906,24.47023],[92.23122,24.45864],[92.23522,24.45466],[92.23933,24.44551],[92.25658,24.43451],[92.25603,24.4172],[92.26276,24.40803],[92.26425,24.39579],[92.26987,24.39305],[92.27312,24.38665],[92.2699,24.3804],[92.27226,24.37577],[92.26758,24.37146],[92.26814,24.36549],[92.26408,24.36038],[92.21282,24.24764],[92.24045,24.2489],[92.25948,24.24868],[92.30337,24.25087],[92.3763,24.24936],[92.39545,24.25055],[92.40657,24.24993],[92.42208,24.25108],[92.41975,24.23317],[92.41789,24.2089],[92.41863,24.19234],[92.4218,24.18651],[92.43282,24.18123],[92.43407,24.17211],[92.43774,24.16708],[92.43484,24.16056],[92.43616,24.15039],[92.44349,24.15105],[92.4502,24.14164],[92.45679,24.14143],[92.46261,24.1343],[92.48102,24.14082],[92.47829,24.1466],[92.48219,24.15497],[92.48762,24.16009],[92.49428,24.1578],[92.50199,24.15995],[92.50278,24.16451],[92.51325,24.16709],[92.5171,24.17402],[92.52127,24.17074],[92.52916,24.17259],[92.53099,24.18124],[92.53733,24.19424],[92.53593,24.19767],[92.54099,24.20399],[92.54175,24.21194],[92.54691,24.22216],[92.54665,24.23544],[92.55019,24.24364],[92.56411,24.2478],[92.58134,24.24304],[92.5875,24.24252],[92.59545,24.24696],[92.60544,24.24683],[92.61107,24.25097],[92.61498,24.26124],[92.61526,24.26814],[92.61889,24.28439],[92.61629,24.28884],[92.61896,24.30911],[92.62262,24.31788],[92.62289,24.32835],[92.6257,24.33206],[92.63621,24.33026],[92.64453,24.32522],[92.65136,24.32787],[92.65191,24.33282],[92.65797,24.34098],[92.66173,24.34096],[92.67428,24.34729],[92.67912,24.34527],[92.68747,24.34948],[92.69116,24.35388],[92.69274,24.36528],[92.69637,24.37146],[92.70359,24.37366],[92.70293,24.38124],[92.71372,24.40272],[92.7137,24.40778],[92.71764,24.41362],[92.72329,24.43334],[92.73007,24.45013],[92.74315,24.47198],[92.75406,24.49847],[92.75322,24.50438],[92.75874,24.50908],[92.76475,24.51816],[92.77866,24.48379],[92.78171,24.47208],[92.7972,24.43197],[92.80226,24.42453],[92.80322,24.41897],[92.81054,24.41086],[92.81772,24.40995],[92.8205,24.40399],[92.831,24.39663],[92.82595,24.39075],[92.82751,24.37651],[92.83204,24.37356],[92.83894,24.37798],[92.84623,24.37948],[92.85098,24.38952],[92.86222,24.39662],[92.87109,24.39417],[92.88353,24.40013],[92.89101,24.39886],[92.89366,24.39238],[92.90444,24.3915],[92.90857,24.40021],[92.91081,24.40994],[92.92265,24.40273],[92.92689,24.39564],[92.93494,24.39253],[92.93977,24.39802],[92.95046,24.40179],[92.95392,24.40083],[92.95953,24.39282],[92.97001,24.39813],[92.97485,24.40466],[92.97944,24.40659],[92.98749,24.40453],[92.99451,24.39882],[92.99965,24.40013],[93.0056,24.40877],[93.00805,24.40221],[93.01512,24.39935],[93.02833,24.40313],[93.03827,24.4079],[93.03846,24.41435],[93.03129,24.42565],[93.03588,24.44073],[93.03707,24.45793],[93.04741,24.46072],[93.04768,24.47224],[93.04489,24.47858],[93.03496,24.49374],[93.04353,24.50257],[93.03923,24.50759],[93.04064,24.51136],[93.05205,24.5164],[93.05203,24.52142],[93.0477,24.52768],[93.05191,24.54148],[93.06045,24.55151],[93.06477,24.544],[93.07192,24.5578],[93.06038,24.57158],[93.07046,24.57286],[93.08636,24.56787],[93.09649,24.57921],[93.10619,24.58021],[93.09789,24.588],[93.08779,24.58672],[93.07908,24.5892],[93.07469,24.59295],[93.07605,24.60048],[93.08603,24.60802],[93.07869,24.61803],[93.07863,24.62304],[93.08866,24.62431],[93.08859,24.63058],[93.08415,24.64437],[93.08842,24.64939],[93.09557,24.6494],[93.09834,24.66321],[93.10262,24.66823],[93.10114,24.67702],[93.09257,24.67324],[93.09252,24.68454],[93.08389,24.69457],[93.07524,24.70712],[93.07808,24.71089],[93.08814,24.70588],[93.0924,24.71217],[93.09664,24.7285],[93.10378,24.73354],[93.10662,24.73857],[93.09802,24.74106],[93.10087,24.74609],[93.09942,24.75112],[93.10509,24.7662],[93.10076,24.77499],[93.10647,24.78002],[93.11214,24.79887],[93.10924,24.80641],[93.11925,24.81396],[93.12072,24.80517],[93.13076,24.80266],[93.13648,24.8077],[93.14369,24.7964],[93.15661,24.78888],[93.1609,24.79391],[93.17378,24.80021],[93.19242,24.80273],[93.1967,24.80776],[93.19095,24.81907],[93.19808,24.83289],[93.19375,24.84043],[93.20093,24.84043],[93.20092,24.84671],[93.21367,24.85841],[93.21846,24.86619],[93.22849,24.87375],[93.22563,24.87752],[93.23278,24.88129],[93.2342,24.88633],[93.23277,24.89513],[93.24134,24.89765],[93.24275,24.90392],[93.23841,24.91146],[93.24986,24.91147],[93.25268,24.91523],[93.24963,24.92651],[93.24352,24.94028],[93.25053,24.94277],[93.24869,24.95151],[93.25893,24.94777],[93.2627,24.96278],[93.25817,24.96906],[93.25235,24.97158],[93.25381,24.97534],[93.2515,24.98524],[93.25644,24.99244],[93.25596,24.99953],[93.2462,25.00061],[93.24836,25.01524],[93.2573,25.01816],[93.25514,25.02511],[93.26334,25.03234],[93.26245,25.03826],[93.26789,25.04051],[93.2677,25.04609],[93.28401,25.04792],[93.28638,25.04317],[93.29649,25.04402],[93.29958,25.04895],[93.30843,25.05485],[93.3056,25.06075],[93.31224,25.07429],[93.32314,25.08799],[93.33529,25.09214],[93.33999,25.11072],[93.34388,25.11761],[93.34844,25.13107],[93.34641,25.13398],[93.35054,25.14081],[93.34694,25.16018],[93.35266,25.17808],[93.36182,25.19188],[93.36813,25.19631],[93.36918,25.20432],[93.37771,25.21235],[93.38723,25.22827],[93.38674,25.23863],[93.39421,25.24653],[93.4032,25.25929],[93.41169,25.25965],[93.42034,25.26244],[93.42294,25.2741],[93.42605,25.27724],[93.43826,25.2827],[93.44444,25.28845],[93.45158,25.29088],[93.45958,25.29084],[93.4652,25.29515],[93.47363,25.30537],[93.45635,25.32139],[93.46159,25.33272],[93.45156,25.34035],[93.46201,25.355],[93.46594,25.35786],[93.47792,25.37599],[93.47364,25.38924],[93.46301,25.40712],[93.4649,25.41956],[93.46165,25.43088],[93.45667,25.43814],[93.44341,25.44683],[93.4348,25.45101],[93.42188,25.45106],[93.41698,25.44905],[93.4028,25.45548],[93.39035,25.46549],[93.39181,25.47052],[93.39043,25.48196],[93.38299,25.49392],[93.37179,25.49751],[93.36682,25.50926],[93.36006,25.51673],[93.35759,25.52408],[93.3502,25.53011],[93.34045,25.53374],[93.33582,25.54187],[93.33183,25.54328],[93.34133,25.55132],[93.34555,25.55757],[93.35446,25.56164],[93.36077,25.55686],[93.36603,25.55967],[93.36522,25.56618],[93.37348,25.56556],[93.37655,25.57371],[93.38275,25.57256],[93.38246,25.58114],[93.39068,25.58548],[93.39012,25.59111],[93.40689,25.59283],[93.40971,25.60045],[93.40912,25.60805],[93.41837,25.6174],[93.42252,25.61859],[93.4276,25.6278],[93.4311,25.62552],[93.43915,25.62865],[93.44446,25.63434],[93.45204,25.63378],[93.46561,25.64046],[93.48339,25.642],[93.49396,25.65148],[93.49996,25.65274],[93.50211,25.65823],[93.52034,25.67986],[93.5169,25.68426],[93.52278,25.68939],[93.53061,25.68888],[93.53803,25.69936],[93.5436,25.69786],[93.54983,25.71512],[93.54489,25.72313],[93.55698,25.73389],[93.55637,25.73809],[93.56554,25.73747],[93.5735,25.75274],[93.57333,25.75693],[93.58385,25.75386],[93.59275,25.76234],[93.61148,25.77256],[93.62239,25.77588],[93.6212,25.78128],[93.62702,25.78766],[93.62908,25.80045],[93.63342,25.80129],[93.6362,25.80973],[93.64857,25.82],[93.65683,25.82237],[93.66867,25.82062],[93.66958,25.82477],[93.67811,25.82484],[93.68293,25.83173],[93.68258,25.83668],[93.69209,25.84009],[93.69791,25.84727],[93.70649,25.84922],[93.69104,25.88526],[93.68599,25.90094],[93.68784,25.90545],[93.70522,25.91727],[93.71666,25.91769],[93.72908,25.92434],[93.73658,25.92647],[93.7502,25.93319],[93.74954,25.93797],[93.75899,25.94459],[93.76293,25.95083],[93.76855,25.95093],[93.77316,25.9619],[93.78531,25.95416],[93.79336,25.93257],[93.79232,25.91834],[93.79634,25.91399],[93.79836,25.90549],[93.79515,25.89384],[93.78745,25.87473],[93.79181,25.86549],[93.78576,25.86269],[93.78145,25.85506],[93.78378,25.84575],[93.77977,25.8421],[93.79063,25.81655],[93.79567,25.81009],[93.80747,25.81206],[93.81873,25.82193],[93.82127,25.82809],[93.8242,25.84279],[93.83268,25.85194],[93.84225,25.85829],[93.85161,25.85863],[93.8686,25.85102],[93.88257,25.8415],[93.88841,25.84804],[93.89327,25.86038],[93.89847,25.85932],[93.90171,25.8666],[93.91371,25.87732],[93.91577,25.88321],[93.93448,25.88694],[93.94005,25.89647],[93.9482,25.89669],[93.95969,25.90073],[93.96902,25.90688],[93.97184,25.913],[93.97923,25.91512],[93.98253,25.92172],[93.97099,25.94034],[93.96913,25.95633],[93.95596,25.96973],[93.96058,25.99255],[93.95489,26.0029],[93.96268,26.01772],[93.96315,26.02892],[93.96592,26.03797],[93.97267,26.04052],[93.97454,26.04772],[93.98086,26.05418],[93.99117,26.06818],[93.98609,26.07914],[93.99107,26.08505],[93.99423,26.10166],[93.99967,26.10403],[94.00224,26.11042],[93.99137,26.1137],[93.9966,26.11795],[93.99981,26.13208],[94.00537,26.13744],[94.00651,26.14282],[93.99983,26.15384],[94.00453,26.15967],[94.005,26.16888],[94.01321,26.18188],[94.02214,26.18706],[94.02682,26.19274],[94.03593,26.19876],[94.03678,26.2133],[94.04069,26.21909],[94.03843,26.22511],[94.04203,26.22948],[94.0494,26.2458],[94.05311,26.25137],[94.0649,26.25734],[94.07071,26.25559],[94.07809,26.27091],[94.0771,26.28077],[94.0875,26.28597],[94.09057,26.29268],[94.10297,26.30423],[94.10479,26.31758],[94.10835,26.32194],[94.11871,26.31824],[94.129,26.31875],[94.11967,26.32602],[94.12428,26.33143],[94.13596,26.33373],[94.13907,26.33705],[94.1496,26.33456],[94.1648,26.33478],[94.17578,26.33965],[94.18028,26.34955],[94.16795,26.34877],[94.16478,26.35559],[94.17389,26.36304],[94.17436,26.37329],[94.17942,26.38419],[94.17729,26.39504],[94.1772,26.40891],[94.17441,26.4164],[94.17616,26.42732],[94.18699,26.45604],[94.20155,26.4654],[94.20982,26.47923],[94.21195,26.48536],[94.22408,26.49607],[94.24035,26.50691],[94.25252,26.5232],[94.2538,26.528],[94.26306,26.53942],[94.28278,26.55899],[94.28579,26.55368],[94.28607,26.5295],[94.2895,26.52057],[94.28763,26.5039],[94.2928,26.48538],[94.29428,26.47608],[94.30363,26.46257],[94.3168,26.4582],[94.32459,26.46597],[94.32421,26.47466],[94.32963,26.47911],[94.33726,26.48007],[94.35239,26.49099],[94.35404,26.50006],[94.35144,26.50387],[94.36957,26.50521],[94.37794,26.50833],[94.37861,26.52048],[94.39174,26.52803],[94.39688,26.52493],[94.40281,26.53399],[94.40167,26.53928],[94.40708,26.54344],[94.40514,26.55043],[94.41523,26.57849],[94.40644,26.59719],[94.41033,26.6117],[94.43494,26.6206],[94.45497,26.63422],[94.46292,26.63064],[94.45903,26.65056],[94.465,26.66273],[94.46841,26.66502],[94.48622,26.66888],[94.49872,26.66886],[94.5076,26.67813],[94.51596,26.68243],[94.52015,26.68974],[94.52057,26.69659],[94.52821,26.6964],[94.54552,26.706],[94.56516,26.70106],[94.56336,26.68568],[94.57509,26.68604],[94.57191,26.69125],[94.58321,26.7006],[94.59281,26.69772],[94.59533,26.70155],[94.59659,26.71319],[94.60505,26.71485],[94.59562,26.72492],[94.60038,26.73276],[94.6105,26.73512],[94.61238,26.72765],[94.61782,26.72553],[94.62311,26.71449],[94.62867,26.71357],[94.64067,26.7189],[94.65375,26.71853],[94.6655,26.72264],[94.68695,26.72743],[94.69721,26.73452],[94.71175,26.74763],[94.73224,26.7588],[94.74203,26.76835],[94.74616,26.77692],[94.75109,26.77444],[94.75671,26.76702],[94.7627,26.77468],[94.76867,26.77813],[94.76942,26.78586],[94.77346,26.7897],[94.786,26.7933],[94.80257,26.80076],[94.8057,26.8069],[94.79702,26.81325],[94.81343,26.81947],[94.8171,26.83619],[94.82148,26.83959],[94.82151,26.84919],[94.83267,26.85743],[94.8392,26.86872],[94.85197,26.87605],[94.85946,26.88799],[94.87012,26.90973],[94.8867,26.92716],[94.90177,26.93502],[94.91434,26.93723],[94.92864,26.94675],[94.93405,26.93316],[94.93898,26.93257],[94.95772,26.93812],[94.96458,26.93519],[94.97105,26.92288],[94.98003,26.91912],[94.98602,26.91272],[94.9924,26.91285],[94.99343,26.92062],[94.99983,26.91873],[95.02168,26.9198],[95.02888,26.92691],[95.03838,26.93287],[95.05497,26.93524],[95.06566,26.94253],[95.08717,26.94705],[95.11037,26.96118],[95.11727,26.97796],[95.1267,26.98118],[95.1431,26.99256],[95.1498,26.99407],[95.15483,27.00028],[95.19587,27.03716],[95.20416,27.03719],[95.20802,27.02895],[95.21414,27.02763],[95.2263,27.0364],[95.23819,27.03733],[95.2485,27.02432],[95.26697,27.03448],[95.2779,27.0438],[95.27812,27.05082],[95.28822,27.06036],[95.31,27.07515],[95.3135,27.08076],[95.32359,27.08357],[95.34892,27.09873],[95.36677,27.10679],[95.37156,27.10533],[95.37295,27.09558],[95.38574,27.09898],[95.3864,27.1056],[95.40658,27.11219],[95.42054,27.12464],[95.42947,27.12789],[95.44126,27.12662],[95.44741,27.13214],[95.45805,27.12942],[95.46132,27.134],[95.46613,27.1486],[95.45901,27.1571],[95.46831,27.16611],[95.46401,27.17596],[95.46899,27.18435],[95.4593,27.20348],[95.46011,27.20734],[95.46982,27.21215],[95.47108,27.21711],[95.48096,27.22624],[95.48766,27.23994],[95.49144,27.24261],[95.50669,27.2485],[95.51105,27.25285],[95.51135,27.26017],[95.51662,27.26251],[95.52089,27.2576],[95.53524,27.26446],[95.55455,27.25312],[95.55652,27.24813],[95.57482,27.24478],[95.57821,27.23584],[95.59037,27.22316],[95.60763,27.22498],[95.61941,27.23013],[95.63441,27.23337],[95.63726,27.23046],[95.67945,27.2474],[95.68467,27.25089],[95.69567,27.2516],[95.70212,27.24906],[95.71571,27.25249],[95.72568,27.25263],[95.7321,27.25992],[95.74014,27.26326],[95.7572,27.26769],[95.78487,27.27242],[95.79098,27.27873],[95.80094,27.28196],[95.80667,27.28125],[95.81036,27.27414],[95.83809,27.28023],[95.85038,27.2863],[95.86061,27.28733],[95.86096,27.27289],[95.86554,27.26976],[95.87245,27.25996],[95.88249,27.25995],[95.88771,27.25631],[95.89814,27.25728],[95.9012,27.26938],[95.90435,27.27285],[95.90652,27.28489],[95.91239,27.28613],[95.91883,27.29221],[95.94067,27.30255],[95.96329,27.30999],[95.96793,27.3175],[95.97014,27.32992],[95.97746,27.33525],[95.99379,27.34436],[95.99709,27.35641],[96.01331,27.35693],[96.02104,27.36415],[96.0151,27.36838],[96.00853,27.38017],[96.00026,27.39057],[96.00124,27.39648],[95.99118,27.40762],[95.98973,27.41479],[95.97978,27.41495],[95.9812,27.41922],[95.97808,27.42864],[95.9736,27.4299],[95.95329,27.42646],[95.95083,27.43045],[95.95343,27.43666],[95.94336,27.43963],[95.93364,27.43996],[95.91721,27.43645],[95.91155,27.43326],[95.90648,27.41654],[95.90042,27.4046],[95.89221,27.40306],[95.89472,27.41158],[95.89039,27.41973],[95.89076,27.43302],[95.88301,27.43746],[95.87619,27.42874],[95.86531,27.4224],[95.85835,27.41408],[95.85616,27.42108],[95.84977,27.42374],[95.85336,27.43821],[95.86424,27.44546],[95.85993,27.45608],[95.86654,27.46249],[95.87672,27.46456],[95.88177,27.4809],[95.87968,27.48616],[95.88098,27.49459],[95.89017,27.49966],[95.88765,27.50478],[95.87904,27.51337],[95.88051,27.52336],[95.88199,27.54684],[95.87426,27.5448],[95.86301,27.54625],[95.85279,27.55936],[95.84672,27.56171],[95.84062,27.56036],[95.83268,27.57266],[95.82199,27.57553],[95.82105,27.58941],[95.82499,27.59687],[95.79887,27.60173],[95.79692,27.61214],[95.788,27.61737],[95.78825,27.62629],[95.79832,27.62986],[95.80237,27.643],[95.78718,27.6497],[95.78019,27.6546],[95.77883,27.66034],[95.78145,27.6733],[95.78649,27.67736],[95.79552,27.67828],[95.79416,27.68638],[95.77981,27.68853],[95.77372,27.69412],[95.7737,27.70551],[95.77161,27.71021],[95.75982,27.72094],[95.75936,27.72538],[95.773,27.72874],[95.78594,27.73401],[95.78171,27.75249],[95.79,27.75932],[95.80756,27.77784],[95.80879,27.78424],[95.82436,27.80354],[95.84461,27.81574],[95.84726,27.82439],[95.85335,27.82839],[95.87498,27.83404],[95.89336,27.85129],[95.89634,27.86148],[95.90184,27.86093],[95.91266,27.86726],[95.9153,27.8751],[95.92987,27.88477],[95.92526,27.89027],[95.92997,27.89712],[95.93966,27.89751],[95.94066,27.90407],[95.94485,27.9069],[95.95666,27.92109],[95.95892,27.92715],[95.95374,27.93147],[95.95369,27.93614],[95.96661,27.94694],[95.97887,27.9628],[95.95834,27.96349],[95.82747,27.97203],[95.60851,27.95283],[95.59874,27.94621],[95.5904,27.9367],[95.58231,27.93865],[95.57299,27.93748],[95.56801,27.92669],[95.56679,27.9176],[95.54555,27.90856],[95.54525,27.89739],[95.52796,27.893],[95.51766,27.87688],[95.3861,27.83729],[95.31844,27.86658],[95.31036,27.86329],[95.29444,27.86048],[95.23847,27.84392],[95.19679,27.83007],[95.0538,27.78603],[95.04073,27.77353],[95.02113,27.76832],[94.99988,27.77242],[94.98904,27.76674],[94.93206,27.75269],[94.88598,27.73808],[94.86797,27.74164],[94.86277,27.72942],[94.85563,27.72766],[94.85081,27.7067],[94.84141,27.69957],[94.82329,27.69226],[94.80226,27.69318],[94.79302,27.68494],[94.76899,27.67624],[94.76159,27.66455],[94.74471,27.65955],[94.72278,27.66618],[94.71871,27.65782],[94.70017,27.6633],[94.69151,27.66342],[94.68598,27.65957],[94.68859,27.65335],[94.68458,27.6458],[94.67118,27.64651],[94.65052,27.63832],[94.64188,27.62721],[94.63651,27.62503],[94.62705,27.62639],[94.61147,27.61893],[94.60617,27.6194],[94.58841,27.61644],[94.57563,27.60329],[94.56601,27.60331],[94.55822,27.59958],[94.54853,27.5999],[94.5387,27.59336],[94.52839,27.59216],[94.51776,27.58112],[94.51152,27.58046],[94.50233,27.57371],[94.49308,27.5719],[94.48522,27.57363],[94.47143,27.56044],[94.46185,27.55414],[94.45562,27.5674],[94.43822,27.58093],[94.4328,27.593],[94.43327,27.59963],[94.42317,27.5979],[94.4054,27.58376],[94.38985,27.58589],[94.36973,27.57336],[94.36446,27.57686],[94.35795,27.57402],[94.35112,27.5761],[94.34736,27.58125],[94.34042,27.5777],[94.33137,27.58508],[94.31474,27.58637],[94.31071,27.59232],[94.30039,27.60104],[94.29084,27.59127],[94.27841,27.59013],[94.27484,27.60027],[94.25653,27.61055],[94.25954,27.61597],[94.26963,27.62471],[94.26526,27.63289],[94.25847,27.63342],[94.25472,27.63782],[94.24976,27.6327],[94.23759,27.62942],[94.22844,27.61489],[94.21597,27.60131],[94.22537,27.59762],[94.22773,27.5921],[94.22387,27.58477],[94.22887,27.57247],[94.24296,27.56716],[94.25882,27.5542],[94.25917,27.53724],[94.26476,27.52415],[94.26198,27.5202],[94.22394,27.50377],[94.21767,27.49989],[94.21459,27.4947],[94.1975,27.49423],[94.18918,27.48759],[94.17697,27.48086],[94.1702,27.48098],[94.15947,27.47486],[94.16245,27.46326],[94.14304,27.44525],[94.13809,27.44266],[94.1193,27.42777],[94.10872,27.41486],[94.09551,27.40775],[94.08855,27.40137],[94.07462,27.37981],[94.07081,27.3712],[94.06308,27.36036],[94.05698,27.35964],[94.0438,27.35011],[94.00217,27.33157],[94.00283,27.32699],[93.99234,27.32152],[93.98309,27.31064],[93.97482,27.30521],[93.95865,27.29165],[93.94102,27.27016],[93.92101,27.25403],[93.90313,27.23843],[93.89505,27.22787],[93.88769,27.22127],[93.86951,27.19574],[93.85951,27.188],[93.84192,27.17037],[93.83102,27.16756],[93.81906,27.15517],[93.81061,27.14868],[93.80761,27.13472],[93.8155,27.12891],[93.81333,27.12317],[93.81692,27.11949],[93.82391,27.11891],[93.82917,27.10881],[93.82855,27.09622],[93.83323,27.08926],[93.83862,27.07501],[93.83011,27.06577],[93.82065,27.06176],[93.81475,27.06751],[93.8104,27.0594],[93.79953,27.06073],[93.79588,27.05458],[93.7893,27.05108],[93.78307,27.05769],[93.77558,27.05924],[93.77036,27.04017],[93.74831,27.0293],[93.73578,27.02413],[93.72082,27.01615],[93.70746,27.00526],[93.70756,27.0006],[93.70015,26.99173],[93.67763,26.96801],[93.65698,26.96345],[93.6264,26.96122],[93.59772,26.95222],[93.58613,26.94971],[93.57273,26.9512],[93.54746,26.94886],[93.52782,26.94576],[93.49138,26.93572],[93.48883,26.94029],[93.4823,26.93738],[93.47013,26.93612],[93.46586,26.94076],[93.44993,26.9514],[93.43875,26.95337],[93.39287,26.95737],[93.37638,26.95776],[93.35011,26.96065],[93.26912,26.95351],[93.2247,26.9467],[93.1866,26.93635],[93.11135,26.92497],[93.09426,26.91324],[93.07876,26.91767],[93.07127,26.92196],[93.065,26.91976],[93.04063,26.91566],[93.02183,26.91463],[92.99993,26.92818],[92.98322,26.93348],[92.97551,26.9387],[92.95395,26.94682],[92.92042,26.96219],[92.9176,26.96773],[92.91936,26.98263],[92.90249,26.99428],[92.88611,27.00038],[92.87521,27.00575],[92.83942,27.01165],[92.82726,27.01659],[92.78818,27.02885],[92.77201,27.03122],[92.73046,27.02664],[92.71664,27.02434],[92.68539,27.03002],[92.66197,27.03683],[92.65352,27.02309],[92.64213,27.01686],[92.64764,27.00835],[92.64844,26.98574],[92.58822,26.96019],[92.55664,26.95745],[92.53482,26.9617],[92.51852,26.96283],[92.50811,26.9652],[92.49374,26.96317],[92.4627,26.96178],[92.4493,26.95912],[92.44531,26.9535],[92.42891,26.94196],[92.41503,26.94269],[92.40289,26.92478],[92.37046,26.93009],[92.36761,26.93125],[92.35624,26.93413],[92.34999,26.93202],[92.32327,26.92696],[92.30609,26.92281],[92.30696,26.90813],[92.2796,26.90108],[92.2711,26.9037],[92.25781,26.91087],[92.21264,26.89557],[92.19814,26.88968],[92.16572,26.89138],[92.15128,26.88962],[92.12373,26.88906],[92.11127,26.89259],[92.10202,26.88065],[92.10079,26.86737],[92.09229,26.85975],[92.08584,26.86089],[92.05856,26.84684],[92.0489,26.84634],[92.02039,26.84989],[91.99761,26.8541],[91.98904,26.85711],[91.97629,26.86579],[91.96343,26.87646],[91.95751,26.88664],[91.94558,26.89378],[91.90091,26.91508],[91.88711,26.91517],[91.86145,26.91302],[91.85714,26.91128],[91.83549,26.87538],[91.8211,26.86273],[91.80561,26.85106],[91.77855,26.83778],[91.76274,26.82846],[91.73059,26.8116],[91.70788,26.81092],[91.70092,26.81092],[91.69092,26.80417],[91.68298,26.80383],[91.65732,26.8142],[91.63614,26.81998],[91.62757,26.82045],[91.61595,26.81593],[91.60407,26.80771],[91.59455,26.80392],[91.56401,26.79905],[91.5148,26.79203],[91.49663,26.78898],[91.48212,26.79101],[91.47168,26.79723],[91.45849,26.80703],[91.44057,26.81652],[91.41238,26.83484],[91.40614,26.83442],[91.40198,26.82914],[91.38361,26.80079],[91.37674,26.79549],[91.36364,26.78878],[91.34034,26.77897],[91.29912,26.7845],[91.28096,26.79621],[91.26646,26.80436],[91.24105,26.80833],[91.20654,26.80812],[91.18457,26.81086],[91.134,26.80792],[91.11007,26.81368],[91.10093,26.81926],[91.09341,26.81791],[91.0799,26.79996],[91.05829,26.77895],[91.04582,26.77852],[91.01816,26.78495],[91.0004,26.78778],[90.98034,26.78491],[90.95916,26.78337]],[[89.81712,26.34585],[89.82402,26.33721],[89.82701,26.32507],[89.8226,26.32005],[89.81256,26.32785],[89.80335,26.33113],[89.8012,26.33587],[89.79367,26.34048],[89.80486,26.34943],[89.81712,26.34585]]]},"properties":{"name":"Assam"}}
]}