{"type":"FeatureCollection","features":[{"type":"Feature","geometry":{"type":"Polygon","coordinates":[[[95.234,26.682],[95.304,26.651],[95.431,26.7],[95.543,26.835],[95.667,26.903],[95.745,26.898],[95.802,27.015],[95.946,27.051],[96.022,27.18],[96.307,27.294],[96.508,27.299],[96.606,27.366],[96.797,27.346],[96.886,27.227],[97.062,27.099],[97.164,27.142],[96.998,27.319],[96.903,27.454],[96.903,27.614],[97.022,27.742],[97.253,27.901],[97.375,27.909],[97.395,28.026],[97.328,28.155],[97.372,28.218],[97.123,28.349],[96.994,28.31],[96.896,28.38],[96.772,28.368],[96.663,28.46],[96.369,28.389],[96.4,28.558],[96.585,28.717],[96.607,28.794],[96.521,28.961],[96.436,29.034],[96.347,29.029],[96.228,28.926],[96.151,29.05],[96.218,29.135],[96.235,29.241],[96.151,29.397],[96.082,29.462],[95.958,29.381],[95.779,29.355],[95.546,29.214],[95.455,29.035],[95.251,29.067],[95.252,29.109],[94.874,29.184],[94.631,29.348],[94.56,29.229],[94.434,29.227],[94.353,29.15],[94.217,29.084],[94.157,28.954],[93.997,28.841],[93.936,28.676],[93.846,28.707],[93.609,28.655],[93.498,28.684],[93.335,28.633],[93.195,28.317],[93.024,28.3],[92.897,28.204],[92.785,28.183],[92.665,28.062],[92.741,27.989],[92.562,27.82],[92.309,27.779],[92.257,27.862],[92.158,27.837],[92.057,27.759],[91.881,27.722],[91.83,27.807],[91.672,27.857],[91.564,27.584],[91.655,27.483],[92.018,27.458],[92.071,27.277],[92.028,27.078],[92.104,27.007],[92.112,26.892],[92.195,26.89],[92.447,26.959],[92.589,26.962],[92.677,27.032],[92.884,27],[93.021,26.914],[93.324,26.96],[93.489,26.936],[93.657,26.966],[93.836,27.074],[93.805,27.148],[94.164,27.477],[94.268,27.521],[94.276,27.59],[94.499,27.572],[94.754,27.661],[94.852,27.728],[95.309,27.868],[95.379,27.839],[95.522,27.883],[95.605,27.955],[95.97,27.963],[95.904,27.862],[95.754,27.726],[95.792,27.598],[95.876,27.547],[95.842,27.427],[95.941,27.437],[96.018,27.37],[95.907,27.289],[95.587,27.223],[95.525,27.264],[95.458,27.138],[95.195,27.031],[95.23,26.884],[95.234,26.682]]]},"properties":{"name":"Arunachal Pradesh"}},{"type":"Feature","geometry":{"type":"Polygon","coordinates":[[[95.195,27.031],[95.458,27.138],[95.525,27.264],[95.587,27.223],[95.907,27.289],[96.018,27.37],[95.941,27.437],[95.842,27.427],[95.876,27.547],[95.792,27.598],[95.754,27.726],[95.904,27.862],[95.97,27.963],[95.605,27.955],[95.522,27.883],[95.379,27.839],[95.309,27.868],[94.852,27.728],[94.754,27.661],[94.499,27.572],[94.276,27.59],[94.268,27.521],[94.164,27.477],[93.805,27.148],[93.836,27.074],[93.657,26.966],[93.489,26.936],[93.324,26.96],[93.021,26.914],[92.884,27],[92.677,27.032],[92.589,26.962],[92.447,26.959],[92.195,26.89],[92.112,26.892],[92.056,26.847],[91.893,26.919],[91.721,26.812],[91.495,26.791],[91.408,26.84],[91.337,26.781],[91.098,26.822],[90.991,26.791],[90.693,26.771],[90.546,26.817],[90.418,26.904],[90.195,26.774],[89.852,26.697],[89.869,26.452],[89.734,26.293],[89.72,26.166],[89.795,26.089],[89.848,25.943],[89.833,25.718],[89.871,25.663],[89.854,25.467],[89.878,25.55],[90.02,25.608],[89.896,25.732],[89.951,25.821],[90.117,25.957],[90.187,25.947],[90.476,26.01],[90.628,25.918],[90.714,25.952],[90.894,25.931],[91.03,25.886],[91.178,25.777],[91.274,25.751],[91.336,25.841],[91.469,25.859],[91.571,26.026],[91.621,25.932],[91.72,25.954],[91.725,26.046],[91.821,26.118],[91.874,26.037],[92.132,26.044],[92.177,25.873],[92.148,25.773],[92.225,25.716],[92.444,25.72],[92.506,25.616],[92.643,25.535],[92.574,25.491],[92.782,25.333],[92.743,25.207],[92.628,25.137],[92.525,25.135],[92.425,25.03],[92.484,24.931],[92.387,24.851],[92.247,24.909],[92.296,24.737],[92.212,24.504],[92.292,24.25],[92.422,24.255],[92.465,24.136],[92.623,24.332],[92.69,24.354],[92.764,24.521],[92.826,24.376],[93.009,24.412],[93.096,24.664],[93.105,24.792],[93.191,24.804],[93.249,24.916],[93.266,25.044],[93.454,25.325],[93.455,25.434],[93.353,25.528],[93.639,25.816],[93.681,25.904],[93.876,25.843],[93.979,25.917],[93.954,25.969],[93.989,26.133],[94.047,26.249],[94.172,26.338],[94.185,26.459],[94.374,26.507],[94.404,26.612],[94.539,26.706],[94.694,26.733],[94.8,26.8],[94.891,26.93],[94.982,26.913],[95.195,27.031]]]},"properties":{"name":"Assam"}},{"type":"Feature","geometry":{"type":"Polygon","coordinates":[[[76.838,30.755],[76.712,30.762],[76.752,30.685],[76.829,30.681],[76.838,30.755]]]},"properties":{"name":"Chandigarh"}},{"type":"Feature","geometry":{"type":"Polygon","coordinates":[[[77.551,18.292],[77.448,18.27],[77.371,18.325],[77.414,18.393],[77.317,18.443],[77.242,18.413],[77.209,18.288],[77.064,18.151],[76.952,18.188],[76.921,17.942],[76.734,17.782],[76.691,17.684],[76.563,17.765],[76.42,17.604],[76.332,17.596],[76.333,17.434],[76.272,17.361],[76.12,17.37],[75.926,17.325],[75.804,17.368],[75.633,17.477],[75.604,17.306],[75.677,17.065],[75.666,16.98],[75.489,16.944],[75.466,16.988],[75.28,16.957],[75.265,16.863],[75.183,16.843],[75.118,16.913],[74.989,16.952],[74.91,16.835],[74.92,16.773],[74.775,16.752],[74.569,16.554],[74.545,16.635],[74.318,16.554],[74.291,16.505],[74.363,16.286],[74.503,16.225],[74.491,16.104],[74.428,15.952],[74.346,15.851],[74.308,15.749],[74.202,15.759],[74.118,15.652],[74.224,15.669],[74.264,15.616],[74.283,15.383],[74.271,15.281],[74.314,15.18],[74.297,15.041],[74.252,14.959],[74.086,14.901],[74.128,14.78],[74.25,14.739],[74.278,14.619],[74.355,14.509],[74.47,14.188],[74.515,13.987],[74.609,13.861],[74.664,13.652],[74.71,13.332],[74.824,12.851],[74.87,12.761],[74.928,12.779],[75.161,12.673],[75.22,12.568],[75.371,12.457],[75.577,12.157],[75.728,12.073],[75.803,12.08],[75.83,11.984],[76.003,11.931],[76.112,11.979],[76.115,11.867],[76.207,11.862],[76.431,11.666],[76.512,11.705],[76.57,11.618],[76.835,11.64],[76.909,11.795],[77.013,11.815],[77.111,11.774],[77.294,11.809],[77.45,11.796],[77.493,11.941],[77.669,11.949],[77.776,12.119],[77.731,12.18],[77.472,12.21],[77.613,12.361],[77.627,12.459],[77.579,12.573],[77.599,12.667],[77.74,12.674],[77.836,12.87],[77.99,12.822],[78.077,12.84],[78.231,12.761],[78.252,12.861],[78.467,12.975],[78.517,13.13],[78.577,13.172],[78.554,13.283],[78.369,13.373],[78.385,13.592],[78.19,13.59],[78.09,13.659],[78.115,13.863],[77.992,13.869],[77.896,13.941],[77.837,13.87],[77.572,13.738],[77.471,13.758],[77.416,13.84],[77.169,13.865],[77.173,13.762],[77.065,13.744],[76.978,13.827],[77.042,13.933],[77.032,14.057],[77.171,14.012],[77.332,14.031],[77.467,14.172],[77.504,14.264],[77.412,14.337],[77.364,14.276],[77.139,14.34],[77.111,14.269],[76.94,14.245],[76.948,14.413],[76.901,14.489],[76.765,14.602],[76.851,14.809],[76.867,14.97],[76.767,14.975],[76.802,15.095],[76.878,15.035],[77.113,15.034],[77.169,15.171],[77.152,15.275],[77.045,15.356],[77.03,15.635],[77.07,15.908],[77.185,15.957],[77.513,15.927],[77.49,16.12],[77.49,16.385],[77.423,16.366],[77.288,16.409],[77.264,16.473],[77.417,16.517],[77.468,16.61],[77.454,16.914],[77.497,17.043],[77.378,17.14],[77.513,17.431],[77.662,17.523],[77.444,17.584],[77.452,17.695],[77.619,17.904],[77.628,17.997],[77.554,18.036],[77.597,18.156],[77.551,18.292]]]},"properties":{"name":"Karnataka"}},{"type":"Feature","geometry":{"type":"Polygon","coordinates":[[[94.675,25.446],[94.554,25.503],[94.573,25.638],[94.425,25.587],[94.418,25.538],[94.222,25.491],[94.002,25.585],[93.834,25.561],[93.605,25.199],[93.454,25.325],[93.266,25.044],[93.249,24.916],[93.191,24.804],[93.105,24.792],[93.096,24.664],[93.009,24.412],[93.034,24.321],[92.991,24.116],[93.124,24.061],[93.326,24.049],[93.417,24.072],[93.5,23.945],[93.624,24.011],[93.758,24.003],[93.82,23.924],[93.895,23.952],[94.019,23.926],[94.116,23.839],[94.237,24.035],[94.26,24.165],[94.408,24.44],[94.454,24.565],[94.628,24.756],[94.739,25.024],[94.741,25.127],[94.593,25.192],[94.594,25.286],[94.675,25.446]]]},"properties":{"name":"Manipur"}},{"type":"Feature","geometry":{"type":"Polygon","coordinates":[[[92.425,25.03],[92.525,25.135],[92.628,25.137],[92.743,25.207],[92.782,25.333],[92.574,25.491],[92.643,25.535],[92.506,25.616],[92.444,25.72],[92.225,25.716],[92.148,25.773],[92.177,25.873],[92.132,26.044],[91.874,26.037],[91.821,26.118],[91.725,26.046],[91.72,25.954],[91.621,25.932],[91.571,26.026],[91.469,25.859],[91.336,25.841],[91.274,25.751],[91.178,25.777],[91.03,25.886],[90.894,25.931],[90.714,25.952],[90.628,25.918],[90.476,26.01],[90.187,25.947],[90.117,25.957],[89.951,25.821],[89.896,25.732],[90.02,25.608],[89.878,25.55],[89.854,25.467],[89.814,25.37],[89.908,25.308],[90.112,25.224],[90.332,25.192],[90.445,25.144],[90.51,25.168],[90.869,25.16],[91.082,25.202],[91.265,25.207],[91.493,25.135],[91.603,25.174],[92.075,25.186],[92.229,25.097],[92.425,25.03]]]},"properties":{"name":"Meghalaya"}},{"type":"Feature","geometry":{"type":"Polygon","coordinates":[[[93.009,24.412],[92.826,24.376],[92.764,24.521],[92.69,24.354],[92.623,24.332],[92.465,24.136],[92.422,24.255],[92.292,24.25],[92.321,24.203],[92.324,23.905],[92.257,23.813],[92.265,23.725],[92.333,23.435],[92.378,23.363],[92.347,23.237],[92.419,22.912],[92.507,22.738],[92.596,22.175],[92.599,22.006],[92.68,22.012],[92.725,22.148],[92.915,21.98],[92.994,22.031],[93.063,22.208],[93.161,22.197],[93.199,22.256],[93.185,22.428],[93.109,22.525],[93.14,22.593],[93.091,22.704],[93.136,22.913],[93.127,23.044],[93.241,23.007],[93.327,23.039],[93.385,23.219],[93.373,23.329],[93.428,23.588],[93.392,23.757],[93.393,23.921],[93.326,24.049],[93.124,24.061],[92.991,24.116],[93.034,24.321],[93.009,24.412]]]},"properties":{"name":"Mizoram"}},{"type":"Feature","geometry":{"type":"Polygon","coordinates":[[[95.195,27.031],[94.982,26.913],[94.891,26.93],[94.8,26.8],[94.694,26.733],[94.539,26.706],[94.404,26.612],[94.374,26.507],[94.185,26.459],[94.172,26.338],[94.047,26.249],[93.989,26.133],[93.954,25.969],[93.979,25.917],[93.876,25.843],[93.681,25.904],[93.639,25.816],[93.353,25.528],[93.455,25.434],[93.454,25.325],[93.605,25.199],[93.834,25.561],[94.002,25.585],[94.222,25.491],[94.418,25.538],[94.425,25.587],[94.573,25.638],[94.554,25.503],[94.675,25.446],[94.806,25.492],[95.05,25.793],[95.009,25.867],[95.186,26.073],[95.118,26.101],[95.132,26.378],[95.073,26.473],[95.149,26.616],[95.234,26.682],[95.23,26.884],[95.195,27.031]]]},"properties":{"name":"Nagaland"}},{"type":"Feature","geometry":{"type":"Polygon","coordinates":[[[76.777,30.904],[76.625,30.999],[76.602,31.129],[76.645,31.209],[76.432,31.327],[76.214,31.299],[76.098,31.536],[76.018,31.632],[75.892,31.962],[75.601,32.093],[75.661,32.137],[75.657,32.251],[75.773,32.29],[75.901,32.453],[75.858,32.484],[75.834,32.512],[75.834,32.506],[75.832,32.503],[75.827,32.505],[75.826,32.5],[75.823,32.495],[75.778,32.466],[75.73,32.453],[75.737,32.43],[75.687,32.391],[75.512,32.308],[75.376,32.335],[75.261,32.102],[75.012,32.036],[74.927,32.066],[74.819,31.959],[74.616,31.889],[74.524,31.687],[74.584,31.521],[74.653,31.455],[74.552,31.364],[74.51,31.132],[74.548,31.032],[74.325,30.85],[74.265,30.725],[74.149,30.632],[74.072,30.523],[73.993,30.514],[73.932,30.319],[73.973,30.198],[73.971,30.125],[73.896,29.974],[74.527,29.943],[74.647,29.904],[74.702,29.972],[74.806,29.992],[74.923,29.952],[74.99,29.868],[75.164,29.824],[75.242,29.755],[75.168,29.667],[75.309,29.561],[75.346,29.696],[75.454,29.782],[75.634,29.755],[75.721,29.813],[75.984,29.727],[76.193,29.886],[76.254,30.122],[76.409,30.147],[76.547,30.076],[76.64,30.15],[76.623,30.265],[76.746,30.367],[76.883,30.409],[76.931,30.501],[76.926,30.61],[76.829,30.681],[76.752,30.685],[76.712,30.762],[76.838,30.755],[76.847,30.834],[76.777,30.904]]]},"properties":{"name":"Punjab"}},{"type":"Feature","geometry":{"type":"Polygon","coordinates":[[[74.527,29.943],[73.896,29.974],[73.971,30.125],[73.973,30.198],[73.806,30.068],[73.597,30.019],[73.397,29.946],[73.282,29.572],[73.085,29.236],[73.004,29.153],[72.945,29.028],[72.732,28.948],[72.404,28.783],[72.299,28.67],[72.206,28.394],[72.016,28.228],[71.928,28.122],[71.898,27.962],[71.666,27.878],[71.383,27.872],[71.205,27.835],[70.906,27.71],[70.759,27.721],[70.684,27.828],[70.677,27.922],[70.505,28.037],[70.372,28.012],[70.132,27.806],[70.026,27.563],[69.863,27.402],[69.587,27.184],[69.513,27.01],[69.484,26.805],[69.51,26.744],[69.886,26.579],[70.056,26.601],[70.174,26.551],[70.175,26.252],[70.083,26.083],[70.1,25.938],[70.268,25.714],[70.387,25.674],[70.609,25.715],[70.674,25.676],[70.665,25.397],[70.751,25.278],[70.888,25.148],[70.937,24.939],[71.065,24.718],[71.112,24.676],[71.299,24.624],[71.478,24.68],[71.731,24.66],[71.736,24.66],[71.908,24.677],[71.939,24.636],[71.94,24.636],[72.058,24.712],[72.165,24.621],[72.234,24.64],[72.354,24.564],[72.457,24.415],[72.534,24.504],[72.681,24.465],[72.733,24.364],[72.911,24.337],[73.001,24.469],[73.086,24.498],[73.167,24.299],[73.067,24.195],[73.165,24.096],[73.167,24.095],[73.239,24.004],[73.349,24.107],[73.405,24.041],[73.42,23.925],[73.354,23.852],[73.506,23.639],[73.615,23.652],[73.633,23.469],[73.83,23.426],[73.89,23.336],[74.029,23.332],[74.274,23.158],[74.324,23.061],[74.385,23.111],[74.539,23.103],[74.671,23.2],[74.701,23.265],[74.544,23.28],[74.575,23.423],[74.937,23.629],[74.94,23.765],[74.902,23.873],[74.978,24.037],[74.939,24.054],[74.868,24.243],[74.778,24.239],[74.781,24.338],[74.855,24.424],[74.744,24.469],[74.787,24.586],[74.993,24.693],[74.982,24.764],[74.861,24.799],[74.826,24.899],[75.048,24.85],[75.193,25.033],[75.334,25.041],[75.211,24.798],[75.228,24.718],[75.455,24.681],[75.534,24.712],[75.646,24.685],[75.757,24.762],[75.838,24.725],[75.842,24.624],[75.907,24.576],[75.909,24.455],[75.752,24.428],[75.738,24.335],[75.818,24.239],[75.752,24.148],[75.793,24.092],[75.765,23.993],[75.521,24.025],[75.459,23.921],[75.584,23.795],[75.693,23.776],[75.731,23.853],[75.888,23.879],[75.987,23.94],[75.962,24.015],[76.127,24.088],[76.118,24.195],[76.34,24.244],[76.562,24.173],[76.64,24.268],[76.702,24.241],[76.802,24.117],[76.901,24.127],[76.922,24.212],[76.841,24.323],[76.846,24.486],[76.978,24.461],[77.055,24.526],[77.065,24.644],[76.964,24.757],[76.856,24.742],[76.832,24.838],[76.942,24.859],[76.862,24.961],[76.877,25.041],[77.082,25.058],[77.175,25.112],[77.376,25.105],[77.414,25.22],[77.355,25.263],[77.371,25.408],[77.294,25.424],[77.209,25.306],[77.084,25.337],[77.031,25.295],[76.857,25.333],[76.78,25.316],[76.598,25.394],[76.516,25.528],[76.475,25.713],[76.591,25.875],[76.731,25.905],[76.902,26.094],[77.204,26.23],[77.439,26.404],[77.524,26.407],[77.676,26.503],[77.833,26.561],[77.998,26.694],[78.093,26.72],[78.223,26.831],[78.272,26.919],[77.878,26.902],[77.775,26.932],[77.608,26.828],[77.602,27.023],[77.538,27.098],[77.658,27.17],[77.613,27.332],[77.44,27.391],[77.434,27.46],[77.34,27.527],[77.353,27.651],[77.284,27.801],[77.156,27.785],[77.045,27.822],[76.979,27.654],[76.898,27.678],[76.943,27.854],[76.931,27.993],[76.971,28.138],[76.875,28.218],[76.716,28.128],[76.605,28.004],[76.455,28.042],[76.476,28.149],[76.357,28.144],[76.189,28.056],[76.168,27.903],[75.971,27.852],[75.983,28.081],[76.026,28.165],[75.999,28.286],[75.561,28.613],[75.497,28.855],[75.521,29.004],[75.391,29.063],[75.412,29.242],[75.323,29.289],[75.21,29.235],[75.075,29.23],[74.962,29.28],[74.938,29.362],[74.851,29.404],[74.782,29.358],[74.603,29.365],[74.576,29.56],[74.616,29.752],[74.477,29.745],[74.561,29.87],[74.527,29.943]]]},"properties":{"name":"Rajasthan"}},{"type":"Feature","geometry":{"type":"Polygon","coordinates":[[[88.746,27.142],[88.803,27.248],[88.913,27.29],[88.777,27.469],[88.848,27.668],[88.883,27.89],[88.844,27.993],[88.756,28.076],[88.62,28.098],[88.468,28.017],[88.253,27.945],[88.145,27.964],[88.135,27.882],[88.198,27.792],[88.083,27.589],[88.047,27.475],[88.068,27.335],[88.015,27.212],[88.154,27.11],[88.317,27.126],[88.431,27.079],[88.589,27.189],[88.746,27.142]]]},"properties":{"name":"Sikkim"}},{"type":"Feature","geometry":{"type":"Polygon","coordinates":[[[92.212,24.504],[92.083,24.375],[92.004,24.393],[91.922,24.337],[91.911,24.141],[91.747,24.245],[91.649,24.195],[91.581,24.074],[91.376,24.106],[91.36,23.986],[91.28,23.982],[91.166,23.75],[91.161,23.595],[91.254,23.488],[91.31,23.309],[91.325,23.169],[91.449,23.26],[91.55,23.039],[91.627,22.956],[91.712,22.984],[91.822,23.086],[91.76,23.282],[91.864,23.408],[91.976,23.495],[91.937,23.691],[92.075,23.647],[92.118,23.731],[92.265,23.725],[92.257,23.813],[92.324,23.905],[92.321,24.203],[92.292,24.25],[92.212,24.504]]]},"properties":{"name":"Tripura"}},{"type":"Feature","geometry":{"type":"Polygon","coordinates":[[[80.065,28.837],[80.059,28.916],[80.145,29.103],[80.233,29.119],[80.318,29.301],[80.242,29.442],[80.406,29.591],[80.369,29.75],[80.553,29.849],[80.604,29.958],[80.678,29.959],[80.804,30.089],[80.953,30.185],[80.998,30.268],[80.827,30.314],[80.606,30.471],[80.529,30.456],[80.315,30.565],[80.209,30.588],[80.249,30.743],[80.174,30.808],[79.889,30.918],[79.775,30.987],[79.601,30.939],[79.41,31.107],[79.318,31.136],[79.297,31.217],[79.139,31.433],[79.023,31.427],[78.882,31.287],[79.006,31.119],[78.89,31.097],[78.811,31.172],[78.58,31.226],[78.484,31.199],[78.384,31.282],[77.969,31.173],[77.817,31.056],[77.806,30.853],[77.704,30.766],[77.756,30.707],[77.819,30.508],[77.576,30.397],[77.937,30.249],[77.912,30.183],[77.744,29.984],[77.717,29.888],[77.83,29.668],[77.926,29.714],[77.983,29.641],[78.131,29.653],[78.204,29.737],[78.336,29.797],[78.517,29.719],[78.565,29.601],[78.711,29.501],[78.925,29.434],[78.912,29.394],[78.736,29.297],[78.873,29.224],[78.935,29.13],[79.075,29.152],[79.143,29.067],[79.311,28.974],[79.408,28.952],[79.426,28.866],[79.584,28.879],[79.707,28.841],[79.8,28.888],[79.954,28.723],[80.03,28.749],[80.065,28.837]]]},"properties":{"name":"Uttarakhand"}},{"type":"Feature","geometry":{"type":"Polygon","coordinates":[[[78.611,19.816],[78.423,19.818],[78.365,19.781],[78.364,19.779],[78.276,19.692],[78.304,19.456],[78.192,19.407],[78.175,19.238],[78.056,19.237],[77.944,19.343],[77.863,19.304],[77.838,19.138],[77.774,18.997],[77.903,18.867],[77.79,18.695],[77.73,18.667],[77.739,18.557],[77.64,18.555],[77.526,18.373],[77.551,18.292],[77.597,18.156],[77.554,18.036],[77.628,17.997],[77.619,17.904],[77.452,17.695],[77.444,17.584],[77.662,17.523],[77.513,17.431],[77.378,17.14],[77.497,17.043],[77.454,16.914],[77.468,16.61],[77.417,16.517],[77.264,16.473],[77.288,16.409],[77.423,16.366],[77.49,16.385],[77.49,16.12],[77.513,15.927],[77.804,15.874],[77.89,15.906],[78.084,15.841],[78.175,15.858],[78.25,15.934],[78.262,16.027],[78.408,16.075],[78.552,16.043],[78.61,16.087],[78.736,16.008],[78.837,16.07],[78.835,16.145],[79.029,16.242],[79.215,16.226],[79.234,16.336],[79.215,16.485],[79.262,16.567],[79.419,16.58],[79.604,16.672],[79.784,16.731],[79.965,16.645],[80.055,16.745],[80.073,16.817],[80.004,16.88],[80.055,16.971],[80.187,17.02],[80.307,16.974],[80.322,16.88],[80.504,16.779],[80.602,16.919],[80.465,17.03],[80.58,17.153],[80.699,17.084],[80.829,17.053],[80.919,17.22],[80.998,17.191],[81.171,17.231],[81.19,17.325],[81.274,17.317],[81.313,17.408],[81.203,17.434],[81.124,17.527],[81.015,17.522],[80.969,17.598],[80.855,17.602],[80.886,17.736],[81.041,17.748],[81.086,17.798],[81.008,17.798],[80.956,18.134],[80.867,18.14],[80.737,18.222],[80.733,18.403],[80.515,18.619],[80.343,18.598],[80.273,18.723],[80.112,18.683],[79.962,18.867],[79.938,19.041],[79.874,19.124],[79.977,19.394],[79.944,19.471],[79.779,19.6],[79.632,19.575],[79.516,19.52],[79.514,19.519],[79.273,19.599],[79.162,19.488],[78.998,19.54],[78.955,19.656],[78.86,19.689],[78.841,19.762],[78.613,19.815],[78.611,19.816]]]},"properties":{"name":"Telangana"}},{"type":"Feature","geometry":{"type":"Polygon","coordinates":[[[88.105,26.551],[88.068,26.415],[87.997,26.365],[87.917,26.43],[87.793,26.469],[87.651,26.393],[87.464,26.44],[87.312,26.372],[87.162,26.405],[87.016,26.532],[86.834,26.439],[86.73,26.423],[86.542,26.538],[86.307,26.62],[86.136,26.606],[86.028,26.666],[85.859,26.57],[85.732,26.654],[85.735,26.796],[85.575,26.861],[85.495,26.797],[85.334,26.742],[85.212,26.758],[85.193,26.867],[84.97,26.918],[84.961,26.961],[84.645,27.046],[84.69,27.222],[84.62,27.339],[84.279,27.396],[84.259,27.451],[84.106,27.521],[84.046,27.446],[83.832,27.431],[83.864,27.344],[83.987,27.198],[83.947,27.112],[84.049,27.035],[84.044,26.931],[84.182,26.834],[84.33,26.684],[84.285,26.6],[84.088,26.636],[84.048,26.536],[83.94,26.525],[83.911,26.45],[84.176,26.373],[84.177,26.265],[84.026,26.197],[84.089,26.1],[84.207,25.999],[84.625,25.792],[84.52,25.675],[84.377,25.741],[84.324,25.67],[84.223,25.662],[84.154,25.727],[84.081,25.636],[83.914,25.545],[83.808,25.409],[83.702,25.396],[83.63,25.33],[83.409,25.246],[83.354,25.189],[83.344,24.966],[83.428,24.768],[83.544,24.628],[83.503,24.525],[83.755,24.509],[83.933,24.547],[84.034,24.63],[84.104,24.481],[84.173,24.545],[84.3,24.545],[84.342,24.394],[84.466,24.332],[84.568,24.409],[84.802,24.531],[84.917,24.373],[85.031,24.416],[85.174,24.421],[85.292,24.524],[85.524,24.521],[85.568,24.591],[85.669,24.58],[85.649,24.685],[85.742,24.82],[85.89,24.793],[85.92,24.744],[86.055,24.78],[86.129,24.699],[86.158,24.587],[86.292,24.588],[86.276,24.466],[86.395,24.415],[86.491,24.428],[86.517,24.535],[86.603,24.602],[86.669,24.566],[86.787,24.616],[86.86,24.556],[86.93,24.627],[87.051,24.609],[87.077,24.808],[87.157,24.883],[87.146,25.009],[87.261,25.104],[87.318,25.195],[87.474,25.24],[87.543,25.297],[87.692,25.312],[87.711,25.258],[87.852,25.295],[87.764,25.386],[87.926,25.539],[88.031,25.491],[88.05,25.702],[87.91,25.781],[87.892,25.866],[87.811,25.928],[87.857,26.025],[87.95,26.06],[87.98,26.144],[88.073,26.175],[88.256,26.332],[88.258,26.332],[88.226,26.48],[88.105,26.551]]]},"properties":{"name":"Bihar"}},{"type":"Feature","geometry":{"type":"Polygon","coordinates":[[[76.431,11.666],[76.207,11.862],[76.115,11.867],[76.112,11.979],[76.003,11.931],[75.83,11.984],[75.803,12.08],[75.728,12.073],[75.577,12.157],[75.371,12.457],[75.22,12.568],[75.161,12.673],[74.928,12.779],[74.87,12.761],[74.974,12.501],[75.042,12.388],[75.204,12.006],[75.252,12.009],[75.366,11.853],[75.531,11.704],[75.537,11.694],[75.619,11.487],[75.681,11.451],[75.83,11.117],[75.922,10.761],[76.117,10.334],[76.26,9.883],[76.316,9.503],[76.353,9.377],[76.517,9.018],[76.542,8.913],[76.61,8.86],[76.998,8.375],[77.098,8.292],[77.158,8.328],[77.213,8.47],[77.275,8.539],[77.179,8.731],[77.264,8.842],[77.173,8.992],[77.268,9.153],[77.283,9.293],[77.399,9.496],[77.304,9.599],[77.204,9.615],[77.247,9.798],[77.218,9.905],[77.273,9.964],[77.204,10.088],[77.288,10.232],[77.176,10.359],[76.984,10.222],[76.83,10.303],[76.839,10.596],[76.904,10.763],[76.831,10.871],[76.659,10.931],[76.748,11.135],[76.707,11.238],[76.534,11.186],[76.548,11.359],[76.369,11.456],[76.265,11.481],[76.302,11.571],[76.431,11.666]]]},"properties":{"name":"Kerala"}},{"type":"Feature","geometry":{"type":"Polygon","coordinates":[[[82.81,23.963],[82.712,24.089],[82.773,24.308],[82.713,24.381],[82.748,24.561],[82.671,24.697],[82.539,24.648],[82.407,24.683],[82.273,24.675],[82.256,24.749],[81.908,24.881],[81.908,24.98],[81.669,25.072],[81.579,25.191],[81.484,25.116],[81.292,25.162],[81.263,25.052],[81.172,24.957],[80.996,24.928],[80.929,24.961],[80.869,25.117],[80.735,25.137],[80.676,25.079],[80.507,25.084],[80.48,24.976],[80.353,25.13],[80.432,25.178],[80.348,25.278],[80.316,25.386],[80.196,25.402],[80.131,25.334],[80.034,25.342],[80.003,25.267],[79.851,25.227],[79.866,25.141],[79.608,25.128],[79.483,25.08],[79.384,25.143],[79.437,25.255],[79.3,25.338],[79.314,25.136],[79.166,25.107],[79.064,25.222],[78.872,25.188],[78.976,25.42],[78.92,25.514],[78.842,25.513],[78.771,25.423],[78.608,25.415],[78.533,25.301],[78.653,25.05],[78.632,24.962],[78.771,24.857],[78.757,24.599],[78.883,24.641],[78.994,24.423],[78.888,24.227],[78.789,24.177],[78.584,24.346],[78.502,24.39],[78.395,24.269],[78.357,24.367],[78.264,24.456],[78.277,24.662],[78.172,24.878],[78.334,24.995],[78.34,25.087],[78.417,25.184],[78.301,25.362],[78.494,25.579],[78.658,25.56],[78.81,25.619],[78.8,25.703],[78.884,25.913],[79.003,26.067],[79.025,26.221],[79.116,26.321],[78.988,26.593],[78.993,26.677],[78.869,26.699],[78.722,26.796],[78.578,26.748],[78.395,26.817],[78.361,26.869],[78.223,26.831],[78.093,26.72],[77.998,26.694],[77.833,26.561],[77.676,26.503],[77.524,26.407],[77.439,26.404],[77.204,26.23],[76.902,26.094],[76.731,25.905],[76.591,25.875],[76.475,25.713],[76.516,25.528],[76.598,25.394],[76.78,25.316],[76.857,25.333],[77.031,25.295],[77.084,25.337],[77.209,25.306],[77.294,25.424],[77.371,25.408],[77.355,25.263],[77.414,25.22],[77.376,25.105],[77.175,25.112],[77.082,25.058],[76.877,25.041],[76.862,24.961],[76.942,24.859],[76.832,24.838],[76.856,24.742],[76.964,24.757],[77.065,24.644],[77.055,24.526],[76.978,24.461],[76.846,24.486],[76.841,24.323],[76.922,24.212],[76.901,24.127],[76.802,24.117],[76.702,24.241],[76.64,24.268],[76.562,24.173],[76.34,24.244],[76.118,24.195],[76.127,24.088],[75.962,24.015],[75.987,23.94],[75.888,23.879],[75.731,23.853],[75.693,23.776],[75.584,23.795],[75.459,23.921],[75.521,24.025],[75.765,23.993],[75.793,24.092],[75.752,24.148],[75.818,24.239],[75.738,24.335],[75.752,24.428],[75.909,24.455],[75.907,24.576],[75.842,24.624],[75.838,24.725],[75.757,24.762],[75.646,24.685],[75.534,24.712],[75.455,24.681],[75.228,24.718],[75.211,24.798],[75.334,25.041],[75.193,25.033],[75.048,24.85],[74.826,24.899],[74.861,24.799],[74.982,24.764],[74.993,24.693],[74.787,24.586],[74.744,24.469],[74.855,24.424],[74.781,24.338],[74.778,24.239],[74.868,24.243],[74.939,24.054],[74.978,24.037],[74.902,23.873],[74.94,23.765],[74.937,23.629],[74.575,23.423],[74.544,23.28],[74.701,23.265],[74.671,23.2],[74.539,23.103],[74.385,23.111],[74.324,23.061],[74.378,22.907],[74.465,22.816],[74.384,22.647],[74.277,22.646],[74.086,22.47],[74.27,22.413],[74.19,22.32],[74.072,22.361],[74.116,22.216],[74.109,22.022],[74.147,21.953],[74.281,21.933],[74.39,22.022],[74.509,21.921],[74.513,21.719],[74.582,21.665],[74.829,21.61],[74.869,21.631],[75.052,21.566],[75.108,21.462],[75.207,21.413],[75.496,21.387],[75.716,21.388],[75.963,21.39],[76.096,21.371],[76.159,21.253],[76.135,21.121],[76.279,21.07],[76.437,21.1],[76.493,21.194],[76.623,21.185],[76.663,21.28],[76.621,21.332],[76.74,21.411],[76.796,21.489],[76.784,21.574],[76.897,21.596],[77.008,21.68],[77.13,21.722],[77.21,21.69],[77.324,21.753],[77.501,21.747],[77.562,21.666],[77.575,21.526],[77.422,21.517],[77.563,21.393],[77.737,21.362],[77.822,21.407],[77.902,21.377],[78.176,21.499],[78.264,21.591],[78.417,21.601],[78.585,21.487],[78.941,21.511],[78.933,21.593],[78.936,21.593],[79.103,21.601],[79.221,21.694],[79.496,21.674],[79.578,21.541],[79.733,21.603],[79.863,21.531],[80.001,21.534],[80.129,21.611],[80.254,21.625],[80.376,21.523],[80.396,21.405],[80.66,21.334],[80.735,21.461],[80.717,21.602],[80.747,21.756],[80.839,21.8],[80.832,21.909],[80.908,22.11],[81.022,22.133],[81.023,22.229],[81.118,22.291],[81.11,22.436],[81.281,22.503],[81.428,22.48],[81.605,22.535],[81.794,22.766],[81.776,22.874],[81.862,22.889],[81.95,22.983],[81.969,23.081],[82.111,23.109],[82.199,23.312],[82.102,23.398],[81.985,23.415],[81.923,23.533],[81.821,23.515],[81.736,23.566],[81.612,23.511],[81.62,23.651],[81.696,23.721],[81.61,23.904],[81.823,23.808],[82.009,23.861],[82.082,23.816],[82.207,23.827],[82.525,23.784],[82.81,23.963]]]},"properties":{"name":"Madhya Pradesh"}},{"type":"Feature","geometry":{"type":"MultiPolygon","coordinates":[[[[93.837,7.24],[93.664,7.178],[93.657,7.048],[93.737,6.964],[93.807,6.776],[93.892,6.807],[93.933,7.011],[93.88,7.091],[93.837,7.24]]],[[[93.371,8.022],[93.301,7.961],[93.368,7.884],[93.451,7.937],[93.371,8.022]]],[[[92.792,9.239],[92.717,9.21],[92.729,9.126],[92.827,9.141],[92.792,9.239]]],[[[92.521,10.898],[92.378,10.783],[92.385,10.67],[92.452,10.545],[92.531,10.521],[92.597,10.681],[92.586,10.79],[92.521,10.898]]],[[[93.03,13.568],[92.913,13.527],[92.848,13.412],[92.796,13.081],[92.792,12.929],[92.856,12.927],[92.902,13.023],[93.005,13.031],[93.055,13.233],[93.03,13.568]]],[[[92.81,12.313],[92.742,12.244],[92.77,12.239],[92.738,12.099],[92.849,12.151],[92.869,12.301],[92.834,12.3],[92.81,12.313]]],[[[92.696,12.239],[92.624,12.108],[92.608,11.896],[92.55,11.823],[92.553,11.718],[92.645,11.524],[92.751,11.609],[92.786,11.926],[92.782,12.045],[92.734,12.103],[92.696,12.239]]],[[[92.901,12.911],[92.79,12.89],[92.722,12.825],[92.742,12.672],[92.7,12.6],[92.699,12.331],[92.719,12.3],[92.77,12.317],[92.81,12.316],[92.831,12.303],[92.882,12.333],[92.972,12.531],[92.967,12.739],[92.901,12.911]]]]},"properties":{"name":"Andaman & Nicobar"}},{"type":"Feature","geometry":{"type":"MultiPolygon","coordinates":[[[[72.362,22.029],[72.293,21.97],[72.321,21.82],[72.388,21.817],[72.439,21.93],[72.362,22.029]]],[[[73.165,24.096],[73.067,24.195],[73.167,24.299],[73.086,24.498],[73.001,24.469],[72.911,24.337],[72.733,24.364],[72.681,24.465],[72.534,24.504],[72.457,24.415],[72.354,24.564],[72.234,24.64],[72.165,24.621],[72.058,24.712],[71.94,24.636],[71.939,24.636],[71.908,24.677],[71.736,24.66],[71.731,24.66],[71.478,24.68],[71.299,24.624],[71.112,24.676],[70.986,24.595],[70.986,24.365],[70.806,24.221],[70.571,24.251],[70.573,24.422],[70.11,24.295],[70.025,24.171],[69.732,24.171],[69.594,24.293],[69.505,24.269],[69.313,24.281],[69.194,24.236],[69.095,24.274],[69.003,24.223],[68.946,24.303],[68.857,24.214],[68.769,24.267],[68.75,23.971],[68.345,23.972],[68.208,23.875],[68.202,23.766],[68.119,23.616],[68.31,23.579],[68.326,23.496],[68.657,23.151],[69.195,22.839],[69.469,22.798],[69.713,22.806],[69.939,22.898],[70.048,22.919],[70.216,23.128],[70.408,23.218],[70.505,23.177],[70.718,23.189],[70.689,23.117],[70.593,23.055],[70.461,22.853],[70.376,22.908],[70.292,22.766],[70.121,22.554],[69.973,22.54],[69.862,22.462],[69.701,22.461],[69.656,22.36],[69.544,22.377],[69.358,22.319],[69.137,22.195],[69.188,22.415],[69.072,22.387],[69.006,22.439],[68.936,22.311],[68.956,22.242],[69.282,21.896],[69.603,21.637],[70.099,21.108],[70.256,20.975],[70.426,20.863],[70.743,20.72],[70.874,20.704],[70.92,20.743],[71.007,20.737],[71.149,20.758],[71.322,20.847],[71.441,20.871],[71.511,20.945],[71.805,21.041],[71.894,21.109],[72.112,21.2],[72.084,21.246],[72.211,21.421],[72.309,21.639],[72.177,21.804],[72.203,21.914],[72.339,22.177],[72.373,22.316],[72.737,22.275],[72.567,22.182],[72.509,21.944],[72.643,21.942],[72.612,21.585],[72.654,21.346],[72.619,21.114],[72.702,21.096],[72.747,20.956],[72.843,20.777],[72.898,20.583],[72.856,20.467],[72.821,20.368],[72.741,20.247],[72.737,20.135],[72.87,20.228],[72.899,20.228],[72.933,20.216],[72.95,20.216],[72.962,20.209],[72.963,20.209],[72.965,20.212],[72.966,20.219],[72.966,20.221],[72.966,20.222],[72.963,20.271],[73.105,20.35],[73.098,20.229],[73.098,20.228],[73.211,20.12],[73.302,20.21],[73.417,20.198],[73.399,20.384],[73.468,20.496],[73.448,20.692],[73.6,20.637],[73.67,20.563],[73.838,20.621],[73.874,20.73],[73.942,20.742],[73.926,20.888],[73.868,20.986],[73.703,21.118],[73.612,21.138],[73.617,21.143],[73.577,21.156],[73.583,21.161],[73.577,21.171],[73.607,21.179],[73.606,21.172],[73.607,21.163],[73.607,21.162],[73.607,21.161],[73.63,21.153],[73.63,21.152],[73.63,21.151],[73.627,21.143],[73.665,21.147],[73.664,21.152],[73.676,21.153],[73.675,21.153],[73.702,21.154],[73.816,21.174],[73.823,21.265],[73.943,21.3],[73.952,21.395],[74.047,21.449],[74.321,21.498],[74.082,21.549],[74.054,21.559],[74.055,21.55],[74.053,21.548],[74.053,21.547],[74.05,21.548],[74.051,21.545],[74.049,21.545],[74.049,21.544],[74.047,21.545],[74.048,21.545],[74.043,21.546],[74.043,21.545],[74.037,21.545],[74.038,21.545],[74.038,21.549],[74.038,21.551],[74.034,21.548],[74.035,21.546],[74.01,21.549],[74.011,21.549],[74,21.545],[74.002,21.542],[73.995,21.538],[73.995,21.539],[73.996,21.539],[73.993,21.541],[73.993,21.542],[73.974,21.543],[73.974,21.539],[73.974,21.538],[73.974,21.537],[73.982,21.522],[73.955,21.54],[73.955,21.535],[73.954,21.534],[73.956,21.525],[73.954,21.524],[73.955,21.52],[73.952,21.518],[73.952,21.517],[73.951,21.515],[73.952,21.513],[73.951,21.513],[73.951,21.512],[73.94,21.515],[73.94,21.514],[73.932,21.512],[73.932,21.513],[73.929,21.52],[73.929,21.523],[73.921,21.523],[73.921,21.52],[73.904,21.524],[73.905,21.519],[73.905,21.516],[73.873,21.51],[73.873,21.511],[73.869,21.511],[73.869,21.513],[73.864,21.512],[73.873,21.506],[73.864,21.5],[73.865,21.499],[73.864,21.498],[73.863,21.498],[73.863,21.499],[73.85,21.503],[73.846,21.508],[73.812,21.603],[73.885,21.654],[73.836,21.747],[73.871,21.841],[74.147,21.953],[74.109,22.022],[74.116,22.216],[74.072,22.361],[74.19,22.32],[74.27,22.413],[74.086,22.47],[74.277,22.646],[74.384,22.647],[74.465,22.816],[74.378,22.907],[74.324,23.061],[74.274,23.158],[74.029,23.332],[73.89,23.336],[73.83,23.426],[73.633,23.469],[73.615,23.652],[73.506,23.639],[73.354,23.852],[73.42,23.925],[73.405,24.041],[73.349,24.107],[73.239,24.004],[73.167,24.095],[73.165,24.096]]]]},"properties":{"name":"Gujarat"}},{"type":"Feature","geometry":{"type":"Polygon","coordinates":[[[73.054,8.273],[73.039,8.272],[73.043,8.264],[73.054,8.273]]]},"properties":{"name":"Lakshadweep"}},{"type":"Feature","geometry":{"type":"Polygon","coordinates":[[[84.765,19.077],[84.848,19.201],[85.143,19.446],[85.307,19.562],[85.679,19.745],[86.058,19.85],[86.355,19.948],[86.52,20.17],[86.771,20.324],[86.73,20.442],[86.776,20.522],[87.056,20.715],[86.972,20.794],[86.977,20.861],[86.873,21.045],[86.841,21.158],[86.945,21.353],[87.148,21.509],[87.393,21.543],[87.486,21.61],[87.444,21.768],[87.277,21.805],[87.236,21.957],[87.002,21.913],[87.028,22.038],[86.852,22.103],[86.727,22.217],[86.499,22.346],[86.411,22.32],[86.283,22.448],[86.124,22.489],[86.069,22.556],[85.973,22.506],[86.018,22.426],[85.974,22.247],[86.031,22.193],[85.914,21.98],[85.766,21.995],[85.777,22.056],[85.599,22.078],[85.371,22.161],[85.214,22.049],[85.055,22.116],[84.984,22.093],[84.984,22.095],[85.107,22.296],[85.057,22.486],[84.909,22.423],[84.759,22.447],[84.503,22.42],[84.4,22.346],[84.317,22.342],[84.154,22.411],[84.152,22.413],[84.142,22.472],[84.009,22.526],[84.046,22.463],[84.005,22.374],[83.866,22.343],[83.758,22.24],[83.628,22.204],[83.563,22.103],[83.537,21.978],[83.606,21.914],[83.443,21.655],[83.37,21.6],[83.338,21.502],[83.399,21.405],[83.274,21.377],[83.268,21.277],[83.139,21.109],[82.942,21.161],[82.637,21.148],[82.63,21.04],[82.488,20.909],[82.455,20.827],[82.34,20.847],[82.377,20.632],[82.337,20.554],[82.438,20.434],[82.391,20.162],[82.401,20.055],[82.591,19.992],[82.718,19.989],[82.704,19.832],[82.418,19.904],[82.345,19.836],[82.269,19.975],[82.188,19.986],[81.946,20.105],[81.865,20.027],[81.852,19.923],[82.06,19.796],[82.048,19.535],[82.178,19.437],[82.188,19.335],[82.188,19.334],[82.168,19.136],[82.219,19.095],[82.246,18.919],[82.175,18.901],[82.156,18.785],[82.085,18.719],[81.965,18.693],[81.963,18.595],[81.769,18.418],[81.531,18.265],[81.481,18.053],[81.481,18.051],[81.482,17.976],[81.401,17.894],[81.396,17.82],[81.619,17.824],[81.808,17.956],[81.963,18.002],[82.007,18.058],[82.145,18.053],[82.147,18.052],[82.265,17.996],[82.342,18.059],[82.314,18.185],[82.391,18.327],[82.381,18.435],[82.472,18.543],[82.541,18.422],[82.605,18.382],[82.597,18.265],[82.769,18.338],[82.814,18.452],[82.975,18.364],[83.077,18.529],[82.999,18.621],[83.137,18.786],[83.21,18.74],[83.404,18.845],[83.309,19],[83.439,18.976],[83.516,19.057],[83.65,19.123],[83.716,18.994],[83.793,19.019],[83.895,18.817],[84.036,18.817],[84.092,18.76],[84.224,18.8],[84.319,18.788],[84.416,18.898],[84.429,18.97],[84.567,19.071],[84.696,19.127],[84.765,19.077]]]},"properties":{"name":"Odisha"}},{"type":"Feature","geometry":{"type":"Polygon","coordinates":[[[73.211,20.12],[73.098,20.228],[73.098,20.229],[73.105,20.35],[72.963,20.271],[72.966,20.222],[72.966,20.221],[72.966,20.219],[72.965,20.212],[72.963,20.209],[72.962,20.209],[72.961,20.209],[72.961,20.208],[72.96,20.2],[72.962,20.184],[72.974,20.158],[72.972,20.115],[73.132,20.082],[73.211,20.12]]]},"properties":{"name":"Dadra and Nagar Haveli and Daman and Diu"}},{"type":"Feature","geometry":{"type":"Polygon","coordinates":[[[75.36,34.521],[75.241,34.637],[75.262,34.729],[75.218,34.813],[75.009,34.835],[74.958,34.79],[74.73,34.837],[74.605,34.915],[74.515,35.095],[74.253,35.037],[74.133,35.107],[74.066,35.048],[74.029,34.877],[73.773,34.796],[73.618,34.585],[73.447,34.574],[73.4,34.359],[73.492,34.22],[73.514,34.006],[73.585,33.899],[73.562,33.675],[73.619,33.577],[73.558,33.368],[73.657,33.205],[73.688,33.088],[73.822,33.005],[73.957,32.987],[74.055,32.911],[74.177,32.883],[74.383,32.758],[74.655,32.728],[74.651,32.57],[74.711,32.478],[74.821,32.497],[74.947,32.447],[75.027,32.496],[75.376,32.335],[75.512,32.308],[75.687,32.391],[75.823,32.495],[75.826,32.5],[75.826,32.504],[75.827,32.505],[75.841,32.524],[75.856,32.528],[75.858,32.531],[75.858,32.538],[75.876,32.55],[75.916,32.613],[75.904,32.695],[75.904,32.769],[75.891,32.783],[75.954,32.873],[76.112,33.006],[76.277,33.037],[76.292,33.103],[76.41,33.187],[76.567,33.21],[76.747,33.179],[76.776,33.22],[76.779,33.24],[76.774,33.242],[76.772,33.247],[76.772,33.249],[76.771,33.25],[76.771,33.249],[76.77,33.249],[76.769,33.249],[76.768,33.248],[76.754,33.249],[76.737,33.261],[76.718,33.329],[76.671,33.342],[76.629,33.435],[76.578,33.43],[76.507,33.51],[76.384,33.552],[76.27,33.643],[76.202,33.773],[76.201,33.775],[76.027,33.971],[75.89,33.969],[75.686,34.12],[75.69,34.195],[75.497,34.233],[75.406,34.284],[75.367,34.391],[75.366,34.392],[75.372,34.407],[75.352,34.514],[75.36,34.521]]]},"properties":{"name":"Jammu & Kashmir"}},{"type":"Feature","geometry":{"type":"Polygon","coordinates":[[[83.33,24.102],[83.141,23.885],[82.954,23.871],[82.81,23.963],[82.525,23.784],[82.207,23.827],[82.082,23.816],[82.009,23.861],[81.823,23.808],[81.61,23.904],[81.696,23.721],[81.62,23.651],[81.612,23.511],[81.736,23.566],[81.821,23.515],[81.923,23.533],[81.985,23.415],[82.102,23.398],[82.199,23.312],[82.111,23.109],[81.969,23.081],[81.95,22.983],[81.862,22.889],[81.776,22.874],[81.794,22.766],[81.605,22.535],[81.428,22.48],[81.281,22.503],[81.11,22.436],[81.118,22.291],[81.023,22.229],[81.022,22.133],[80.908,22.11],[80.832,21.909],[80.839,21.8],[80.747,21.756],[80.717,21.602],[80.735,21.461],[80.66,21.334],[80.617,21.23],[80.464,21.175],[80.464,20.929],[80.535,20.934],[80.58,20.673],[80.626,20.567],[80.591,20.393],[80.626,20.333],[80.398,20.244],[80.43,20.136],[80.552,20.111],[80.549,19.984],[80.452,19.957],[80.469,19.827],[80.676,19.699],[80.775,19.562],[80.837,19.563],[80.838,19.562],[80.896,19.519],[80.853,19.364],[80.71,19.282],[80.623,19.306],[80.579,19.401],[80.486,19.341],[80.274,18.995],[80.274,18.932],[80.354,18.827],[80.273,18.723],[80.343,18.598],[80.515,18.619],[80.733,18.403],[80.737,18.222],[80.867,18.14],[80.956,18.134],[81.008,17.798],[81.086,17.798],[81.168,17.856],[81.265,17.811],[81.396,17.82],[81.401,17.894],[81.482,17.976],[81.481,18.051],[81.481,18.053],[81.531,18.265],[81.769,18.418],[81.963,18.595],[81.965,18.693],[82.085,18.719],[82.156,18.785],[82.175,18.901],[82.246,18.919],[82.219,19.095],[82.168,19.136],[82.188,19.334],[82.188,19.335],[82.178,19.437],[82.048,19.535],[82.06,19.796],[81.852,19.923],[81.865,20.027],[81.946,20.105],[82.188,19.986],[82.269,19.975],[82.345,19.836],[82.418,19.904],[82.704,19.832],[82.718,19.989],[82.591,19.992],[82.401,20.055],[82.391,20.162],[82.438,20.434],[82.337,20.554],[82.377,20.632],[82.34,20.847],[82.455,20.827],[82.488,20.909],[82.63,21.04],[82.637,21.148],[82.942,21.161],[83.139,21.109],[83.268,21.277],[83.274,21.377],[83.399,21.405],[83.338,21.502],[83.37,21.6],[83.443,21.655],[83.606,21.914],[83.537,21.978],[83.563,22.103],[83.628,22.204],[83.758,22.24],[83.866,22.343],[84.005,22.374],[84.046,22.463],[84.009,22.526],[84.084,22.638],[84.221,22.668],[84.396,22.926],[84.147,22.991],[84.133,23.083],[84.032,23.158],[84.074,23.334],[83.969,23.367],[83.94,23.571],[83.777,23.608],[83.708,23.817],[83.569,23.867],[83.508,24.031],[83.33,24.102]]]},"properties":{"name":"Chhattisgarh"}},{"type":"Feature","geometry":{"type":"Polygon","coordinates":[[[77.21,28.858],[77.062,28.871],[76.951,28.818],[76.956,28.671],[76.842,28.556],[76.88,28.505],[77,28.532],[77.243,28.479],[77.345,28.513],[77.297,28.566],[77.326,28.71],[77.199,28.798],[77.21,28.858]]]},"properties":{"name":"Delhi"}},{"type":"Feature","geometry":{"type":"Polygon","coordinates":[[[74.118,15.652],[73.991,15.611],[73.939,15.743],[73.675,15.727],[73.769,15.491],[73.875,15.396],[73.982,15.053],[74.086,14.901],[74.252,14.959],[74.297,15.041],[74.314,15.18],[74.271,15.281],[74.283,15.383],[74.264,15.616],[74.224,15.669],[74.118,15.652]]]},"properties":{"name":"Goa"}},{"type":"Feature","geometry":{"type":"Polygon","coordinates":[[[77.586,30.38],[77.518,30.443],[77.434,30.431],[77.208,30.474],[77.164,30.686],[76.915,30.89],[76.777,30.904],[76.847,30.834],[76.838,30.755],[76.829,30.681],[76.926,30.61],[76.931,30.501],[76.883,30.409],[76.746,30.367],[76.623,30.265],[76.64,30.15],[76.547,30.076],[76.409,30.147],[76.254,30.122],[76.193,29.886],[75.984,29.727],[75.721,29.813],[75.634,29.755],[75.454,29.782],[75.346,29.696],[75.309,29.561],[75.168,29.667],[75.242,29.755],[75.164,29.824],[74.99,29.868],[74.923,29.952],[74.806,29.992],[74.702,29.972],[74.647,29.904],[74.527,29.943],[74.561,29.87],[74.477,29.745],[74.616,29.752],[74.576,29.56],[74.603,29.365],[74.782,29.358],[74.851,29.404],[74.938,29.362],[74.962,29.28],[75.075,29.23],[75.21,29.235],[75.323,29.289],[75.412,29.242],[75.391,29.063],[75.521,29.004],[75.497,28.855],[75.561,28.613],[75.999,28.286],[76.026,28.165],[75.983,28.081],[75.971,27.852],[76.168,27.903],[76.189,28.056],[76.357,28.144],[76.476,28.149],[76.455,28.042],[76.605,28.004],[76.716,28.128],[76.875,28.218],[76.971,28.138],[76.931,27.993],[76.943,27.854],[76.898,27.678],[76.979,27.654],[77.045,27.822],[77.156,27.785],[77.284,27.801],[77.529,27.926],[77.474,28.087],[77.516,28.193],[77.478,28.419],[77.345,28.513],[77.243,28.479],[77,28.532],[76.88,28.505],[76.842,28.556],[76.956,28.671],[76.951,28.818],[77.062,28.871],[77.21,28.858],[77.233,28.919],[77.133,29.222],[77.161,29.332],[77.096,29.52],[77.156,29.698],[77.125,29.77],[77.297,30.053],[77.406,30.089],[77.587,30.314],[77.586,30.38]]]},"properties":{"name":"Haryana"}},{"type":"Feature","geometry":{"type":"Polygon","coordinates":[[[76.794,33.256],[76.776,33.254],[76.774,33.253],[76.772,33.251],[76.771,33.25],[76.771,33.249],[76.772,33.249],[76.772,33.247],[76.774,33.242],[76.779,33.24],[76.776,33.22],[76.747,33.179],[76.567,33.21],[76.41,33.187],[76.292,33.103],[76.277,33.037],[76.112,33.006],[75.954,32.873],[75.891,32.783],[75.904,32.769],[75.904,32.695],[75.916,32.613],[75.876,32.55],[75.858,32.538],[75.856,32.528],[75.85,32.527],[75.841,32.524],[75.834,32.512],[75.858,32.484],[75.901,32.453],[75.773,32.29],[75.657,32.251],[75.661,32.137],[75.601,32.093],[75.892,31.962],[76.018,31.632],[76.098,31.536],[76.214,31.299],[76.432,31.327],[76.645,31.209],[76.602,31.129],[76.625,30.999],[76.777,30.904],[76.915,30.89],[77.164,30.686],[77.208,30.474],[77.434,30.431],[77.518,30.443],[77.586,30.38],[77.576,30.397],[77.819,30.508],[77.756,30.707],[77.704,30.766],[77.806,30.853],[77.817,31.056],[77.969,31.173],[78.384,31.282],[78.484,31.199],[78.58,31.226],[78.811,31.172],[78.89,31.097],[79.006,31.119],[78.882,31.287],[78.792,31.305],[78.798,31.443],[78.72,31.507],[78.847,31.608],[78.706,31.774],[78.776,31.987],[78.612,32.119],[78.609,32.214],[78.48,32.274],[78.535,32.414],[78.399,32.526],[78.388,32.757],[78.276,32.699],[78.204,32.667],[78.016,32.62],[77.933,32.728],[77.911,32.773],[77.792,32.856],[77.8,32.912],[77.694,32.984],[77.605,32.943],[77.588,32.921],[77.469,32.858],[77.388,32.864],[77.317,32.852],[77.095,32.971],[76.95,33.02],[76.83,33.146],[76.794,33.256]]]},"properties":{"name":"Himachal Pradesh"}},{"type":"Feature","geometry":{"type":"Polygon","coordinates":[[[87.711,25.258],[87.692,25.312],[87.543,25.297],[87.474,25.24],[87.318,25.195],[87.261,25.104],[87.146,25.009],[87.157,24.883],[87.077,24.808],[87.051,24.609],[86.93,24.627],[86.86,24.556],[86.787,24.616],[86.669,24.566],[86.603,24.602],[86.517,24.535],[86.491,24.428],[86.395,24.415],[86.276,24.466],[86.292,24.588],[86.158,24.587],[86.129,24.699],[86.055,24.78],[85.92,24.744],[85.89,24.793],[85.742,24.82],[85.649,24.685],[85.669,24.58],[85.568,24.591],[85.524,24.521],[85.292,24.524],[85.174,24.421],[85.031,24.416],[84.917,24.373],[84.802,24.531],[84.568,24.409],[84.466,24.332],[84.342,24.394],[84.3,24.545],[84.173,24.545],[84.104,24.481],[84.034,24.63],[83.933,24.547],[83.755,24.509],[83.503,24.525],[83.386,24.458],[83.448,24.371],[83.33,24.102],[83.508,24.031],[83.569,23.867],[83.708,23.817],[83.777,23.608],[83.94,23.571],[83.969,23.367],[84.074,23.334],[84.032,23.158],[84.133,23.083],[84.147,22.991],[84.396,22.926],[84.221,22.668],[84.084,22.638],[84.009,22.526],[84.142,22.472],[84.152,22.413],[84.154,22.411],[84.317,22.342],[84.4,22.346],[84.503,22.42],[84.759,22.447],[84.909,22.423],[85.057,22.486],[85.107,22.296],[84.984,22.095],[84.984,22.093],[85.055,22.116],[85.214,22.049],[85.371,22.161],[85.599,22.078],[85.777,22.056],[85.766,21.995],[85.914,21.98],[86.031,22.193],[85.974,22.247],[86.018,22.426],[85.973,22.506],[86.069,22.556],[86.124,22.489],[86.283,22.448],[86.411,22.32],[86.499,22.346],[86.727,22.217],[86.802,22.218],[86.844,22.402],[86.766,22.576],[86.659,22.576],[86.641,22.659],[86.503,22.717],[86.419,22.791],[86.498,22.993],[86.371,22.998],[86.37,22.998],[86.224,22.995],[86.037,23.147],[85.895,23.155],[85.821,23.27],[85.868,23.329],[85.876,23.481],[86.026,23.486],[86.042,23.586],[86.159,23.559],[86.159,23.468],[86.26,23.418],[86.344,23.441],[86.345,23.441],[86.367,23.54],[86.456,23.622],[86.457,23.623],[86.718,23.699],[86.799,23.688],[86.853,23.826],[86.916,23.883],[87.152,23.799],[87.295,23.901],[87.234,24.032],[87.337,24.034],[87.44,23.982],[87.61,24.133],[87.674,24.142],[87.675,24.142],[87.653,24.239],[87.727,24.289],[87.729,24.288],[87.801,24.382],[87.8,24.565],[87.913,24.597],[87.908,24.722],[87.843,24.769],[87.961,24.923],[87.958,24.97],[87.795,25.09],[87.779,25.251],[87.711,25.258]]]},"properties":{"name":"Jharkhand"}},{"type":"Feature","geometry":{"type":"Polygon","coordinates":[[[79.874,12.043],[80.057,12.326],[80.138,12.411],[80.255,12.783],[80.268,12.979],[80.345,13.276],[80.324,13.45],[80.268,13.564],[80.242,13.472],[80.078,13.489],[79.972,13.469],[79.931,13.352],[79.606,13.288],[79.537,13.339],[79.398,13.33],[79.432,13.189],[79.31,13.112],[79.254,13.146],[79.163,13.02],[78.982,13.086],[78.813,13.089],[78.634,12.931],[78.555,12.699],[78.379,12.625],[78.24,12.703],[78.231,12.761],[78.077,12.84],[77.99,12.822],[77.836,12.87],[77.74,12.674],[77.599,12.667],[77.579,12.573],[77.627,12.459],[77.613,12.361],[77.472,12.21],[77.731,12.18],[77.776,12.119],[77.669,11.949],[77.493,11.941],[77.45,11.796],[77.294,11.809],[77.111,11.774],[77.013,11.815],[76.909,11.795],[76.835,11.64],[76.57,11.618],[76.512,11.705],[76.431,11.666],[76.302,11.571],[76.265,11.481],[76.369,11.456],[76.548,11.359],[76.534,11.186],[76.707,11.238],[76.748,11.135],[76.659,10.931],[76.831,10.871],[76.904,10.763],[76.839,10.596],[76.83,10.303],[76.984,10.222],[77.176,10.359],[77.288,10.232],[77.204,10.088],[77.273,9.964],[77.218,9.905],[77.247,9.798],[77.204,9.615],[77.304,9.599],[77.399,9.496],[77.283,9.293],[77.268,9.153],[77.173,8.992],[77.264,8.842],[77.179,8.731],[77.275,8.539],[77.213,8.47],[77.158,8.328],[77.098,8.292],[77.331,8.127],[77.556,8.077],[77.584,8.138],[77.794,8.162],[77.841,8.252],[77.991,8.35],[78.143,8.502],[78.139,8.68],[78.195,8.752],[78.172,8.884],[78.228,8.974],[78.415,9.114],[78.65,9.161],[78.665,9.194],[79.067,9.298],[78.903,9.463],[78.98,9.69],[79.244,10.027],[79.229,10.149],[79.267,10.229],[79.381,10.316],[79.768,10.272],[79.862,10.283],[79.87,10.375],[79.841,10.828],[79.725,10.929],[79.747,11.003],[79.854,10.983],[79.843,11.351],[79.766,11.522],[79.796,11.785],[79.807,11.834],[79.808,11.836],[79.692,11.951],[79.841,11.956],[79.857,12.007],[79.874,12.043]]]},"properties":{"name":"Tamil Nadu"}},{"type":"Feature","geometry":{"type":"Polygon","coordinates":[[[80.065,28.837],[80.03,28.749],[79.954,28.723],[79.8,28.888],[79.707,28.841],[79.584,28.879],[79.426,28.866],[79.408,28.952],[79.311,28.974],[79.143,29.067],[79.075,29.152],[78.935,29.13],[78.873,29.224],[78.736,29.297],[78.912,29.394],[78.925,29.434],[78.711,29.501],[78.565,29.601],[78.517,29.719],[78.336,29.797],[78.204,29.737],[78.131,29.653],[77.983,29.641],[77.926,29.714],[77.83,29.668],[77.717,29.888],[77.744,29.984],[77.912,30.183],[77.937,30.249],[77.576,30.397],[77.586,30.38],[77.587,30.314],[77.406,30.089],[77.297,30.053],[77.125,29.77],[77.156,29.698],[77.096,29.52],[77.161,29.332],[77.133,29.222],[77.233,28.919],[77.21,28.858],[77.199,28.798],[77.326,28.71],[77.297,28.566],[77.345,28.513],[77.478,28.419],[77.516,28.193],[77.474,28.087],[77.529,27.926],[77.284,27.801],[77.353,27.651],[77.34,27.527],[77.434,27.46],[77.44,27.391],[77.613,27.332],[77.658,27.17],[77.538,27.098],[77.602,27.023],[77.608,26.828],[77.775,26.932],[77.878,26.902],[78.272,26.919],[78.223,26.831],[78.361,26.869],[78.395,26.817],[78.578,26.748],[78.722,26.796],[78.869,26.699],[78.993,26.677],[78.988,26.593],[79.116,26.321],[79.025,26.221],[79.003,26.067],[78.884,25.913],[78.8,25.703],[78.81,25.619],[78.658,25.56],[78.494,25.579],[78.301,25.362],[78.417,25.184],[78.34,25.087],[78.334,24.995],[78.172,24.878],[78.277,24.662],[78.264,24.456],[78.357,24.367],[78.395,24.269],[78.502,24.39],[78.584,24.346],[78.789,24.177],[78.888,24.227],[78.994,24.423],[78.883,24.641],[78.757,24.599],[78.771,24.857],[78.632,24.962],[78.653,25.05],[78.533,25.301],[78.608,25.415],[78.771,25.423],[78.842,25.513],[78.92,25.514],[78.976,25.42],[78.872,25.188],[79.064,25.222],[79.166,25.107],[79.314,25.136],[79.3,25.338],[79.437,25.255],[79.384,25.143],[79.483,25.08],[79.608,25.128],[79.866,25.141],[79.851,25.227],[80.003,25.267],[80.034,25.342],[80.131,25.334],[80.196,25.402],[80.316,25.386],[80.348,25.278],[80.432,25.178],[80.353,25.13],[80.48,24.976],[80.507,25.084],[80.676,25.079],[80.735,25.137],[80.869,25.117],[80.929,24.961],[80.996,24.928],[81.172,24.957],[81.263,25.052],[81.292,25.162],[81.484,25.116],[81.579,25.191],[81.669,25.072],[81.908,24.98],[81.908,24.881],[82.256,24.749],[82.273,24.675],[82.407,24.683],[82.539,24.648],[82.671,24.697],[82.748,24.561],[82.713,24.381],[82.773,24.308],[82.712,24.089],[82.81,23.963],[82.954,23.871],[83.141,23.885],[83.33,24.102],[83.448,24.371],[83.386,24.458],[83.503,24.525],[83.544,24.628],[83.428,24.768],[83.344,24.966],[83.354,25.189],[83.409,25.246],[83.63,25.33],[83.702,25.396],[83.808,25.409],[83.914,25.545],[84.081,25.636],[84.154,25.727],[84.223,25.662],[84.324,25.67],[84.377,25.741],[84.52,25.675],[84.625,25.792],[84.207,25.999],[84.089,26.1],[84.026,26.197],[84.177,26.265],[84.176,26.373],[83.911,26.45],[83.94,26.525],[84.048,26.536],[84.088,26.636],[84.285,26.6],[84.33,26.684],[84.182,26.834],[84.044,26.931],[84.049,27.035],[83.947,27.112],[83.987,27.198],[83.864,27.344],[83.615,27.469],[83.409,27.479],[83.338,27.334],[83.162,27.457],[83.035,27.449],[82.929,27.501],[82.735,27.503],[82.754,27.585],[82.709,27.716],[82.449,27.68],[82.07,27.923],[81.968,27.929],[81.899,27.854],[81.699,27.988],[81.478,28.083],[81.444,28.162],[81.321,28.197],[81.211,28.361],[80.905,28.466],[80.714,28.569],[80.54,28.69],[80.377,28.629],[80.118,28.828],[80.065,28.837]]]},"properties":{"name":"Uttar Pradesh"}},{"type":"Feature","geometry":{"type":"MultiPolygon","coordinates":[[[[88.777,21.869],[88.714,21.902],[88.693,21.741],[88.805,21.655],[88.777,21.869]]],[[[88.746,27.142],[88.589,27.189],[88.431,27.079],[88.317,27.126],[88.154,27.11],[88.015,27.212],[87.995,27.131],[88.121,26.95],[88.186,26.774],[88.163,26.646],[88.105,26.551],[88.226,26.48],[88.258,26.332],[88.256,26.332],[88.073,26.175],[87.98,26.144],[87.95,26.06],[87.857,26.025],[87.811,25.928],[87.892,25.866],[87.91,25.781],[88.05,25.702],[88.031,25.491],[87.926,25.539],[87.764,25.386],[87.852,25.295],[87.711,25.258],[87.779,25.251],[87.795,25.09],[87.958,24.97],[87.961,24.923],[87.843,24.769],[87.908,24.722],[87.913,24.597],[87.8,24.565],[87.801,24.382],[87.729,24.288],[87.727,24.289],[87.653,24.239],[87.675,24.142],[87.674,24.142],[87.61,24.133],[87.44,23.982],[87.337,24.034],[87.234,24.032],[87.295,23.901],[87.152,23.799],[86.916,23.883],[86.853,23.826],[86.799,23.688],[86.718,23.699],[86.457,23.623],[86.456,23.622],[86.367,23.54],[86.345,23.441],[86.344,23.441],[86.26,23.418],[86.159,23.468],[86.159,23.559],[86.042,23.586],[86.026,23.486],[85.876,23.481],[85.868,23.329],[85.821,23.27],[85.895,23.155],[86.037,23.147],[86.224,22.995],[86.37,22.998],[86.371,22.998],[86.498,22.993],[86.419,22.791],[86.503,22.717],[86.641,22.659],[86.659,22.576],[86.766,22.576],[86.844,22.402],[86.802,22.218],[86.727,22.217],[86.852,22.103],[87.028,22.038],[87.002,21.913],[87.236,21.957],[87.277,21.805],[87.444,21.768],[87.486,21.61],[87.668,21.649],[87.806,21.709],[87.987,21.871],[88.06,22.018],[88.219,22.103],[88.165,21.943],[88.257,21.557],[88.302,21.679],[88.256,21.801],[88.41,21.905],[88.539,21.859],[88.633,21.955],[89.066,21.942],[89.042,22.092],[89.069,22.194],[88.984,22.331],[88.996,22.472],[88.939,22.587],[88.961,22.698],[88.912,22.758],[88.869,23.1],[88.932,23.147],[88.912,23.234],[88.778,23.221],[88.719,23.255],[88.753,23.478],[88.558,23.65],[88.599,23.869],[88.735,23.915],[88.711,24.122],[88.741,24.254],[88.683,24.324],[88.559,24.308],[88.342,24.438],[88.124,24.517],[88.024,24.688],[88.163,24.851],[88.222,24.96],[88.312,24.883],[88.448,25.041],[88.444,25.198],[88.831,25.205],[88.956,25.254],[88.84,25.363],[88.8,25.524],[88.646,25.479],[88.556,25.514],[88.392,25.693],[88.24,25.811],[88.116,25.804],[88.087,25.917],[88.185,26.064],[88.177,26.148],[88.351,26.222],[88.348,26.282],[88.509,26.407],[88.349,26.512],[88.376,26.595],[88.483,26.539],[88.678,26.39],[88.7,26.277],[88.793,26.31],[88.953,26.242],[88.957,26.459],[89.09,26.392],[89.154,26.141],[89.22,26.127],[89.357,26.008],[89.532,26.004],[89.628,26.061],[89.598,26.132],[89.72,26.166],[89.734,26.293],[89.869,26.452],[89.852,26.697],[89.764,26.699],[89.64,26.777],[89.37,26.857],[89.256,26.808],[89.129,26.807],[89.089,26.889],[88.975,26.913],[88.864,27.11],[88.746,27.142]]]]},"properties":{"name":"West Bengal"}},{"type":"Feature","geometry":{"type":"Polygon","coordinates":[[[84.765,19.077],[84.696,19.127],[84.567,19.071],[84.429,18.97],[84.416,18.898],[84.319,18.788],[84.224,18.8],[84.092,18.76],[84.036,18.817],[83.895,18.817],[83.793,19.019],[83.716,18.994],[83.65,19.123],[83.516,19.057],[83.439,18.976],[83.309,19],[83.404,18.845],[83.21,18.74],[83.137,18.786],[82.999,18.621],[83.077,18.529],[82.975,18.364],[82.814,18.452],[82.769,18.338],[82.597,18.265],[82.605,18.382],[82.541,18.422],[82.472,18.543],[82.381,18.435],[82.391,18.327],[82.314,18.185],[82.342,18.059],[82.265,17.996],[82.147,18.052],[82.145,18.053],[82.007,18.058],[81.963,18.002],[81.808,17.956],[81.619,17.824],[81.396,17.82],[81.265,17.811],[81.168,17.856],[81.086,17.798],[81.041,17.748],[80.886,17.736],[80.855,17.602],[80.969,17.598],[81.015,17.522],[81.124,17.527],[81.203,17.434],[81.313,17.408],[81.274,17.317],[81.19,17.325],[81.171,17.231],[80.998,17.191],[80.919,17.22],[80.829,17.053],[80.699,17.084],[80.58,17.153],[80.465,17.03],[80.602,16.919],[80.504,16.779],[80.322,16.88],[80.307,16.974],[80.187,17.02],[80.055,16.971],[80.004,16.88],[80.073,16.817],[80.055,16.745],[79.965,16.645],[79.784,16.731],[79.604,16.672],[79.419,16.58],[79.262,16.567],[79.215,16.485],[79.234,16.336],[79.215,16.226],[79.029,16.242],[78.835,16.145],[78.837,16.07],[78.736,16.008],[78.61,16.087],[78.552,16.043],[78.408,16.075],[78.262,16.027],[78.25,15.934],[78.175,15.858],[78.084,15.841],[77.89,15.906],[77.804,15.874],[77.513,15.927],[77.185,15.957],[77.07,15.908],[77.03,15.635],[77.045,15.356],[77.152,15.275],[77.169,15.171],[77.113,15.034],[76.878,15.035],[76.802,15.095],[76.767,14.975],[76.867,14.97],[76.851,14.809],[76.765,14.602],[76.901,14.489],[76.948,14.413],[76.94,14.245],[77.111,14.269],[77.139,14.34],[77.364,14.276],[77.412,14.337],[77.504,14.264],[77.467,14.172],[77.332,14.031],[77.171,14.012],[77.032,14.057],[77.042,13.933],[76.978,13.827],[77.065,13.744],[77.173,13.762],[77.169,13.865],[77.416,13.84],[77.471,13.758],[77.572,13.738],[77.837,13.87],[77.896,13.941],[77.992,13.869],[78.115,13.863],[78.09,13.659],[78.19,13.59],[78.385,13.592],[78.369,13.373],[78.554,13.283],[78.577,13.172],[78.517,13.13],[78.467,12.975],[78.252,12.861],[78.231,12.761],[78.24,12.703],[78.379,12.625],[78.555,12.699],[78.634,12.931],[78.813,13.089],[78.982,13.086],[79.163,13.02],[79.254,13.146],[79.31,13.112],[79.432,13.189],[79.398,13.33],[79.537,13.339],[79.606,13.288],[79.931,13.352],[79.972,13.469],[80.078,13.489],[80.242,13.472],[80.268,13.564],[80.235,13.706],[80.255,13.779],[80.147,14.041],[80.13,14.22],[80.167,14.344],[80.196,14.587],[80.112,14.74],[80.047,15.083],[80.111,15.346],[80.209,15.479],[80.243,15.615],[80.362,15.764],[80.49,15.833],[80.649,15.879],[80.782,15.863],[80.816,15.713],[81.008,15.754],[81.005,15.838],[81.148,15.979],[81.214,16.208],[81.268,16.279],[81.391,16.34],[81.503,16.355],[81.72,16.307],[81.973,16.41],[82.231,16.541],[82.313,16.562],[82.356,16.858],[82.248,16.905],[82.288,17.013],[82.443,17.175],[82.703,17.344],[82.995,17.475],[83.216,17.594],[83.347,17.728],[83.42,17.857],[83.569,18.01],[83.751,18.129],[84.126,18.311],[84.148,18.374],[84.355,18.555],[84.551,18.79],[84.604,18.89],[84.765,19.077]]]},"properties":{"name":"Andhra Pradesh"}},{"type":"Feature","geometry":{"type":"MultiPolygon","coordinates":[[[[79.854,10.983],[79.747,11.003],[79.725,10.929],[79.841,10.828],[79.854,10.983]]],[[[79.841,11.956],[79.692,11.951],[79.808,11.836],[79.841,11.956]]]]},"properties":{"name":"Puducherry"}},{"type":"Feature","geometry":{"type":"Polygon","coordinates":[[[75.716,21.388],[75.496,21.387],[75.207,21.413],[75.108,21.462],[75.052,21.566],[74.869,21.631],[74.829,21.61],[74.582,21.665],[74.513,21.719],[74.509,21.921],[74.39,22.022],[74.281,21.933],[74.147,21.953],[73.871,21.841],[73.836,21.747],[73.885,21.654],[73.812,21.603],[73.846,21.508],[73.85,21.503],[73.863,21.499],[73.863,21.498],[73.864,21.498],[73.865,21.499],[73.864,21.5],[73.873,21.506],[73.864,21.512],[73.869,21.513],[73.869,21.511],[73.873,21.511],[73.873,21.51],[73.905,21.516],[73.905,21.519],[73.904,21.524],[73.921,21.52],[73.921,21.523],[73.929,21.523],[73.929,21.52],[73.932,21.513],[73.932,21.512],[73.94,21.514],[73.94,21.515],[73.951,21.512],[73.951,21.513],[73.952,21.513],[73.951,21.515],[73.952,21.517],[73.952,21.518],[73.955,21.52],[73.954,21.524],[73.956,21.525],[73.954,21.534],[73.955,21.535],[73.955,21.54],[73.982,21.522],[73.974,21.537],[73.974,21.538],[73.974,21.539],[73.974,21.543],[73.993,21.542],[73.993,21.541],[73.996,21.539],[73.995,21.539],[73.995,21.538],[74.002,21.542],[74,21.545],[74.011,21.549],[74.01,21.549],[74.035,21.546],[74.034,21.548],[74.038,21.551],[74.038,21.549],[74.038,21.545],[74.037,21.545],[74.043,21.545],[74.043,21.546],[74.048,21.545],[74.047,21.545],[74.049,21.544],[74.049,21.545],[74.051,21.545],[74.05,21.548],[74.053,21.547],[74.053,21.548],[74.055,21.55],[74.054,21.559],[74.082,21.549],[74.321,21.498],[74.047,21.449],[73.952,21.395],[73.943,21.3],[73.823,21.265],[73.816,21.174],[73.702,21.154],[73.675,21.153],[73.676,21.153],[73.664,21.152],[73.665,21.147],[73.627,21.143],[73.63,21.151],[73.63,21.152],[73.63,21.153],[73.607,21.161],[73.607,21.162],[73.607,21.163],[73.606,21.172],[73.607,21.179],[73.577,21.171],[73.583,21.161],[73.577,21.156],[73.617,21.143],[73.612,21.138],[73.703,21.118],[73.868,20.986],[73.926,20.888],[73.942,20.742],[73.874,20.73],[73.838,20.621],[73.67,20.563],[73.6,20.637],[73.448,20.692],[73.468,20.496],[73.399,20.384],[73.417,20.198],[73.302,20.21],[73.211,20.12],[73.132,20.082],[72.972,20.115],[72.974,20.158],[72.962,20.184],[72.96,20.2],[72.961,20.208],[72.961,20.209],[72.962,20.209],[72.95,20.216],[72.933,20.216],[72.899,20.228],[72.87,20.228],[72.737,20.135],[72.729,19.98],[72.655,19.835],[72.742,19.65],[72.716,19.593],[72.758,19.376],[72.8,19.33],[72.782,19.159],[72.827,19.096],[72.811,18.894],[72.864,18.805],[72.866,18.652],[72.931,18.537],[72.911,18.366],[72.988,18.288],[72.971,18.132],[73.09,17.845],[73.114,17.69],[73.181,17.51],[73.188,17.415],[73.249,17.296],[73.289,17.074],[73.28,16.905],[73.306,16.73],[73.352,16.623],[73.319,16.519],[73.359,16.433],[73.51,15.942],[73.587,15.911],[73.675,15.727],[73.939,15.743],[73.991,15.611],[74.118,15.652],[74.202,15.759],[74.308,15.749],[74.346,15.851],[74.428,15.952],[74.491,16.104],[74.503,16.225],[74.363,16.286],[74.291,16.505],[74.318,16.554],[74.545,16.635],[74.569,16.554],[74.775,16.752],[74.92,16.773],[74.91,16.835],[74.989,16.952],[75.118,16.913],[75.183,16.843],[75.265,16.863],[75.28,16.957],[75.466,16.988],[75.489,16.944],[75.666,16.98],[75.677,17.065],[75.604,17.306],[75.633,17.477],[75.804,17.368],[75.926,17.325],[76.12,17.37],[76.272,17.361],[76.333,17.434],[76.332,17.596],[76.42,17.604],[76.563,17.765],[76.691,17.684],[76.734,17.782],[76.921,17.942],[76.952,18.188],[77.064,18.151],[77.209,18.288],[77.242,18.413],[77.317,18.443],[77.414,18.393],[77.371,18.325],[77.448,18.27],[77.551,18.292],[77.526,18.373],[77.64,18.555],[77.739,18.557],[77.73,18.667],[77.79,18.695],[77.903,18.867],[77.774,18.997],[77.838,19.138],[77.863,19.304],[77.944,19.343],[78.056,19.237],[78.175,19.238],[78.192,19.407],[78.304,19.456],[78.276,19.692],[78.364,19.779],[78.365,19.781],[78.423,19.818],[78.611,19.816],[78.613,19.815],[78.841,19.762],[78.86,19.689],[78.955,19.656],[78.998,19.54],[79.162,19.488],[79.273,19.599],[79.514,19.519],[79.516,19.52],[79.632,19.575],[79.779,19.6],[79.944,19.471],[79.977,19.394],[79.874,19.124],[79.938,19.041],[79.962,18.867],[80.112,18.683],[80.273,18.723],[80.354,18.827],[80.274,18.932],[80.274,18.995],[80.486,19.341],[80.579,19.401],[80.623,19.306],[80.71,19.282],[80.853,19.364],[80.896,19.519],[80.838,19.562],[80.837,19.563],[80.775,19.562],[80.676,19.699],[80.469,19.827],[80.452,19.957],[80.549,19.984],[80.552,20.111],[80.43,20.136],[80.398,20.244],[80.626,20.333],[80.591,20.393],[80.626,20.567],[80.58,20.673],[80.535,20.934],[80.464,20.929],[80.464,21.175],[80.617,21.23],[80.66,21.334],[80.396,21.405],[80.376,21.523],[80.254,21.625],[80.129,21.611],[80.001,21.534],[79.863,21.531],[79.733,21.603],[79.578,21.541],[79.496,21.674],[79.221,21.694],[79.103,21.601],[78.936,21.593],[78.933,21.593],[78.941,21.511],[78.585,21.487],[78.417,21.601],[78.264,21.591],[78.176,21.499],[77.902,21.377],[77.822,21.407],[77.737,21.362],[77.563,21.393],[77.422,21.517],[77.575,21.526],[77.562,21.666],[77.501,21.747],[77.324,21.753],[77.21,21.69],[77.13,21.722],[77.008,21.68],[76.897,21.596],[76.784,21.574],[76.796,21.489],[76.74,21.411],[76.621,21.332],[76.663,21.28],[76.623,21.185],[76.493,21.194],[76.437,21.1],[76.279,21.07],[76.135,21.121],[76.159,21.253],[76.096,21.371],[75.963,21.39],[75.716,21.388]]]},"properties":{"name":"Maharashtra"}},{"type":"Feature","geometry":{"type":"Polygon","coordinates":[[[74.133,35.107],[74.253,35.037],[74.515,35.095],[74.605,34.915],[74.73,34.837],[74.958,34.79],[75.009,34.835],[75.218,34.813],[75.262,34.729],[75.241,34.637],[75.36,34.521],[75.352,34.514],[75.372,34.407],[75.366,34.392],[75.367,34.391],[75.406,34.284],[75.497,34.233],[75.69,34.195],[75.686,34.12],[75.89,33.969],[76.027,33.971],[76.201,33.775],[76.202,33.773],[76.27,33.643],[76.384,33.552],[76.507,33.51],[76.578,33.43],[76.629,33.435],[76.671,33.342],[76.718,33.329],[76.737,33.261],[76.754,33.249],[76.768,33.248],[76.769,33.249],[76.77,33.249],[76.771,33.249],[76.771,33.25],[76.772,33.251],[76.776,33.254],[76.794,33.256],[76.83,33.146],[76.95,33.02],[77.095,32.971],[77.317,32.852],[77.388,32.864],[77.469,32.858],[77.588,32.921],[77.605,32.943],[77.694,32.984],[77.8,32.912],[77.792,32.856],[77.911,32.773],[77.933,32.728],[78.016,32.62],[78.204,32.667],[78.276,32.699],[78.388,32.757],[78.442,32.57],[78.618,32.596],[78.748,32.681],[78.826,32.438],[78.959,32.367],[79.114,32.384],[79.194,32.483],[79.338,32.592],[79.447,32.532],[79.625,32.737],[79.463,32.92],[79.382,32.972],[79.376,33.084],[79.453,33.258],[79.239,33.298],[79.096,33.294],[78.992,33.33],[78.932,33.433],[78.918,33.633],[79.019,33.705],[79.019,33.775],[78.904,33.976],[79.013,34.05],[79.374,34.033],[79.583,34.238],[79.558,34.411],[79.579,34.49],[79.792,34.485],[79.77,34.622],[79.859,34.688],[80.067,34.714],[80.072,34.828],[80.169,34.988],[80.182,35.166],[80.327,35.472],[80.293,35.602],[80.114,35.677],[79.998,35.837],[79.867,35.782],[79.744,35.8],[79.424,35.895],[79.385,35.99],[79.24,35.986],[79.116,35.836],[78.938,35.879],[78.657,35.853],[78.52,35.763],[78.272,35.721],[78.136,35.538],[77.966,35.574],[77.905,35.469],[77.824,35.51],[77.724,35.477],[77.516,35.488],[77.437,35.641],[77.357,35.717],[77.223,35.714],[77.118,35.796],[76.934,35.784],[76.803,35.85],[76.722,35.953],[76.8,36.048],[76.696,36.135],[76.481,36.211],[76.351,36.359],[76.254,36.347],[76.068,36.477],[75.922,36.502],[75.747,36.588],[75.615,36.761],[75.478,36.806],[75.344,37.002],[75.264,37.051],[75.135,36.957],[75.018,36.976],[74.913,36.908],[74.833,37.024],[74.708,37.077],[74.533,36.985],[74.428,36.989],[74.26,36.886],[74.051,36.806],[73.878,36.894],[73.71,36.912],[73.726,36.832],[73.863,36.788],[73.9,36.706],[73.7,36.684],[73.435,36.744],[73.314,36.706],[73.084,36.682],[73.061,36.537],[72.877,36.437],[72.778,36.309],[72.596,36.264],[72.531,36.072],[72.595,36.027],[72.533,35.917],[72.69,35.832],[72.901,35.881],[72.929,35.845],[73.152,35.842],[73.139,35.718],[73.406,35.563],[73.635,35.571],[73.785,35.524],[73.795,35.461],[73.7,35.358],[73.777,35.243],[73.916,35.212],[74.133,35.107]]]},"properties":{"name":"Ladakh"}}]}